{
"type": "FeatureCollection",
"name": "early_thinned_3km_partition",
"crs": { "type": "name", "properties": { "name": "urn:ogc:def:crs:OGC:1.3:CRS84" } },
"features": [
{ "type": "Feature", "properties": { "lat": 0.9187688, "lon": 34.9299407, "Date": "2018-07-14T00:00:00", "search_state": "Trans-Nzoia County", "species": "FAW", "Year": 2018, "Month_of_year": 7, "YearMonth": "2018-07", "Week_of_year": 28, "cluster": 1, "partition": 1 }, "geometry": { "type": "Point", "coordinates": [ 34.9299407, 0.9187688 ] } },
{ "type": "Feature", "properties": { "lat": 0.499269, "lon": 34.288866, "Date": "2019-10-01T00:00:00", "search_state": "Busia County", "species": "FAW", "Year": 2019, "Month_of_year": 10, "YearMonth": "2019-10", "Week_of_year": 40, "cluster": 4, "partition": 2 }, "geometry": { "type": "Point", "coordinates": [ 34.288866, 0.499269 ] } },
{ "type": "Feature", "properties": { "lat": 0.697794, "lon": 34.350563, "Date": "2019-10-15T00:00:00", "search_state": "Busia County", "species": "FAW", "Year": 2019, "Month_of_year": 10, "YearMonth": "2019-10", "Week_of_year": 42, "cluster": 4, "partition": 4 }, "geometry": { "type": "Point", "coordinates": [ 34.350563, 0.697794 ] } },
{ "type": "Feature", "properties": { "lat": 0.520434, "lon": 34.257097, "Date": "2020-04-28T00:00:00", "search_state": "Busia County", "species": "FAW", "Year": 2020, "Month_of_year": 4, "YearMonth": "2020-04", "Week_of_year": 18, "cluster": 4, "partition": 2 }, "geometry": { "type": "Point", "coordinates": [ 34.257097, 0.520434 ] } },
{ "type": "Feature", "properties": { "lat": 0.496708, "lon": 34.204908, "Date": "2019-10-18T00:00:00", "search_state": "Busia County", "species": "FAW", "Year": 2019, "Month_of_year": 10, "YearMonth": "2019-10", "Week_of_year": 42, "cluster": 4, "partition": 3 }, "geometry": { "type": "Point", "coordinates": [ 34.204908, 0.496708 ] } },
{ "type": "Feature", "properties": { "lat": 0.526734, "lon": 34.518866, "Date": "2020-06-11T00:00:00", "search_state": "Bungoma County", "species": "FAW", "Year": 2020, "Month_of_year": 6, "YearMonth": "2020-06", "Week_of_year": 24, "cluster": 4, "partition": 1 }, "geometry": { "type": "Point", "coordinates": [ 34.518866, 0.526734 ] } },
{ "type": "Feature", "properties": { "lat": 0.504638, "lon": 34.138156, "Date": "2019-09-25T00:00:00", "search_state": "Busia County", "species": "FAW", "Year": 2019, "Month_of_year": 9, "YearMonth": "2019-09", "Week_of_year": 39, "cluster": 4, "partition": 3 }, "geometry": { "type": "Point", "coordinates": [ 34.138156, 0.504638 ] } },
{ "type": "Feature", "properties": { "lat": 1.0947321, "lon": 34.770922, "Date": "2018-07-28T00:00:00", "search_state": "Trans-Nzoia County", "species": "FAW", "Year": 2018, "Month_of_year": 7, "YearMonth": "2018-07", "Week_of_year": 30, "cluster": 1, "partition": 4 }, "geometry": { "type": "Point", "coordinates": [ 34.770922, 1.0947321 ] } },
{ "type": "Feature", "properties": { "lat": 0.277717, "lon": 36.379493, "Date": "2020-03-03T00:00:00", "search_state": "Laikipia County", "species": "FAW", "Year": 2020, "Month_of_year": 3, "YearMonth": "2020-03", "Week_of_year": 10, "cluster": 0, "partition": 4 }, "geometry": { "type": "Point", "coordinates": [ 36.379493, 0.277717 ] } },
{ "type": "Feature", "properties": { "lat": 1.563338, "lon": 35.383911, "Date": "2019-10-18T00:00:00", "search_state": "West Pokot", "species": "FAW", "Year": 2019, "Month_of_year": 10, "YearMonth": "2019-10", "Week_of_year": 42, "cluster": 1, "partition": 2 }, "geometry": { "type": "Point", "coordinates": [ 35.383911, 1.563338 ] } },
{ "type": "Feature", "properties": { "lat": 0.535763, "lon": 34.224197, "Date": "2019-09-23T00:00:00", "search_state": "Busia County", "species": "FAW", "Year": 2019, "Month_of_year": 9, "YearMonth": "2019-09", "Week_of_year": 39, "cluster": 4, "partition": 2 }, "geometry": { "type": "Point", "coordinates": [ 34.224197, 0.535763 ] } },
{ "type": "Feature", "properties": { "lat": 0.585278, "lon": 34.247075, "Date": "2019-05-21T00:00:00", "search_state": "Busia County", "species": "FAW", "Year": 2019, "Month_of_year": 5, "YearMonth": "2019-05", "Week_of_year": 21, "cluster": 4, "partition": 4 }, "geometry": { "type": "Point", "coordinates": [ 34.247075, 0.585278 ] } },
{ "type": "Feature", "properties": { "lat": -1.14803, "lon": 36.8057417, "Date": "2019-12-09T00:00:00", "search_state": "Kiambu", "species": "FAW", "Year": 2019, "Month_of_year": 12, "YearMonth": "2019-12", "Week_of_year": 50, "cluster": 7, "partition": 0 }, "geometry": { "type": "Point", "coordinates": [ 36.8057417, -1.14803 ] } },
{ "type": "Feature", "properties": { "lat": 0.8730617, "lon": 34.8711783, "Date": "2018-07-08T00:00:00", "search_state": "Trans-Nzoia County", "species": "FAW", "Year": 2018, "Month_of_year": 7, "YearMonth": "2018-07", "Week_of_year": 27, "cluster": 1, "partition": 4 }, "geometry": { "type": "Point", "coordinates": [ 34.8711783, 0.8730617 ] } },
{ "type": "Feature", "properties": { "lat": 0.2846143, "lon": 34.7535775, "Date": "2018-04-05T00:00:00", "search_state": "Kakamega County", "species": "FAW", "Year": 2018, "Month_of_year": 4, "YearMonth": "2018-04", "Week_of_year": 14, "cluster": 8, "partition": 4 }, "geometry": { "type": "Point", "coordinates": [ 34.7535775, 0.2846143 ] } },
{ "type": "Feature", "properties": { "lat": -1.258074, "lon": 36.772577, "Date": "2019-12-09T00:00:00", "search_state": "Nairobi County", "species": "FAW", "Year": 2019, "Month_of_year": 12, "YearMonth": "2019-12", "Week_of_year": 50, "cluster": 7, "partition": 4 }, "geometry": { "type": "Point", "coordinates": [ 36.772577, -1.258074 ] } },
{ "type": "Feature", "properties": { "lat": 0.4831488, "lon": 37.6090933, "Date": "2019-05-08T00:00:00", "search_state": "Meru County", "species": "FAW", "Year": 2019, "Month_of_year": 5, "YearMonth": "2019-05", "Week_of_year": 19, "cluster": 2, "partition": 3 }, "geometry": { "type": "Point", "coordinates": [ 37.6090933, 0.4831488 ] } },
{ "type": "Feature", "properties": { "lat": 1.0062866, "lon": 35.0279743, "Date": "2018-09-18T00:00:00", "search_state": "Trans-Nzoia County", "species": "FAW", "Year": 2018, "Month_of_year": 9, "YearMonth": "2018-09", "Week_of_year": 38, "cluster": 1, "partition": 3 }, "geometry": { "type": "Point", "coordinates": [ 35.0279743, 1.0062866 ] } },
{ "type": "Feature", "properties": { "lat": -0.8499149, "lon": 35.3971826, "Date": "2018-07-06T00:00:00", "search_state": "Bomet", "species": "FAW", "Year": 2018, "Month_of_year": 7, "YearMonth": "2018-07", "Week_of_year": 27, "cluster": 6, "partition": 0 }, "geometry": { "type": "Point", "coordinates": [ 35.3971826, -0.8499149 ] } },
{ "type": "Feature", "properties": { "lat": 0.586881, "lon": 34.330863, "Date": "2019-05-22T00:00:00", "search_state": "Busia County", "species": "FAW", "Year": 2019, "Month_of_year": 5, "YearMonth": "2019-05", "Week_of_year": 21, "cluster": 4, "partition": 3 }, "geometry": { "type": "Point", "coordinates": [ 34.330863, 0.586881 ] } },
{ "type": "Feature", "properties": { "lat": 0.549903, "lon": 34.18546, "Date": "2019-05-20T00:00:00", "search_state": "Busia County", "species": "FAW", "Year": 2019, "Month_of_year": 5, "YearMonth": "2019-05", "Week_of_year": 21, "cluster": 4, "partition": 1 }, "geometry": { "type": "Point", "coordinates": [ 34.18546, 0.549903 ] } },
{ "type": "Feature", "properties": { "lat": -0.460745, "lon": 37.0088383, "Date": "2018-04-26T00:00:00", "search_state": "Nyeri", "species": "FAW", "Year": 2018, "Month_of_year": 4, "YearMonth": "2018-04", "Week_of_year": 17, "cluster": 2, "partition": 3 }, "geometry": { "type": "Point", "coordinates": [ 37.0088383, -0.460745 ] } },
{ "type": "Feature", "properties": { "lat": 0.493634, "lon": 34.535634, "Date": "2020-06-11T00:00:00", "search_state": "Bungoma County", "species": "FAW", "Year": 2020, "Month_of_year": 6, "YearMonth": "2020-06", "Week_of_year": 24, "cluster": 4, "partition": 2 }, "geometry": { "type": "Point", "coordinates": [ 34.535634, 0.493634 ] } },
{ "type": "Feature", "properties": { "lat": 0.4488162, "lon": 34.8515518, "Date": "2018-04-17T00:00:00", "search_state": "Kakamega County", "species": "FAW", "Year": 2018, "Month_of_year": 4, "YearMonth": "2018-04", "Week_of_year": 16, "cluster": 1, "partition": 1 }, "geometry": { "type": "Point", "coordinates": [ 34.8515518, 0.4488162 ] } },
{ "type": "Feature", "properties": { "lat": -0.2847895, "lon": 36.0701438, "Date": "2019-02-12T00:00:00", "search_state": "Nakuru", "species": "FAW", "Year": 2019, "Month_of_year": 2, "YearMonth": "2019-02", "Week_of_year": 7, "cluster": 0, "partition": 1 }, "geometry": { "type": "Point", "coordinates": [ 36.0701438, -0.2847895 ] } },
{ "type": "Feature", "properties": { "lat": 0.636933, "lon": 34.316923, "Date": "2019-11-11T00:00:00", "search_state": "Busia County", "species": "FAW", "Year": 2019, "Month_of_year": 11, "YearMonth": "2019-11", "Week_of_year": 46, "cluster": 4, "partition": 0 }, "geometry": { "type": "Point", "coordinates": [ 34.316923, 0.636933 ] } },
{ "type": "Feature", "properties": { "lat": 0.614951, "lon": 34.2855, "Date": "2019-11-11T00:00:00", "search_state": "Busia County", "species": "FAW", "Year": 2019, "Month_of_year": 11, "YearMonth": "2019-11", "Week_of_year": 46, "cluster": 4, "partition": 4 }, "geometry": { "type": "Point", "coordinates": [ 34.2855, 0.614951 ] } },
{ "type": "Feature", "properties": { "lat": 0.4708033, "lon": 35.9860467, "Date": "2019-02-15T00:00:00", "search_state": "Baringo", "species": "FAW", "Year": 2019, "Month_of_year": 2, "YearMonth": "2019-02", "Week_of_year": 7, "cluster": 0, "partition": 2 }, "geometry": { "type": "Point", "coordinates": [ 35.9860467, 0.4708033 ] } },
{ "type": "Feature", "properties": { "lat": 0.7, "lon": 35.7, "Date": "2018-07-03T00:00:00", "search_state": "Baringo", "species": "FAW", "Year": 2018, "Month_of_year": 7, "YearMonth": "2018-07", "Week_of_year": 27, "cluster": 1, "partition": 4 }, "geometry": { "type": "Point", "coordinates": [ 35.7, 0.7 ] } },
{ "type": "Feature", "properties": { "lat": 0.9961338, "lon": 35.0604139, "Date": "2018-07-02T00:00:00", "search_state": "Trans-Nzoia County", "species": "FAW", "Year": 2018, "Month_of_year": 7, "YearMonth": "2018-07", "Week_of_year": 27, "cluster": 1, "partition": 0 }, "geometry": { "type": "Point", "coordinates": [ 35.0604139, 0.9961338 ] } },
{ "type": "Feature", "properties": { "lat": -1.26191102, "lon": 36.80127127, "Date": "2019-03-13T00:00:00", "search_state": "Nairobi County", "species": "FAW", "Year": 2019, "Month_of_year": 3, "YearMonth": "2019-03", "Week_of_year": 11, "cluster": 7, "partition": 0 }, "geometry": { "type": "Point", "coordinates": [ 36.80127127, -1.26191102 ] } },
{ "type": "Feature", "properties": { "lat": 0.7948652, "lon": 35.4120133, "Date": "2018-07-04T00:00:00", "search_state": "Uasin Gishu County", "species": "FAW", "Year": 2018, "Month_of_year": 7, "YearMonth": "2018-07", "Week_of_year": 27, "cluster": 1, "partition": 2 }, "geometry": { "type": "Point", "coordinates": [ 35.4120133, 0.7948652 ] } },
{ "type": "Feature", "properties": { "lat": -0.4436397, "lon": 36.9797399, "Date": "2018-04-23T00:00:00", "search_state": "Nyeri", "species": "FAW", "Year": 2018, "Month_of_year": 4, "YearMonth": "2018-04", "Week_of_year": 17, "cluster": 2, "partition": 1 }, "geometry": { "type": "Point", "coordinates": [ 36.9797399, -0.4436397 ] } },
{ "type": "Feature", "properties": { "lat": -3.214996, "lon": 40.093899, "Date": "2020-07-14T00:00:00", "search_state": "Kilifi County", "species": "FAW", "Year": 2020, "Month_of_year": 7, "YearMonth": "2020-07", "Week_of_year": 29, "cluster": 5, "partition": 2 }, "geometry": { "type": "Point", "coordinates": [ 40.093899, -3.214996 ] } },
{ "type": "Feature", "properties": { "lat": 0.359733, "lon": 34.256555, "Date": "2020-05-06T00:00:00", "search_state": "Busia County", "species": "FAW", "Year": 2020, "Month_of_year": 5, "YearMonth": "2020-05", "Week_of_year": 19, "cluster": 4, "partition": 4 }, "geometry": { "type": "Point", "coordinates": [ 34.256555, 0.359733 ] } },
{ "type": "Feature", "properties": { "lat": 0.567394, "lon": 34.560638, "Date": "2018-06-13T00:00:00", "search_state": "Bungoma County", "species": "FAW", "Year": 2018, "Month_of_year": 6, "YearMonth": "2018-06", "Week_of_year": 24, "cluster": 4, "partition": 3 }, "geometry": { "type": "Point", "coordinates": [ 34.560638, 0.567394 ] } },
{ "type": "Feature", "properties": { "lat": 0.695431, "lon": 34.383592, "Date": "2019-08-21T00:00:00", "search_state": "Busia County", "species": "FAW", "Year": 2019, "Month_of_year": 8, "YearMonth": "2019-08", "Week_of_year": 34, "cluster": 4, "partition": 0 }, "geometry": { "type": "Point", "coordinates": [ 34.383592, 0.695431 ] } },
{ "type": "Feature", "properties": { "lat": -0.8754993, "lon": 35.2838259, "Date": "2018-12-14T00:00:00", "search_state": "Bomet", "species": "FAW", "Year": 2018, "Month_of_year": 12, "YearMonth": "2018-12", "Week_of_year": 50, "cluster": 6, "partition": 2 }, "geometry": { "type": "Point", "coordinates": [ 35.2838259, -0.8754993 ] } },
{ "type": "Feature", "properties": { "lat": -0.08750075, "lon": 34.78389669, "Date": "2019-02-25T00:00:00", "search_state": "Kisumu County", "species": "FAW", "Year": 2019, "Month_of_year": 2, "YearMonth": "2019-02", "Week_of_year": 9, "cluster": 8, "partition": 1 }, "geometry": { "type": "Point", "coordinates": [ 34.78389669, -0.08750075 ] } },
{ "type": "Feature", "properties": { "lat": -0.8880604, "lon": 35.4005151, "Date": "2018-07-24T00:00:00", "search_state": "Bomet", "species": "FAW", "Year": 2018, "Month_of_year": 7, "YearMonth": "2018-07", "Week_of_year": 30, "cluster": 6, "partition": 1 }, "geometry": { "type": "Point", "coordinates": [ 35.4005151, -0.8880604 ] } },
{ "type": "Feature", "properties": { "lat": 0.462374, "lon": 34.108853, "Date": "2019-05-20T00:00:00", "search_state": "Busia County", "species": "FAW", "Year": 2019, "Month_of_year": 5, "YearMonth": "2019-05", "Week_of_year": 21, "cluster": 4, "partition": 2 }, "geometry": { "type": "Point", "coordinates": [ 34.108853, 0.462374 ] } },
{ "type": "Feature", "properties": { "lat": -1.210481, "lon": 36.8510154, "Date": "2019-03-20T00:00:00", "search_state": "Nairobi County", "species": "FAW", "Year": 2019, "Month_of_year": 3, "YearMonth": "2019-03", "Week_of_year": 12, "cluster": 7, "partition": 0 }, "geometry": { "type": "Point", "coordinates": [ 36.8510154, -1.210481 ] } },
{ "type": "Feature", "properties": { "lat": -0.775709, "lon": 35.4638408, "Date": "2018-08-03T00:00:00", "search_state": "Bomet", "species": "FAW", "Year": 2018, "Month_of_year": 8, "YearMonth": "2018-08", "Week_of_year": 31, "cluster": 6, "partition": 1 }, "geometry": { "type": "Point", "coordinates": [ 35.4638408, -0.775709 ] } },
{ "type": "Feature", "properties": { "lat": 0.752063, "lon": 34.404323, "Date": "2019-05-31T00:00:00", "search_state": "Busia County", "species": "FAW", "Year": 2019, "Month_of_year": 5, "YearMonth": "2019-05", "Week_of_year": 22, "cluster": 4, "partition": 4 }, "geometry": { "type": "Point", "coordinates": [ 34.404323, 0.752063 ] } },
{ "type": "Feature", "properties": { "lat": 0.394288, "lon": 34.121298, "Date": "2019-11-13T00:00:00", "search_state": "Busia County", "species": "FAW", "Year": 2019, "Month_of_year": 11, "YearMonth": "2019-11", "Week_of_year": 46, "cluster": 4, "partition": 2 }, "geometry": { "type": "Point", "coordinates": [ 34.121298, 0.394288 ] } },
{ "type": "Feature", "properties": { "lat": 1.0817065, "lon": 34.8228025, "Date": "2018-06-29T00:00:00", "search_state": "Trans-Nzoia County", "species": "FAW", "Year": 2018, "Month_of_year": 6, "YearMonth": "2018-06", "Week_of_year": 26, "cluster": 1, "partition": 4 }, "geometry": { "type": "Point", "coordinates": [ 34.8228025, 1.0817065 ] } },
{ "type": "Feature", "properties": { "lat": -1.50781, "lon": 37.0999733, "Date": "2019-04-03T00:00:00", "search_state": "Machakos County", "species": "FAW", "Year": 2019, "Month_of_year": 4, "YearMonth": "2019-04", "Week_of_year": 14, "cluster": 9, "partition": 2 }, "geometry": { "type": "Point", "coordinates": [ 37.0999733, -1.50781 ] } },
{ "type": "Feature", "properties": { "lat": 0.208277, "lon": 34.122071, "Date": "2019-09-27T00:00:00", "search_state": "Siaya County", "species": "FAW", "Year": 2019, "Month_of_year": 9, "YearMonth": "2019-09", "Week_of_year": 39, "cluster": 4, "partition": 3 }, "geometry": { "type": "Point", "coordinates": [ 34.122071, 0.208277 ] } },
{ "type": "Feature", "properties": { "lat": 0.452256, "lon": 34.352027, "Date": "2019-05-16T00:00:00", "search_state": "Busia County", "species": "FAW", "Year": 2019, "Month_of_year": 5, "YearMonth": "2019-05", "Week_of_year": 20, "cluster": 4, "partition": 0 }, "geometry": { "type": "Point", "coordinates": [ 34.352027, 0.452256 ] } },
{ "type": "Feature", "properties": { "lat": 0.561815, "lon": 34.269422, "Date": "2019-05-27T00:00:00", "search_state": "Busia County", "species": "FAW", "Year": 2019, "Month_of_year": 5, "YearMonth": "2019-05", "Week_of_year": 22, "cluster": 4, "partition": 1 }, "geometry": { "type": "Point", "coordinates": [ 34.269422, 0.561815 ] } },
{ "type": "Feature", "properties": { "lat": 0.602632, "lon": 34.36764, "Date": "2019-05-25T00:00:00", "search_state": "Busia County", "species": "FAW", "Year": 2019, "Month_of_year": 5, "YearMonth": "2019-05", "Week_of_year": 21, "cluster": 4, "partition": 0 }, "geometry": { "type": "Point", "coordinates": [ 34.36764, 0.602632 ] } },
{ "type": "Feature", "properties": { "lat": -1.5289981, "lon": 37.2628412, "Date": "2019-06-11T00:00:00", "search_state": "Machakos County", "species": "FAW", "Year": 2019, "Month_of_year": 6, "YearMonth": "2019-06", "Week_of_year": 24, "cluster": 9, "partition": 2 }, "geometry": { "type": "Point", "coordinates": [ 37.2628412, -1.5289981 ] } },
{ "type": "Feature", "properties": { "lat": 0.8935538, "lon": 34.9728588, "Date": "2018-06-18T00:00:00", "search_state": "Trans-Nzoia County", "species": "FAW", "Year": 2018, "Month_of_year": 6, "YearMonth": "2018-06", "Week_of_year": 25, "cluster": 1, "partition": 1 }, "geometry": { "type": "Point", "coordinates": [ 34.9728588, 0.8935538 ] } },
{ "type": "Feature", "properties": { "lat": 0.412293, "lon": 34.146762, "Date": "2019-11-10T00:00:00", "search_state": "Busia County", "species": "FAW", "Year": 2019, "Month_of_year": 11, "YearMonth": "2019-11", "Week_of_year": 45, "cluster": 4, "partition": 1 }, "geometry": { "type": "Point", "coordinates": [ 34.146762, 0.412293 ] } },
{ "type": "Feature", "properties": { "lat": 0.602451, "lon": 34.415491, "Date": "2019-12-04T00:00:00", "search_state": "Bungoma County", "species": "FAW", "Year": 2019, "Month_of_year": 12, "YearMonth": "2019-12", "Week_of_year": 49, "cluster": 4, "partition": 4 }, "geometry": { "type": "Point", "coordinates": [ 34.415491, 0.602451 ] } },
{ "type": "Feature", "properties": { "lat": 0.308899, "lon": 34.207244, "Date": "2019-11-12T00:00:00", "search_state": "Busia County", "species": "FAW", "Year": 2019, "Month_of_year": 11, "YearMonth": "2019-11", "Week_of_year": 46, "cluster": 4, "partition": 1 }, "geometry": { "type": "Point", "coordinates": [ 34.207244, 0.308899 ] } },
{ "type": "Feature", "properties": { "lat": -0.70953333333333335, "lon": 35.06756, "Date": "2018-06-10T00:00:00", "search_state": "Bomet", "species": "FAW", "Year": 2018, "Month_of_year": 6, "YearMonth": "2018-06", "Week_of_year": 23, "cluster": 6, "partition": 4 }, "geometry": { "type": "Point", "coordinates": [ 35.06756, -0.709533333333333 ] } },
{ "type": "Feature", "properties": { "lat": -0.384357, "lon": 38.569486, "Date": "2019-09-13T00:00:00", "search_state": "Kitui County", "species": "FAW", "Year": 2019, "Month_of_year": 9, "YearMonth": "2019-09", "Week_of_year": 37, "cluster": 2, "partition": 2 }, "geometry": { "type": "Point", "coordinates": [ 38.569486, -0.384357 ] } },
{ "type": "Feature", "properties": { "lat": 0.213035, "lon": 34.350195, "Date": "2019-07-10T00:00:00", "search_state": "Siaya County", "species": "FAW", "Year": 2019, "Month_of_year": 7, "YearMonth": "2019-07", "Week_of_year": 28, "cluster": 4, "partition": 1 }, "geometry": { "type": "Point", "coordinates": [ 34.350195, 0.213035 ] } },
{ "type": "Feature", "properties": { "lat": 0.8261664, "lon": 34.9338462, "Date": "2018-08-24T00:00:00", "search_state": "Bungoma County", "species": "FAW", "Year": 2018, "Month_of_year": 8, "YearMonth": "2018-08", "Week_of_year": 34, "cluster": 1, "partition": 0 }, "geometry": { "type": "Point", "coordinates": [ 34.9338462, 0.8261664 ] } },
{ "type": "Feature", "properties": { "lat": 0.422932, "lon": 34.266297, "Date": "2019-08-16T00:00:00", "search_state": "Busia County", "species": "FAW", "Year": 2019, "Month_of_year": 8, "YearMonth": "2019-08", "Week_of_year": 33, "cluster": 4, "partition": 0 }, "geometry": { "type": "Point", "coordinates": [ 34.266297, 0.422932 ] } },
{ "type": "Feature", "properties": { "lat": 0.487762, "lon": 34.23994, "Date": "2019-09-23T00:00:00", "search_state": "Busia County", "species": "FAW", "Year": 2019, "Month_of_year": 9, "YearMonth": "2019-09", "Week_of_year": 39, "cluster": 4, "partition": 1 }, "geometry": { "type": "Point", "coordinates": [ 34.23994, 0.487762 ] } },
{ "type": "Feature", "properties": { "lat": 0.583091, "lon": 34.205855, "Date": "2020-06-17T00:00:00", "search_state": "Busia County", "species": "FAW", "Year": 2020, "Month_of_year": 6, "YearMonth": "2020-06", "Week_of_year": 25, "cluster": 4, "partition": 2 }, "geometry": { "type": "Point", "coordinates": [ 34.205855, 0.583091 ] } },
{ "type": "Feature", "properties": { "lat": 0.36426, "lon": 34.151765, "Date": "2020-06-04T00:00:00", "search_state": "Busia County", "species": "FAW", "Year": 2020, "Month_of_year": 6, "YearMonth": "2020-06", "Week_of_year": 23, "cluster": 4, "partition": 4 }, "geometry": { "type": "Point", "coordinates": [ 34.151765, 0.36426 ] } },
{ "type": "Feature", "properties": { "lat": -1.5683498, "lon": 37.0774412, "Date": "2019-04-03T00:00:00", "search_state": "Machakos County", "species": "FAW", "Year": 2019, "Month_of_year": 4, "YearMonth": "2019-04", "Week_of_year": 14, "cluster": 9, "partition": 4 }, "geometry": { "type": "Point", "coordinates": [ 37.0774412, -1.5683498 ] } },
{ "type": "Feature", "properties": { "lat": 0.403789, "lon": 34.188478, "Date": "2019-05-27T00:00:00", "search_state": "Busia County", "species": "FAW", "Year": 2019, "Month_of_year": 5, "YearMonth": "2019-05", "Week_of_year": 22, "cluster": 4, "partition": 4 }, "geometry": { "type": "Point", "coordinates": [ 34.188478, 0.403789 ] } },
{ "type": "Feature", "properties": { "lat": 0.460309, "lon": 34.239159, "Date": "2019-05-16T00:00:00", "search_state": "Busia County", "species": "FAW", "Year": 2019, "Month_of_year": 5, "YearMonth": "2019-05", "Week_of_year": 20, "cluster": 4, "partition": 1 }, "geometry": { "type": "Point", "coordinates": [ 34.239159, 0.460309 ] } },
{ "type": "Feature", "properties": { "lat": 0.645349, "lon": 34.28713, "Date": "2019-05-28T00:00:00", "search_state": "Busia County", "species": "FAW", "Year": 2019, "Month_of_year": 5, "YearMonth": "2019-05", "Week_of_year": 22, "cluster": 4, "partition": 0 }, "geometry": { "type": "Point", "coordinates": [ 34.28713, 0.645349 ] } },
{ "type": "Feature", "properties": { "lat": -1.168545, "lon": 36.7850683, "Date": "2019-11-22T00:00:00", "search_state": "Kiambu", "species": "FAW", "Year": 2019, "Month_of_year": 11, "YearMonth": "2019-11", "Week_of_year": 47, "cluster": 7, "partition": 1 }, "geometry": { "type": "Point", "coordinates": [ 36.7850683, -1.168545 ] } },
{ "type": "Feature", "properties": { "lat": 0.334685, "lon": 34.192076, "Date": "2020-05-12T00:00:00", "search_state": "Busia County", "species": "FAW", "Year": 2020, "Month_of_year": 5, "YearMonth": "2020-05", "Week_of_year": 20, "cluster": 4, "partition": 1 }, "geometry": { "type": "Point", "coordinates": [ 34.192076, 0.334685 ] } },
{ "type": "Feature", "properties": { "lat": 1.942783, "lon": 35.044426, "Date": "2020-11-09T00:00:00", "search_state": "West Pokot", "species": "FAW", "Year": 2020, "Month_of_year": 11, "YearMonth": "2020-11", "Week_of_year": 46, "cluster": 1, "partition": 4 }, "geometry": { "type": "Point", "coordinates": [ 35.044426, 1.942783 ] } },
{ "type": "Feature", "properties": { "lat": 0.8742921, "lon": 34.900851, "Date": "2018-07-06T00:00:00", "search_state": "Trans-Nzoia County", "species": "FAW", "Year": 2018, "Month_of_year": 7, "YearMonth": "2018-07", "Week_of_year": 27, "cluster": 1, "partition": 2 }, "geometry": { "type": "Point", "coordinates": [ 34.900851, 0.8742921 ] } },
{ "type": "Feature", "properties": { "lat": 1.117226, "lon": 34.8072442, "Date": "2018-06-29T00:00:00", "search_state": "Trans-Nzoia County", "species": "FAW", "Year": 2018, "Month_of_year": 6, "YearMonth": "2018-06", "Week_of_year": 26, "cluster": 1, "partition": 2 }, "geometry": { "type": "Point", "coordinates": [ 34.8072442, 1.117226 ] } },
{ "type": "Feature", "properties": { "lat": 0.9669028, "lon": 35.0677245, "Date": "2018-07-21T00:00:00", "search_state": "Trans-Nzoia County", "species": "FAW", "Year": 2018, "Month_of_year": 7, "YearMonth": "2018-07", "Week_of_year": 29, "cluster": 1, "partition": 3 }, "geometry": { "type": "Point", "coordinates": [ 35.0677245, 0.9669028 ] } },
{ "type": "Feature", "properties": { "lat": -0.448273, "lon": 38.569491, "Date": "2019-09-13T00:00:00", "search_state": "Kitui County", "species": "FAW", "Year": 2019, "Month_of_year": 9, "YearMonth": "2019-09", "Week_of_year": 37, "cluster": 2, "partition": 4 }, "geometry": { "type": "Point", "coordinates": [ 38.569491, -0.448273 ] } },
{ "type": "Feature", "properties": { "lat": -1.2927264, "lon": 36.8890826, "Date": "2019-07-12T00:00:00", "search_state": "Nairobi County", "species": "FAW", "Year": 2019, "Month_of_year": 7, "YearMonth": "2019-07", "Week_of_year": 28, "cluster": 7, "partition": 1 }, "geometry": { "type": "Point", "coordinates": [ 36.8890826, -1.2927264 ] } },
{ "type": "Feature", "properties": { "lat": 0.620899, "lon": 34.339537, "Date": "2020-05-11T00:00:00", "search_state": "Busia County", "species": "FAW", "Year": 2020, "Month_of_year": 5, "YearMonth": "2020-05", "Week_of_year": 20, "cluster": 4, "partition": 0 }, "geometry": { "type": "Point", "coordinates": [ 34.339537, 0.620899 ] } },
{ "type": "Feature", "properties": { "lat": 0.816067, "lon": 34.906379, "Date": "2019-12-20T00:00:00", "search_state": "Bungoma County", "species": "FAW", "Year": 2019, "Month_of_year": 12, "YearMonth": "2019-12", "Week_of_year": 51, "cluster": 1, "partition": 2 }, "geometry": { "type": "Point", "coordinates": [ 34.906379, 0.816067 ] } },
{ "type": "Feature", "properties": { "lat": 0.149052, "lon": 36.2724682, "Date": "2018-07-11T00:00:00", "search_state": "Nakuru", "species": "FAW", "Year": 2018, "Month_of_year": 7, "YearMonth": "2018-07", "Week_of_year": 28, "cluster": 0, "partition": 4 }, "geometry": { "type": "Point", "coordinates": [ 36.2724682, 0.149052 ] } },
{ "type": "Feature", "properties": { "lat": -0.2, "lon": 36.09, "Date": "2019-02-14T00:00:00", "search_state": "Nakuru", "species": "FAW", "Year": 2019, "Month_of_year": 2, "YearMonth": "2019-02", "Week_of_year": 7, "cluster": 0, "partition": 0 }, "geometry": { "type": "Point", "coordinates": [ 36.09, -0.2 ] } },
{ "type": "Feature", "properties": { "lat": 0.566042, "lon": 34.296608, "Date": "2019-11-12T00:00:00", "search_state": "Busia County", "species": "FAW", "Year": 2019, "Month_of_year": 11, "YearMonth": "2019-11", "Week_of_year": 46, "cluster": 4, "partition": 1 }, "geometry": { "type": "Point", "coordinates": [ 34.296608, 0.566042 ] } },
{ "type": "Feature", "properties": { "lat": 0.552766, "lon": 34.335819, "Date": "2019-05-25T00:00:00", "search_state": "Busia County", "species": "FAW", "Year": 2019, "Month_of_year": 5, "YearMonth": "2019-05", "Week_of_year": 21, "cluster": 4, "partition": 3 }, "geometry": { "type": "Point", "coordinates": [ 34.335819, 0.552766 ] } },
{ "type": "Feature", "properties": { "lat": -1.370085, "lon": 38.00522, "Date": "2020-05-15T00:00:00", "search_state": "Kitui County", "species": "FAW", "Year": 2020, "Month_of_year": 5, "YearMonth": "2020-05", "Week_of_year": 20, "cluster": 9, "partition": 2 }, "geometry": { "type": "Point", "coordinates": [ 38.00522, -1.370085 ] } },
{ "type": "Feature", "properties": { "lat": -0.0869941, "lon": 37.660762, "Date": "2019-04-10T00:00:00", "search_state": "Meru County", "species": "FAW", "Year": 2019, "Month_of_year": 4, "YearMonth": "2019-04", "Week_of_year": 15, "cluster": 2, "partition": 1 }, "geometry": { "type": "Point", "coordinates": [ 37.660762, -0.0869941 ] } },
{ "type": "Feature", "properties": { "lat": -1.1689039, "lon": 36.8371759, "Date": "2019-07-26T00:00:00", "search_state": "Kiambu", "species": "FAW", "Year": 2019, "Month_of_year": 7, "YearMonth": "2019-07", "Week_of_year": 30, "cluster": 7, "partition": 3 }, "geometry": { "type": "Point", "coordinates": [ 36.8371759, -1.1689039 ] } },
{ "type": "Feature", "properties": { "lat": -0.7532498, "lon": 35.4473156, "Date": "2018-09-28T00:00:00", "search_state": "Bomet", "species": "FAW", "Year": 2018, "Month_of_year": 9, "YearMonth": "2018-09", "Week_of_year": 39, "cluster": 6, "partition": 0 }, "geometry": { "type": "Point", "coordinates": [ 35.4473156, -0.7532498 ] } },
{ "type": "Feature", "properties": { "lat": -0.4105983, "lon": 35.6917062, "Date": "2018-07-18T00:00:00", "search_state": "Nakuru", "species": "FAW", "Year": 2018, "Month_of_year": 7, "YearMonth": "2018-07", "Week_of_year": 29, "cluster": 0, "partition": 2 }, "geometry": { "type": "Point", "coordinates": [ 35.6917062, -0.4105983 ] } },
{ "type": "Feature", "properties": { "lat": -0.8402506, "lon": 35.3653111, "Date": "2018-09-14T00:00:00", "search_state": "Bomet", "species": "FAW", "Year": 2018, "Month_of_year": 9, "YearMonth": "2018-09", "Week_of_year": 37, "cluster": 6, "partition": 3 }, "geometry": { "type": "Point", "coordinates": [ 35.3653111, -0.8402506 ] } },
{ "type": "Feature", "properties": { "lat": 0.7908147, "lon": 34.869219, "Date": "2018-12-07T00:00:00", "search_state": "Bungoma County", "species": "FAW", "Year": 2018, "Month_of_year": 12, "YearMonth": "2018-12", "Week_of_year": 49, "cluster": 1, "partition": 0 }, "geometry": { "type": "Point", "coordinates": [ 34.869219, 0.7908147 ] } },
{ "type": "Feature", "properties": { "lat": 0.354647, "lon": 34.120941, "Date": "2019-03-18T00:00:00", "search_state": "Busia County", "species": "FAW", "Year": 2019, "Month_of_year": 3, "YearMonth": "2019-03", "Week_of_year": 12, "cluster": 4, "partition": 4 }, "geometry": { "type": "Point", "coordinates": [ 34.120941, 0.354647 ] } },
{ "type": "Feature", "properties": { "lat": 0.055943, "lon": 37.755668, "Date": "2019-09-13T00:00:00", "search_state": "Meru County", "species": "FAW", "Year": 2019, "Month_of_year": 9, "YearMonth": "2019-09", "Week_of_year": 37, "cluster": 2, "partition": 1 }, "geometry": { "type": "Point", "coordinates": [ 37.755668, 0.055943 ] } },
{ "type": "Feature", "properties": { "lat": 0.71728245, "lon": 34.71385447, "Date": "2019-09-16T00:00:00", "search_state": "Bungoma County", "species": "FAW", "Year": 2019, "Month_of_year": 9, "YearMonth": "2019-09", "Week_of_year": 38, "cluster": 1, "partition": 2 }, "geometry": { "type": "Point", "coordinates": [ 34.71385447, 0.71728245 ] } },
{ "type": "Feature", "properties": { "lat": -1.2816172, "lon": 36.8219889, "Date": "2018-06-12T00:00:00", "search_state": "Nairobi County", "species": "FAW", "Year": 2018, "Month_of_year": 6, "YearMonth": "2018-06", "Week_of_year": 24, "cluster": 7, "partition": 2 }, "geometry": { "type": "Point", "coordinates": [ 36.8219889, -1.2816172 ] } },
{ "type": "Feature", "properties": { "lat": -0.8037201, "lon": 35.4823585, "Date": "2018-08-24T00:00:00", "search_state": "Bomet", "species": "FAW", "Year": 2018, "Month_of_year": 8, "YearMonth": "2018-08", "Week_of_year": 34, "cluster": 6, "partition": 2 }, "geometry": { "type": "Point", "coordinates": [ 35.4823585, -0.8037201 ] } },
{ "type": "Feature", "properties": { "lat": -0.9380341, "lon": 35.4221996, "Date": "2018-08-03T00:00:00", "search_state": "Bomet", "species": "FAW", "Year": 2018, "Month_of_year": 8, "YearMonth": "2018-08", "Week_of_year": 31, "cluster": 6, "partition": 2 }, "geometry": { "type": "Point", "coordinates": [ 35.4221996, -0.9380341 ] } },
{ "type": "Feature", "properties": { "lat": 0.07726249, "lon": 34.8147082, "Date": "2018-12-14T00:00:00", "search_state": "Vihiga County", "species": "FAW", "Year": 2018, "Month_of_year": 12, "YearMonth": "2018-12", "Week_of_year": 50, "cluster": 8, "partition": 1 }, "geometry": { "type": "Point", "coordinates": [ 34.8147082, 0.07726249 ] } },
{ "type": "Feature", "properties": { "lat": -1.8708834, "lon": 37.5872072, "Date": "2019-08-05T00:00:00", "search_state": "Makueni", "species": "FAW", "Year": 2019, "Month_of_year": 8, "YearMonth": "2019-08", "Week_of_year": 32, "cluster": 9, "partition": 3 }, "geometry": { "type": "Point", "coordinates": [ 37.5872072, -1.8708834 ] } },
{ "type": "Feature", "properties": { "lat": -1.828845, "lon": 37.5972417, "Date": "2019-08-05T00:00:00", "search_state": "Makueni", "species": "FAW", "Year": 2019, "Month_of_year": 8, "YearMonth": "2019-08", "Week_of_year": 32, "cluster": 9, "partition": 2 }, "geometry": { "type": "Point", "coordinates": [ 37.5972417, -1.828845 ] } },
{ "type": "Feature", "properties": { "lat": -0.3880489, "lon": 34.64395, "Date": "2020-02-25T00:00:00", "search_state": "Homa Bay County", "species": "FAW", "Year": 2020, "Month_of_year": 2, "YearMonth": "2020-02", "Week_of_year": 9, "cluster": 8, "partition": 2 }, "geometry": { "type": "Point", "coordinates": [ 34.64395, -0.3880489 ] } },
{ "type": "Feature", "properties": { "lat": -0.3880489, "lon": 37.64395, "Date": "2020-02-26T00:00:00", "search_state": "Tharaka-Nithi", "species": "FAW", "Year": 2020, "Month_of_year": 2, "YearMonth": "2020-02", "Week_of_year": 9, "cluster": 2, "partition": 2 }, "geometry": { "type": "Point", "coordinates": [ 37.64395, -0.3880489 ] } },
{ "type": "Feature", "properties": { "lat": 1.0998382, "lon": 34.8623683, "Date": "2018-07-13T00:00:00", "search_state": "Trans-Nzoia County", "species": "FAW", "Year": 2018, "Month_of_year": 7, "YearMonth": "2018-07", "Week_of_year": 28, "cluster": 1, "partition": 3 }, "geometry": { "type": "Point", "coordinates": [ 34.8623683, 1.0998382 ] } },
{ "type": "Feature", "properties": { "lat": -0.8158207, "lon": 35.4071831, "Date": "2018-12-14T00:00:00", "search_state": "Bomet", "species": "FAW", "Year": 2018, "Month_of_year": 12, "YearMonth": "2018-12", "Week_of_year": 50, "cluster": 6, "partition": 2 }, "geometry": { "type": "Point", "coordinates": [ 35.4071831, -0.8158207 ] } },
{ "type": "Feature", "properties": { "lat": 0.5989582, "lon": 34.6210103, "Date": "2019-03-27T00:00:00", "search_state": "Bungoma County", "species": "FAW", "Year": 2019, "Month_of_year": 3, "YearMonth": "2019-03", "Week_of_year": 13, "cluster": 4, "partition": 4 }, "geometry": { "type": "Point", "coordinates": [ 34.6210103, 0.5989582 ] } },
{ "type": "Feature", "properties": { "lat": 0.1411326, "lon": 34.36188958, "Date": "2019-08-16T00:00:00", "search_state": "Siaya County", "species": "FAW", "Year": 2019, "Month_of_year": 8, "YearMonth": "2019-08", "Week_of_year": 33, "cluster": 4, "partition": 2 }, "geometry": { "type": "Point", "coordinates": [ 34.36188958, 0.1411326 ] } },
{ "type": "Feature", "properties": { "lat": 0.1137006, "lon": 36.2782183, "Date": "2018-09-02T00:00:00", "search_state": "Nakuru", "species": "FAW", "Year": 2018, "Month_of_year": 9, "YearMonth": "2018-09", "Week_of_year": 35, "cluster": 0, "partition": 4 }, "geometry": { "type": "Point", "coordinates": [ 36.2782183, 0.1137006 ] } },
{ "type": "Feature", "properties": { "lat": 0.1184169, "lon": 36.2313166, "Date": "2018-08-23T00:00:00", "search_state": "Nakuru", "species": "FAW", "Year": 2018, "Month_of_year": 8, "YearMonth": "2018-08", "Week_of_year": 34, "cluster": 0, "partition": 0 }, "geometry": { "type": "Point", "coordinates": [ 36.2313166, 0.1184169 ] } },
{ "type": "Feature", "properties": { "lat": 0.8166174, "lon": 34.9971321, "Date": "2018-07-03T00:00:00", "search_state": "Bungoma County", "species": "FAW", "Year": 2018, "Month_of_year": 7, "YearMonth": "2018-07", "Week_of_year": 27, "cluster": 1, "partition": 3 }, "geometry": { "type": "Point", "coordinates": [ 34.9971321, 0.8166174 ] } },
{ "type": "Feature", "properties": { "lat": 1.1259261, "lon": 34.843273, "Date": "2018-07-02T00:00:00", "search_state": "Trans-Nzoia County", "species": "FAW", "Year": 2018, "Month_of_year": 7, "YearMonth": "2018-07", "Week_of_year": 27, "cluster": 1, "partition": 0 }, "geometry": { "type": "Point", "coordinates": [ 34.843273, 1.1259261 ] } },
{ "type": "Feature", "properties": { "lat": -1.8444747, "lon": 37.6343055, "Date": "2019-11-07T00:00:00", "search_state": "Makueni", "species": "FAW", "Year": 2019, "Month_of_year": 11, "YearMonth": "2019-11", "Week_of_year": 45, "cluster": 9, "partition": 1 }, "geometry": { "type": "Point", "coordinates": [ 37.6343055, -1.8444747 ] } },
{ "type": "Feature", "properties": { "lat": -1.8041, "lon": 37.747555, "Date": "2019-08-23T00:00:00", "search_state": "Makueni", "species": "FAW", "Year": 2019, "Month_of_year": 8, "YearMonth": "2019-08", "Week_of_year": 34, "cluster": 9, "partition": 3 }, "geometry": { "type": "Point", "coordinates": [ 37.747555, -1.8041 ] } },
{ "type": "Feature", "properties": { "lat": -1.176886, "lon": 36.8757767, "Date": "2019-11-23T00:00:00", "search_state": "Kiambu", "species": "FAW", "Year": 2019, "Month_of_year": 11, "YearMonth": "2019-11", "Week_of_year": 47, "cluster": 7, "partition": 4 }, "geometry": { "type": "Point", "coordinates": [ 36.8757767, -1.176886 ] } },
{ "type": "Feature", "properties": { "lat": 1.176886, "lon": 36.8757767, "Date": "2019-11-09T00:00:00", "search_state": "Samburu", "species": "FAW", "Year": 2019, "Month_of_year": 11, "YearMonth": "2019-11", "Week_of_year": 45, "cluster": 0, "partition": 4 }, "geometry": { "type": "Point", "coordinates": [ 36.8757767, 1.176886 ] } },
{ "type": "Feature", "properties": { "lat": -0.2756865, "lon": 36.0337715, "Date": "2018-06-14T00:00:00", "search_state": "Nakuru", "species": "FAW", "Year": 2018, "Month_of_year": 6, "YearMonth": "2018-06", "Week_of_year": 24, "cluster": 0, "partition": 0 }, "geometry": { "type": "Point", "coordinates": [ 36.0337715, -0.2756865 ] } },
{ "type": "Feature", "properties": { "lat": 0.0888399, "lon": 36.2042259, "Date": "2018-07-14T00:00:00", "search_state": "Nakuru", "species": "FAW", "Year": 2018, "Month_of_year": 7, "YearMonth": "2018-07", "Week_of_year": 28, "cluster": 0, "partition": 1 }, "geometry": { "type": "Point", "coordinates": [ 36.2042259, 0.0888399 ] } },
{ "type": "Feature", "properties": { "lat": -0.020425, "lon": 36.1982418, "Date": "2018-09-29T00:00:00", "search_state": "Nakuru", "species": "FAW", "Year": 2018, "Month_of_year": 9, "YearMonth": "2018-09", "Week_of_year": 39, "cluster": 0, "partition": 4 }, "geometry": { "type": "Point", "coordinates": [ 36.1982418, -0.020425 ] } },
{ "type": "Feature", "properties": { "lat": 0.78174415684628196, "lon": 34.841001379876197, "Date": "2018-11-02T00:00:00", "search_state": "Bungoma County", "species": "FAW", "Year": 2018, "Month_of_year": 11, "YearMonth": "2018-11", "Week_of_year": 44, "cluster": 1, "partition": 3 }, "geometry": { "type": "Point", "coordinates": [ 34.841001379876197, 0.781744156846282 ] } },
{ "type": "Feature", "properties": { "lat": 0.791689, "lon": 35.470147, "Date": "2018-09-29T00:00:00", "search_state": "Uasin Gishu County", "species": "FAW", "Year": 2018, "Month_of_year": 9, "YearMonth": "2018-09", "Week_of_year": 39, "cluster": 1, "partition": 2 }, "geometry": { "type": "Point", "coordinates": [ 35.470147, 0.791689 ] } },
{ "type": "Feature", "properties": { "lat": 0.08633, "lon": 34.234243, "Date": "2017-04-07T00:00:00", "search_state": "Siaya County", "species": "FAW", "Year": 2017, "Month_of_year": 4, "YearMonth": "2017-04", "Week_of_year": 14, "cluster": 4, "partition": 0 }, "geometry": { "type": "Point", "coordinates": [ 34.234243, 0.08633 ] } },
{ "type": "Feature", "properties": { "lat": 0.7521147, "lon": 34.6322457, "Date": "2017-04-12T00:00:00", "search_state": "Bungoma County", "species": "FAW", "Year": 2017, "Month_of_year": 4, "YearMonth": "2017-04", "Week_of_year": 15, "cluster": 1, "partition": 3 }, "geometry": { "type": "Point", "coordinates": [ 34.6322457, 0.7521147 ] } },
{ "type": "Feature", "properties": { "lat": 0.190729, "lon": 34.295948, "Date": "2017-04-26T00:00:00", "search_state": "Siaya County", "species": "FAW", "Year": 2017, "Month_of_year": 4, "YearMonth": "2017-04", "Week_of_year": 17, "cluster": 4, "partition": 2 }, "geometry": { "type": "Point", "coordinates": [ 34.295948, 0.190729 ] } },
{ "type": "Feature", "properties": { "lat": 0.93371, "lon": 34.7689, "Date": "2017-05-04T00:00:00", "search_state": "Trans-Nzoia County", "species": "FAW", "Year": 2017, "Month_of_year": 5, "YearMonth": "2017-05", "Week_of_year": 18, "cluster": 1, "partition": 0 }, "geometry": { "type": "Point", "coordinates": [ 34.7689, 0.93371 ] } },
{ "type": "Feature", "properties": { "lat": 0.060405, "lon": 34.282978, "Date": "2017-05-09T00:00:00", "search_state": "Siaya County", "species": "FAW", "Year": 2017, "Month_of_year": 5, "YearMonth": "2017-05", "Week_of_year": 19, "cluster": 4, "partition": 3 }, "geometry": { "type": "Point", "coordinates": [ 34.282978, 0.060405 ] } },
{ "type": "Feature", "properties": { "lat": -0.41337, "lon": 37.4569, "Date": "2017-05-16T00:00:00", "search_state": "Embu", "species": "FAW", "Year": 2017, "Month_of_year": 5, "YearMonth": "2017-05", "Week_of_year": 20, "cluster": 2, "partition": 0 }, "geometry": { "type": "Point", "coordinates": [ 37.4569, -0.41337 ] } },
{ "type": "Feature", "properties": { "lat": -0.15732, "lon": 36.105, "Date": "2017-05-23T00:00:00", "search_state": "Nakuru", "species": "FAW", "Year": 2017, "Month_of_year": 5, "YearMonth": "2017-05", "Week_of_year": 21, "cluster": 0, "partition": 3 }, "geometry": { "type": "Point", "coordinates": [ 36.105, -0.15732 ] } },
{ "type": "Feature", "properties": { "lat": 0.00295, "lon": 36.2274, "Date": "2017-06-07T00:00:00", "search_state": "Nakuru", "species": "FAW", "Year": 2017, "Month_of_year": 6, "YearMonth": "2017-06", "Week_of_year": 23, "cluster": 0, "partition": 3 }, "geometry": { "type": "Point", "coordinates": [ 36.2274, 0.00295 ] } },
{ "type": "Feature", "properties": { "lat": -1.3114041, "lon": 36.8118104, "Date": "2017-06-08T00:00:00", "search_state": "Nairobi County", "species": "FAW", "Year": 2017, "Month_of_year": 6, "YearMonth": "2017-06", "Week_of_year": 23, "cluster": 7, "partition": 2 }, "geometry": { "type": "Point", "coordinates": [ 36.8118104, -1.3114041 ] } },
{ "type": "Feature", "properties": { "lat": 0.8918026, "lon": 34.9274829, "Date": "2017-06-09T00:00:00", "search_state": "Trans-Nzoia County", "species": "FAW", "Year": 2017, "Month_of_year": 6, "YearMonth": "2017-06", "Week_of_year": 23, "cluster": 1, "partition": 2 }, "geometry": { "type": "Point", "coordinates": [ 34.9274829, 0.8918026 ] } },
{ "type": "Feature", "properties": { "lat": 1.209044, "lon": 35.13701, "Date": "2017-06-21T00:00:00", "search_state": "West Pokot", "species": "FAW", "Year": 2017, "Month_of_year": 6, "YearMonth": "2017-06", "Week_of_year": 25, "cluster": 1, "partition": 0 }, "geometry": { "type": "Point", "coordinates": [ 35.13701, 1.209044 ] } },
{ "type": "Feature", "properties": { "lat": 1.1312688, "lon": 35.1028248, "Date": "2017-06-27T00:00:00", "search_state": "Trans-Nzoia County", "species": "FAW", "Year": 2017, "Month_of_year": 6, "YearMonth": "2017-06", "Week_of_year": 26, "cluster": 1, "partition": 3 }, "geometry": { "type": "Point", "coordinates": [ 35.1028248, 1.1312688 ] } },
{ "type": "Feature", "properties": { "lat": 1.02563, "lon": 35.27245, "Date": "2017-06-29T00:00:00", "search_state": "Trans-Nzoia County", "species": "FAW", "Year": 2017, "Month_of_year": 6, "YearMonth": "2017-06", "Week_of_year": 26, "cluster": 1, "partition": 3 }, "geometry": { "type": "Point", "coordinates": [ 35.27245, 1.02563 ] } },
{ "type": "Feature", "properties": { "lat": 0.9346573, "lon": 35.276148, "Date": "2017-07-17T00:00:00", "search_state": "Trans-Nzoia County", "species": "FAW", "Year": 2017, "Month_of_year": 7, "YearMonth": "2017-07", "Week_of_year": 29, "cluster": 1, "partition": 1 }, "geometry": { "type": "Point", "coordinates": [ 35.276148, 0.9346573 ] } },
{ "type": "Feature", "properties": { "lat": 1.2786379, "lon": 35.0912238, "Date": "2017-07-18T00:00:00", "search_state": "West Pokot", "species": "FAW", "Year": 2017, "Month_of_year": 7, "YearMonth": "2017-07", "Week_of_year": 29, "cluster": 1, "partition": 3 }, "geometry": { "type": "Point", "coordinates": [ 35.0912238, 1.2786379 ] } },
{ "type": "Feature", "properties": { "lat": 0.0911206, "lon": 36.2492409, "Date": "2017-07-27T00:00:00", "search_state": "Nakuru", "species": "FAW", "Year": 2017, "Month_of_year": 7, "YearMonth": "2017-07", "Week_of_year": 30, "cluster": 0, "partition": 2 }, "geometry": { "type": "Point", "coordinates": [ 36.2492409, 0.0911206 ] } },
{ "type": "Feature", "properties": { "lat": -0.41188, "lon": 37.68892, "Date": "2017-09-28T00:00:00", "search_state": "Tharaka-Nithi", "species": "FAW", "Year": 2017, "Month_of_year": 9, "YearMonth": "2017-09", "Week_of_year": 39, "cluster": 2, "partition": 4 }, "geometry": { "type": "Point", "coordinates": [ 37.68892, -0.41188 ] } },
{ "type": "Feature", "properties": { "lat": -0.442, "lon": 37.4368, "Date": "2017-10-27T00:00:00", "search_state": "Embu", "species": "FAW", "Year": 2017, "Month_of_year": 10, "YearMonth": "2017-10", "Week_of_year": 43, "cluster": 2, "partition": 0 }, "geometry": { "type": "Point", "coordinates": [ 37.4368, -0.442 ] } },
{ "type": "Feature", "properties": { "lat": -0.5527545, "lon": 37.405589, "Date": "2017-11-16T00:00:00", "search_state": "Kirinyaga County", "species": "FAW", "Year": 2017, "Month_of_year": 11, "YearMonth": "2017-11", "Week_of_year": 46, "cluster": 2, "partition": 4 }, "geometry": { "type": "Point", "coordinates": [ 37.405589, -0.5527545 ] } },
{ "type": "Feature", "properties": { "lat": -1.4391589, "lon": 37.2440674, "Date": "2017-11-19T00:00:00", "search_state": "Machakos County", "species": "FAW", "Year": 2017, "Month_of_year": 11, "YearMonth": "2017-11", "Week_of_year": 46, "cluster": 9, "partition": 4 }, "geometry": { "type": "Point", "coordinates": [ 37.2440674, -1.4391589 ] } },
{ "type": "Feature", "properties": { "lat": -1.5344537, "lon": 37.1616338, "Date": "2017-11-24T00:00:00", "search_state": "Machakos County", "species": "FAW", "Year": 2017, "Month_of_year": 11, "YearMonth": "2017-11", "Week_of_year": 47, "cluster": 9, "partition": 0 }, "geometry": { "type": "Point", "coordinates": [ 37.1616338, -1.5344537 ] } },
{ "type": "Feature", "properties": { "lat": -0.5253498, "lon": 37.079185, "Date": "2017-11-28T00:00:00", "search_state": "Nyeri", "species": "FAW", "Year": 2017, "Month_of_year": 11, "YearMonth": "2017-11", "Week_of_year": 48, "cluster": 2, "partition": 0 }, "geometry": { "type": "Point", "coordinates": [ 37.079185, -0.5253498 ] } },
{ "type": "Feature", "properties": { "lat": -0.335613, "lon": 37.82998, "Date": "2017-12-05T00:00:00", "search_state": "Tharaka-Nithi", "species": "FAW", "Year": 2017, "Month_of_year": 12, "YearMonth": "2017-12", "Week_of_year": 49, "cluster": 2, "partition": 3 }, "geometry": { "type": "Point", "coordinates": [ 37.82998, -0.335613 ] } },
{ "type": "Feature", "properties": { "lat": -1.49538, "lon": 37.2663, "Date": "2017-12-05T00:00:00", "search_state": "Machakos County", "species": "FAW", "Year": 2017, "Month_of_year": 12, "YearMonth": "2017-12", "Week_of_year": 49, "cluster": 9, "partition": 1 }, "geometry": { "type": "Point", "coordinates": [ 37.2663, -1.49538 ] } },
{ "type": "Feature", "properties": { "lat": -0.6272506, "lon": 37.0305143, "Date": "2017-12-07T00:00:00", "search_state": "Murang'a County", "species": "FAW", "Year": 2017, "Month_of_year": 12, "YearMonth": "2017-12", "Week_of_year": 49, "cluster": 2, "partition": 0 }, "geometry": { "type": "Point", "coordinates": [ 37.0305143, -0.6272506 ] } },
{ "type": "Feature", "properties": { "lat": -4.3741836, "lon": 39.4235019, "Date": "2018-01-10T00:00:00", "search_state": "Kwale", "species": "FAW", "Year": 2018, "Month_of_year": 1, "YearMonth": "2018-01", "Week_of_year": 2, "cluster": 5, "partition": 1 }, "geometry": { "type": "Point", "coordinates": [ 39.4235019, -4.3741836 ] } },
{ "type": "Feature", "properties": { "lat": -1.2820029, "lon": 36.6454671, "Date": "2018-01-19T00:00:00", "search_state": "Kiambu", "species": "FAW", "Year": 2018, "Month_of_year": 1, "YearMonth": "2018-01", "Week_of_year": 3, "cluster": 7, "partition": 4 }, "geometry": { "type": "Point", "coordinates": [ 36.6454671, -1.2820029 ] } },
{ "type": "Feature", "properties": { "lat": -0.2015921, "lon": 34.8190985, "Date": "2018-02-15T00:00:00", "search_state": "Kisumu County", "species": "FAW", "Year": 2018, "Month_of_year": 2, "YearMonth": "2018-02", "Week_of_year": 7, "cluster": 8, "partition": 3 }, "geometry": { "type": "Point", "coordinates": [ 34.8190985, -0.2015921 ] } },
{ "type": "Feature", "properties": { "lat": 0.1359984, "lon": 34.0804772, "Date": "2018-03-20T00:00:00", "search_state": "Busia County", "species": "FAW", "Year": 2018, "Month_of_year": 3, "YearMonth": "2018-03", "Week_of_year": 12, "cluster": 4, "partition": 3 }, "geometry": { "type": "Point", "coordinates": [ 34.0804772, 0.1359984 ] } },
{ "type": "Feature", "properties": { "lat": -1.4125, "lon": 37.33193, "Date": "2018-04-03T00:00:00", "search_state": "Machakos County", "species": "FAW", "Year": 2018, "Month_of_year": 4, "YearMonth": "2018-04", "Week_of_year": 14, "cluster": 9, "partition": 0 }, "geometry": { "type": "Point", "coordinates": [ 37.33193, -1.4125 ] } },
{ "type": "Feature", "properties": { "lat": -1.372557, "lon": 37.3474926, "Date": "2018-04-03T00:00:00", "search_state": "Machakos County", "species": "FAW", "Year": 2018, "Month_of_year": 4, "YearMonth": "2018-04", "Week_of_year": 14, "cluster": 9, "partition": 1 }, "geometry": { "type": "Point", "coordinates": [ 37.3474926, -1.372557 ] } },
{ "type": "Feature", "properties": { "lat": -1.23515, "lon": 37.47248, "Date": "2018-04-04T00:00:00", "search_state": "Machakos County", "species": "FAW", "Year": 2018, "Month_of_year": 4, "YearMonth": "2018-04", "Week_of_year": 14, "cluster": 9, "partition": 1 }, "geometry": { "type": "Point", "coordinates": [ 37.47248, -1.23515 ] } },
{ "type": "Feature", "properties": { "lat": -0.354264243, "lon": 37.66641602, "Date": "2018-04-13T00:00:00", "search_state": "Tharaka-Nithi", "species": "FAW", "Year": 2018, "Month_of_year": 4, "YearMonth": "2018-04", "Week_of_year": 15, "cluster": 2, "partition": 1 }, "geometry": { "type": "Point", "coordinates": [ 37.66641602, -0.354264243 ] } },
{ "type": "Feature", "properties": { "lat": -0.5465446, "lon": 37.4492968, "Date": "2018-04-16T00:00:00", "search_state": "Kirinyaga County", "species": "FAW", "Year": 2018, "Month_of_year": 4, "YearMonth": "2018-04", "Week_of_year": 16, "cluster": 2, "partition": 4 }, "geometry": { "type": "Point", "coordinates": [ 37.4492968, -0.5465446 ] } },
{ "type": "Feature", "properties": { "lat": 0.81863313, "lon": 34.75862115, "Date": "2018-04-18T00:00:00", "search_state": "Bungoma County", "species": "FAW", "Year": 2018, "Month_of_year": 4, "YearMonth": "2018-04", "Week_of_year": 16, "cluster": 1, "partition": 4 }, "geometry": { "type": "Point", "coordinates": [ 34.75862115, 0.81863313 ] } },
{ "type": "Feature", "properties": { "lat": -0.6912151, "lon": 37.4880841, "Date": "2018-04-25T00:00:00", "search_state": "Embu", "species": "FAW", "Year": 2018, "Month_of_year": 4, "YearMonth": "2018-04", "Week_of_year": 17, "cluster": 2, "partition": 1 }, "geometry": { "type": "Point", "coordinates": [ 37.4880841, -0.6912151 ] } },
{ "type": "Feature", "properties": { "lat": -0.62385, "lon": 37.298427, "Date": "2018-05-07T00:00:00", "search_state": "Kirinyaga County", "species": "FAW", "Year": 2018, "Month_of_year": 5, "YearMonth": "2018-05", "Week_of_year": 19, "cluster": 2, "partition": 1 }, "geometry": { "type": "Point", "coordinates": [ 37.298427, -0.62385 ] } },
{ "type": "Feature", "properties": { "lat": -0.46959, "lon": 37.5062, "Date": "2018-05-08T00:00:00", "search_state": "Embu", "species": "FAW", "Year": 2018, "Month_of_year": 5, "YearMonth": "2018-05", "Week_of_year": 19, "cluster": 2, "partition": 3 }, "geometry": { "type": "Point", "coordinates": [ 37.5062, -0.46959 ] } },
{ "type": "Feature", "properties": { "lat": 0.77076, "lon": 34.75954, "Date": "2018-05-09T00:00:00", "search_state": "Bungoma County", "species": "FAW", "Year": 2018, "Month_of_year": 5, "YearMonth": "2018-05", "Week_of_year": 19, "cluster": 1, "partition": 1 }, "geometry": { "type": "Point", "coordinates": [ 34.75954, 0.77076 ] } },
{ "type": "Feature", "properties": { "lat": -1.2721495, "lon": 36.6749358, "Date": "2018-05-09T00:00:00", "search_state": "Kiambu", "species": "FAW", "Year": 2018, "Month_of_year": 5, "YearMonth": "2018-05", "Week_of_year": 19, "cluster": 7, "partition": 2 }, "geometry": { "type": "Point", "coordinates": [ 36.6749358, -1.2721495 ] } },
{ "type": "Feature", "properties": { "lat": 0.8171735, "lon": 34.8533356, "Date": "2018-05-21T00:00:00", "search_state": "Bungoma County", "species": "FAW", "Year": 2018, "Month_of_year": 5, "YearMonth": "2018-05", "Week_of_year": 21, "cluster": 1, "partition": 4 }, "geometry": { "type": "Point", "coordinates": [ 34.8533356, 0.8171735 ] } },
{ "type": "Feature", "properties": { "lat": -0.4946665, "lon": 37.4401164, "Date": "2018-05-22T00:00:00", "search_state": "Embu", "species": "FAW", "Year": 2018, "Month_of_year": 5, "YearMonth": "2018-05", "Week_of_year": 21, "cluster": 2, "partition": 4 }, "geometry": { "type": "Point", "coordinates": [ 37.4401164, -0.4946665 ] } },
{ "type": "Feature", "properties": { "lat": -0.68136, "lon": 37.35478, "Date": "2018-05-25T00:00:00", "search_state": "Kirinyaga County", "species": "FAW", "Year": 2018, "Month_of_year": 5, "YearMonth": "2018-05", "Week_of_year": 21, "cluster": 2, "partition": 3 }, "geometry": { "type": "Point", "coordinates": [ 37.35478, -0.68136 ] } },
{ "type": "Feature", "properties": { "lat": -1.79007, "lon": 36.0595, "Date": "2018-06-07T00:00:00", "search_state": "Kajiado County", "species": "FAW", "Year": 2018, "Month_of_year": 6, "YearMonth": "2018-06", "Week_of_year": 23, "cluster": 7, "partition": 3 }, "geometry": { "type": "Point", "coordinates": [ 36.0595, -1.79007 ] } },
{ "type": "Feature", "properties": { "lat": -3.039685, "lon": 37.6842283, "Date": "2018-06-07T00:00:00", "search_state": "Kajiado County", "species": "FAW", "Year": 2018, "Month_of_year": 6, "YearMonth": "2018-06", "Week_of_year": 23, "cluster": 3, "partition": 1 }, "geometry": { "type": "Point", "coordinates": [ 37.6842283, -3.039685 ] } },
{ "type": "Feature", "properties": { "lat": -0.25034, "lon": 36.11021, "Date": "2018-06-12T00:00:00", "search_state": "Nakuru", "species": "FAW", "Year": 2018, "Month_of_year": 6, "YearMonth": "2018-06", "Week_of_year": 24, "cluster": 0, "partition": 1 }, "geometry": { "type": "Point", "coordinates": [ 36.11021, -0.25034 ] } },
{ "type": "Feature", "properties": { "lat": -0.082103, "lon": 36.180612, "Date": "2018-06-27T00:00:00", "search_state": "Nakuru", "species": "FAW", "Year": 2018, "Month_of_year": 6, "YearMonth": "2018-06", "Week_of_year": 26, "cluster": 0, "partition": 1 }, "geometry": { "type": "Point", "coordinates": [ 36.180612, -0.082103 ] } },
{ "type": "Feature", "properties": { "lat": -0.6591081, "lon": 37.1154432, "Date": "2018-09-13T00:00:00", "search_state": "Murang'a County", "species": "FAW", "Year": 2018, "Month_of_year": 9, "YearMonth": "2018-09", "Week_of_year": 37, "cluster": 2, "partition": 0 }, "geometry": { "type": "Point", "coordinates": [ 37.1154432, -0.6591081 ] } },
{ "type": "Feature", "properties": { "lat": -0.56745, "lon": 36.997, "Date": "2018-10-22T00:00:00", "search_state": "Nyeri", "species": "FAW", "Year": 2018, "Month_of_year": 10, "YearMonth": "2018-10", "Week_of_year": 43, "cluster": 2, "partition": 4 }, "geometry": { "type": "Point", "coordinates": [ 36.997, -0.56745 ] } },
{ "type": "Feature", "properties": { "lat": 0.3690245, "lon": 34.4907171, "Date": "2018-10-27T00:00:00", "search_state": "Kakamega County", "species": "FAW", "Year": 2018, "Month_of_year": 10, "YearMonth": "2018-10", "Week_of_year": 43, "cluster": 4, "partition": 0 }, "geometry": { "type": "Point", "coordinates": [ 34.4907171, 0.3690245 ] } },
{ "type": "Feature", "properties": { "lat": -0.51128, "lon": 37.47353, "Date": "2018-10-31T00:00:00", "search_state": "Embu", "species": "FAW", "Year": 2018, "Month_of_year": 10, "YearMonth": "2018-10", "Week_of_year": 44, "cluster": 2, "partition": 2 }, "geometry": { "type": "Point", "coordinates": [ 37.47353, -0.51128 ] } },
{ "type": "Feature", "properties": { "lat": -4.3881297, "lon": 39.3554756, "Date": "2018-11-01T00:00:00", "search_state": "Kwale", "species": "FAW", "Year": 2018, "Month_of_year": 11, "YearMonth": "2018-11", "Week_of_year": 44, "cluster": 5, "partition": 0 }, "geometry": { "type": "Point", "coordinates": [ 39.3554756, -4.3881297 ] } },
{ "type": "Feature", "properties": { "lat": -0.51003, "lon": 37.52088, "Date": "2018-12-17T00:00:00", "search_state": "Embu", "species": "FAW", "Year": 2018, "Month_of_year": 12, "YearMonth": "2018-12", "Week_of_year": 51, "cluster": 2, "partition": 4 }, "geometry": { "type": "Point", "coordinates": [ 37.52088, -0.51003 ] } },
{ "type": "Feature", "properties": { "lat": -0.4680417, "lon": 37.5542852, "Date": "2019-01-04T00:00:00", "search_state": "Embu", "species": "FAW", "Year": 2019, "Month_of_year": 1, "YearMonth": "2019-01", "Week_of_year": 1, "cluster": 2, "partition": 0 }, "geometry": { "type": "Point", "coordinates": [ 37.5542852, -0.4680417 ] } },
{ "type": "Feature", "properties": { "lat": -1.3731049, "lon": 36.6716202, "Date": "2019-01-28T00:00:00", "search_state": "Kajiado County", "species": "FAW", "Year": 2019, "Month_of_year": 1, "YearMonth": "2019-01", "Week_of_year": 5, "cluster": 7, "partition": 2 }, "geometry": { "type": "Point", "coordinates": [ 36.6716202, -1.3731049 ] } },
{ "type": "Feature", "properties": { "lat": -0.1169002, "lon": 34.9515237, "Date": "2019-05-15T00:00:00", "search_state": "Kisumu County", "species": "FAW", "Year": 2019, "Month_of_year": 5, "YearMonth": "2019-05", "Week_of_year": 20, "cluster": 8, "partition": 0 }, "geometry": { "type": "Point", "coordinates": [ 34.9515237, -0.1169002 ] } },
{ "type": "Feature", "properties": { "lat": -0.5692796, "lon": 36.9630065, "Date": "2019-06-03T00:00:00", "search_state": "Nyeri", "species": "FAW", "Year": 2019, "Month_of_year": 6, "YearMonth": "2019-06", "Week_of_year": 23, "cluster": 2, "partition": 3 }, "geometry": { "type": "Point", "coordinates": [ 36.9630065, -0.5692796 ] } },
{ "type": "Feature", "properties": { "lat": -1.0623482, "lon": 34.4097408, "Date": "2019-06-04T00:00:00", "search_state": "Migori County", "species": "FAW", "Year": 2019, "Month_of_year": 6, "YearMonth": "2019-06", "Week_of_year": 23, "cluster": 6, "partition": 0 }, "geometry": { "type": "Point", "coordinates": [ 34.4097408, -1.0623482 ] } },
{ "type": "Feature", "properties": { "lat": -1.460546, "lon": 36.6571219, "Date": "2019-06-24T00:00:00", "search_state": "Kajiado County", "species": "FAW", "Year": 2019, "Month_of_year": 6, "YearMonth": "2019-06", "Week_of_year": 26, "cluster": 7, "partition": 1 }, "geometry": { "type": "Point", "coordinates": [ 36.6571219, -1.460546 ] } },
{ "type": "Feature", "properties": { "lat": -0.104757957, "lon": 36.16258509, "Date": "2019-06-27T00:00:00", "search_state": "Nakuru", "species": "FAW", "Year": 2019, "Month_of_year": 6, "YearMonth": "2019-06", "Week_of_year": 26, "cluster": 0, "partition": 3 }, "geometry": { "type": "Point", "coordinates": [ 36.16258509, -0.104757957 ] } },
{ "type": "Feature", "properties": { "lat": -0.2620656, "lon": 36.1859321, "Date": "2019-07-31T00:00:00", "search_state": "Nakuru", "species": "FAW", "Year": 2019, "Month_of_year": 7, "YearMonth": "2019-07", "Week_of_year": 31, "cluster": 0, "partition": 2 }, "geometry": { "type": "Point", "coordinates": [ 36.1859321, -0.2620656 ] } },
{ "type": "Feature", "properties": { "lat": -1.28308, "lon": 36.7267, "Date": "2019-11-13T00:00:00", "search_state": "Nairobi County", "species": "FAW", "Year": 2019, "Month_of_year": 11, "YearMonth": "2019-11", "Week_of_year": 46, "cluster": 7, "partition": 4 }, "geometry": { "type": "Point", "coordinates": [ 36.7267, -1.28308 ] } },
{ "type": "Feature", "properties": { "lat": -0.2919372, "lon": 34.9463557, "Date": "2020-01-09T00:00:00", "search_state": "Kisumu County", "species": "FAW", "Year": 2020, "Month_of_year": 1, "YearMonth": "2020-01", "Week_of_year": 2, "cluster": 8, "partition": 1 }, "geometry": { "type": "Point", "coordinates": [ 34.9463557, -0.2919372 ] } },
{ "type": "Feature", "properties": { "lat": 1.060122782, "lon": 35.2871809, "Date": "2020-06-09T00:00:00", "search_state": "Elgeyo-Marakwet County", "species": "FAW", "Year": 2020, "Month_of_year": 6, "YearMonth": "2020-06", "Week_of_year": 24, "cluster": 1, "partition": 4 }, "geometry": { "type": "Point", "coordinates": [ 35.2871809, 1.060122782 ] } },
{ "type": "Feature", "properties": { "lat": -0.6263974, "lon": 37.2595903, "Date": "2019-11-21T00:00:00", "search_state": "Kirinyaga County", "species": "FAW", "Year": 2019, "Month_of_year": 11, "YearMonth": "2019-11", "Week_of_year": 47, "cluster": 2, "partition": 1 }, "geometry": { "type": "Point", "coordinates": [ 37.2595903, -0.6263974 ] } },
{ "type": "Feature", "properties": { "lat": -0.57318, "lon": 37.32643, "Date": "2019-11-07T00:00:00", "search_state": "Kirinyaga County", "species": "FAW", "Year": 2019, "Month_of_year": 11, "YearMonth": "2019-11", "Week_of_year": 45, "cluster": 2, "partition": 0 }, "geometry": { "type": "Point", "coordinates": [ 37.32643, -0.57318 ] } },
{ "type": "Feature", "properties": { "lat": -0.2574188, "lon": 34.9659927, "Date": "2019-11-07T00:00:00", "search_state": "Kisumu County", "species": "FAW", "Year": 2019, "Month_of_year": 11, "YearMonth": "2019-11", "Week_of_year": 45, "cluster": 8, "partition": 0 }, "geometry": { "type": "Point", "coordinates": [ 34.9659927, -0.2574188 ] } },
{ "type": "Feature", "properties": { "lat": -0.9189462, "lon": 34.526702, "Date": "2019-10-24T00:00:00", "search_state": "Migori County", "species": "FAW", "Year": 2019, "Month_of_year": 10, "YearMonth": "2019-10", "Week_of_year": 43, "cluster": 6, "partition": 4 }, "geometry": { "type": "Point", "coordinates": [ 34.526702, -0.9189462 ] } },
{ "type": "Feature", "properties": { "lat": -0.605488, "lon": 37.46312, "Date": "2019-10-18T00:00:00", "search_state": "Kirinyaga County", "species": "FAW", "Year": 2019, "Month_of_year": 10, "YearMonth": "2019-10", "Week_of_year": 42, "cluster": 2, "partition": 4 }, "geometry": { "type": "Point", "coordinates": [ 37.46312, -0.605488 ] } },
{ "type": "Feature", "properties": { "lat": -1.0651551, "lon": 34.4525769, "Date": "2019-10-01T00:00:00", "search_state": "Migori County", "species": "FAW", "Year": 2019, "Month_of_year": 10, "YearMonth": "2019-10", "Week_of_year": 40, "cluster": 6, "partition": 0 }, "geometry": { "type": "Point", "coordinates": [ 34.4525769, -1.0651551 ] } },
{ "type": "Feature", "properties": { "lat": -0.115301, "lon": 36.2225, "Date": "2019-07-22T00:00:00", "search_state": "Nyandarua", "species": "FAW", "Year": 2019, "Month_of_year": 7, "YearMonth": "2019-07", "Week_of_year": 30, "cluster": 0, "partition": 3 }, "geometry": { "type": "Point", "coordinates": [ 36.2225, -0.115301 ] } },
{ "type": "Feature", "properties": { "lat": -0.1793386, "lon": 34.932228, "Date": "2019-07-11T00:00:00", "search_state": "Kisumu County", "species": "FAW", "Year": 2019, "Month_of_year": 7, "YearMonth": "2019-07", "Week_of_year": 28, "cluster": 8, "partition": 2 }, "geometry": { "type": "Point", "coordinates": [ 34.932228, -0.1793386 ] } },
{ "type": "Feature", "properties": { "lat": 1.02874, "lon": 35.12113, "Date": "2019-06-17T00:00:00", "search_state": "Trans-Nzoia County", "species": "FAW", "Year": 2019, "Month_of_year": 6, "YearMonth": "2019-06", "Week_of_year": 25, "cluster": 1, "partition": 1 }, "geometry": { "type": "Point", "coordinates": [ 35.12113, 1.02874 ] } },
{ "type": "Feature", "properties": { "lat": -1.1165778, "lon": 34.3491987, "Date": "2019-06-18T00:00:00", "search_state": "Migori County", "species": "FAW", "Year": 2019, "Month_of_year": 6, "YearMonth": "2019-06", "Week_of_year": 25, "cluster": 6, "partition": 1 }, "geometry": { "type": "Point", "coordinates": [ 34.3491987, -1.1165778 ] } },
{ "type": "Feature", "properties": { "lat": -1.1260291, "lon": 34.544012, "Date": "2019-06-04T00:00:00", "search_state": "Migori County", "species": "FAW", "Year": 2019, "Month_of_year": 6, "YearMonth": "2019-06", "Week_of_year": 23, "cluster": 6, "partition": 4 }, "geometry": { "type": "Point", "coordinates": [ 34.544012, -1.1260291 ] } },
{ "type": "Feature", "properties": { "lat": 0.1865098, "lon": 34.1957768, "Date": "2019-05-27T00:00:00", "search_state": "Siaya County", "species": "FAW", "Year": 2019, "Month_of_year": 5, "YearMonth": "2019-05", "Week_of_year": 22, "cluster": 4, "partition": 0 }, "geometry": { "type": "Point", "coordinates": [ 34.1957768, 0.1865098 ] } },
{ "type": "Feature", "properties": { "lat": 0.6426725, "lon": 34.9473893, "Date": "2019-05-22T00:00:00", "search_state": "Kakamega County", "species": "FAW", "Year": 2019, "Month_of_year": 5, "YearMonth": "2019-05", "Week_of_year": 21, "cluster": 1, "partition": 4 }, "geometry": { "type": "Point", "coordinates": [ 34.9473893, 0.6426725 ] } },
{ "type": "Feature", "properties": { "lat": 0.9366649, "lon": 34.8377534, "Date": "2019-05-23T00:00:00", "search_state": "Trans-Nzoia County", "species": "FAW", "Year": 2019, "Month_of_year": 5, "YearMonth": "2019-05", "Week_of_year": 21, "cluster": 1, "partition": 1 }, "geometry": { "type": "Point", "coordinates": [ 34.8377534, 0.9366649 ] } },
{ "type": "Feature", "properties": { "lat": -0.0978012, "lon": 34.2749779, "Date": "2019-05-15T00:00:00", "search_state": "Siaya County", "species": "FAW", "Year": 2019, "Month_of_year": 5, "YearMonth": "2019-05", "Week_of_year": 20, "cluster": 4, "partition": 2 }, "geometry": { "type": "Point", "coordinates": [ 34.2749779, -0.0978012 ] } },
{ "type": "Feature", "properties": { "lat": -0.1795243, "lon": 36.1289084, "Date": "2019-01-31T00:00:00", "search_state": "Nakuru", "species": "FAW", "Year": 2019, "Month_of_year": 1, "YearMonth": "2019-01", "Week_of_year": 5, "cluster": 0, "partition": 4 }, "geometry": { "type": "Point", "coordinates": [ 36.1289084, -0.1795243 ] } },
{ "type": "Feature", "properties": { "lat": -0.0671556, "lon": 34.8121986, "Date": "2019-01-11T00:00:00", "search_state": "Kisumu County", "species": "FAW", "Year": 2019, "Month_of_year": 1, "YearMonth": "2019-01", "Week_of_year": 2, "cluster": 8, "partition": 0 }, "geometry": { "type": "Point", "coordinates": [ 34.8121986, -0.0671556 ] } },
{ "type": "Feature", "properties": { "lat": -0.6801384, "lon": 37.6488487, "Date": "2018-12-31T00:00:00", "search_state": "Embu", "species": "FAW", "Year": 2018, "Month_of_year": 12, "YearMonth": "2018-12", "Week_of_year": 1, "cluster": 2, "partition": 2 }, "geometry": { "type": "Point", "coordinates": [ 37.6488487, -0.6801384 ] } },
{ "type": "Feature", "properties": { "lat": -0.50537, "lon": 37.72824, "Date": "2018-08-29T00:00:00", "search_state": "Embu", "species": "FAW", "Year": 2018, "Month_of_year": 8, "YearMonth": "2018-08", "Week_of_year": 35, "cluster": 2, "partition": 0 }, "geometry": { "type": "Point", "coordinates": [ 37.72824, -0.50537 ] } },
{ "type": "Feature", "properties": { "lat": 0.982222, "lon": 35.22098, "Date": "2018-08-15T00:00:00", "search_state": "Trans-Nzoia County", "species": "FAW", "Year": 2018, "Month_of_year": 8, "YearMonth": "2018-08", "Week_of_year": 33, "cluster": 1, "partition": 2 }, "geometry": { "type": "Point", "coordinates": [ 35.22098, 0.982222 ] } },
{ "type": "Feature", "properties": { "lat": -0.25462, "lon": 36.23458, "Date": "2018-07-25T00:00:00", "search_state": "Nakuru", "species": "FAW", "Year": 2018, "Month_of_year": 7, "YearMonth": "2018-07", "Week_of_year": 30, "cluster": 0, "partition": 0 }, "geometry": { "type": "Point", "coordinates": [ 36.23458, -0.25462 ] } },
{ "type": "Feature", "properties": { "lat": -3.0726432, "lon": 37.7230122, "Date": "2018-07-05T00:00:00", "search_state": "Kajiado County", "species": "FAW", "Year": 2018, "Month_of_year": 7, "YearMonth": "2018-07", "Week_of_year": 27, "cluster": 3, "partition": 2 }, "geometry": { "type": "Point", "coordinates": [ 37.7230122, -3.0726432 ] } },
{ "type": "Feature", "properties": { "lat": -0.928184, "lon": 35.86498, "Date": "2018-07-04T00:00:00", "search_state": "Narok", "species": "FAW", "Year": 2018, "Month_of_year": 7, "YearMonth": "2018-07", "Week_of_year": 27, "cluster": 6, "partition": 3 }, "geometry": { "type": "Point", "coordinates": [ 35.86498, -0.928184 ] } },
{ "type": "Feature", "properties": { "lat": -0.854850796, "lon": 35.66428712, "Date": "2018-06-27T00:00:00", "search_state": "Narok", "species": "FAW", "Year": 2018, "Month_of_year": 6, "YearMonth": "2018-06", "Week_of_year": 26, "cluster": 6, "partition": 1 }, "geometry": { "type": "Point", "coordinates": [ 35.66428712, -0.854850796 ] } },
{ "type": "Feature", "properties": { "lat": 0.0835315, "lon": 34.0517858, "Date": "2018-06-19T00:00:00", "search_state": "Busia County", "species": "FAW", "Year": 2018, "Month_of_year": 6, "YearMonth": "2018-06", "Week_of_year": 25, "cluster": 4, "partition": 3 }, "geometry": { "type": "Point", "coordinates": [ 34.0517858, 0.0835315 ] } },
{ "type": "Feature", "properties": { "lat": -0.66629, "lon": 37.2937, "Date": "2018-06-18T00:00:00", "search_state": "Kirinyaga County", "species": "FAW", "Year": 2018, "Month_of_year": 6, "YearMonth": "2018-06", "Week_of_year": 25, "cluster": 2, "partition": 2 }, "geometry": { "type": "Point", "coordinates": [ 37.2937, -0.66629 ] } },
{ "type": "Feature", "properties": { "lat": -0.1495268, "lon": 34.8173966, "Date": "2018-06-18T00:00:00", "search_state": "Kisumu County", "species": "FAW", "Year": 2018, "Month_of_year": 6, "YearMonth": "2018-06", "Week_of_year": 25, "cluster": 8, "partition": 3 }, "geometry": { "type": "Point", "coordinates": [ 34.8173966, -0.1495268 ] } },
{ "type": "Feature", "properties": { "lat": -3.176272, "lon": 37.733, "Date": "2018-06-08T00:00:00", "search_state": "Kajiado County", "species": "FAW", "Year": 2018, "Month_of_year": 6, "YearMonth": "2018-06", "Week_of_year": 23, "cluster": 3, "partition": 4 }, "geometry": { "type": "Point", "coordinates": [ 37.733, -3.176272 ] } },
{ "type": "Feature", "properties": { "lat": 1.0551177, "lon": 35.5881825, "Date": "2018-06-08T00:00:00", "search_state": "Elgeyo-Marakwet County", "species": "FAW", "Year": 2018, "Month_of_year": 6, "YearMonth": "2018-06", "Week_of_year": 23, "cluster": 1, "partition": 2 }, "geometry": { "type": "Point", "coordinates": [ 35.5881825, 1.0551177 ] } },
{ "type": "Feature", "properties": { "lat": -0.577144, "lon": 37.03649, "Date": "2018-06-07T00:00:00", "search_state": "Nyeri", "species": "FAW", "Year": 2018, "Month_of_year": 6, "YearMonth": "2018-06", "Week_of_year": 23, "cluster": 2, "partition": 2 }, "geometry": { "type": "Point", "coordinates": [ 37.03649, -0.577144 ] } },
{ "type": "Feature", "properties": { "lat": -2.894053569, "lon": 37.5884336, "Date": "2018-05-24T00:00:00", "search_state": "Kajiado County", "species": "FAW", "Year": 2018, "Month_of_year": 5, "YearMonth": "2018-05", "Week_of_year": 21, "cluster": 3, "partition": 1 }, "geometry": { "type": "Point", "coordinates": [ 37.5884336, -2.894053569 ] } },
{ "type": "Feature", "properties": { "lat": -1.0880329, "lon": 35.8680365, "Date": "2018-05-25T00:00:00", "search_state": "Narok", "species": "FAW", "Year": 2018, "Month_of_year": 5, "YearMonth": "2018-05", "Week_of_year": 21, "cluster": 6, "partition": 3 }, "geometry": { "type": "Point", "coordinates": [ 35.8680365, -1.0880329 ] } },
{ "type": "Feature", "properties": { "lat": -2.71889, "lon": 37.46388, "Date": "2018-05-23T00:00:00", "search_state": "Kajiado County", "species": "FAW", "Year": 2018, "Month_of_year": 5, "YearMonth": "2018-05", "Week_of_year": 21, "cluster": 3, "partition": 0 }, "geometry": { "type": "Point", "coordinates": [ 37.46388, -2.71889 ] } },
{ "type": "Feature", "properties": { "lat": -1.20149598, "lon": 36.72548724, "Date": "2018-05-23T00:00:00", "search_state": "Kiambu", "species": "FAW", "Year": 2018, "Month_of_year": 5, "YearMonth": "2018-05", "Week_of_year": 21, "cluster": 7, "partition": 3 }, "geometry": { "type": "Point", "coordinates": [ 36.72548724, -1.20149598 ] } },
{ "type": "Feature", "properties": { "lat": -0.176445, "lon": 36.1651, "Date": "2018-05-22T00:00:00", "search_state": "Nakuru", "species": "FAW", "Year": 2018, "Month_of_year": 5, "YearMonth": "2018-05", "Week_of_year": 21, "cluster": 0, "partition": 0 }, "geometry": { "type": "Point", "coordinates": [ 36.1651, -0.176445 ] } },
{ "type": "Feature", "properties": { "lat": 0.9743511, "lon": 34.9622034, "Date": "2018-05-20T00:00:00", "search_state": "Trans-Nzoia County", "species": "FAW", "Year": 2018, "Month_of_year": 5, "YearMonth": "2018-05", "Week_of_year": 20, "cluster": 1, "partition": 1 }, "geometry": { "type": "Point", "coordinates": [ 34.9622034, 0.9743511 ] } },
{ "type": "Feature", "properties": { "lat": 0.6215414, "lon": 35.0352025, "Date": "2018-05-18T00:00:00", "search_state": "Kakamega County", "species": "FAW", "Year": 2018, "Month_of_year": 5, "YearMonth": "2018-05", "Week_of_year": 20, "cluster": 1, "partition": 3 }, "geometry": { "type": "Point", "coordinates": [ 35.0352025, 0.6215414 ] } },
{ "type": "Feature", "properties": { "lat": -0.2908135, "lon": 36.1126083, "Date": "2018-05-17T00:00:00", "search_state": "Nakuru", "species": "FAW", "Year": 2018, "Month_of_year": 5, "YearMonth": "2018-05", "Week_of_year": 20, "cluster": 0, "partition": 2 }, "geometry": { "type": "Point", "coordinates": [ 36.1126083, -0.2908135 ] } },
{ "type": "Feature", "properties": { "lat": 0.6314635, "lon": 35.0087176, "Date": "2018-05-16T00:00:00", "search_state": "Kakamega County", "species": "FAW", "Year": 2018, "Month_of_year": 5, "YearMonth": "2018-05", "Week_of_year": 20, "cluster": 1, "partition": 4 }, "geometry": { "type": "Point", "coordinates": [ 35.0087176, 0.6314635 ] } },
{ "type": "Feature", "properties": { "lat": -0.2134115, "lon": 36.1234754, "Date": "2018-05-16T00:00:00", "search_state": "Nakuru", "species": "FAW", "Year": 2018, "Month_of_year": 5, "YearMonth": "2018-05", "Week_of_year": 20, "cluster": 0, "partition": 2 }, "geometry": { "type": "Point", "coordinates": [ 36.1234754, -0.2134115 ] } },
{ "type": "Feature", "properties": { "lat": 1.20277813, "lon": 35.10882195, "Date": "2018-05-15T00:00:00", "search_state": "West Pokot", "species": "FAW", "Year": 2018, "Month_of_year": 5, "YearMonth": "2018-05", "Week_of_year": 20, "cluster": 1, "partition": 1 }, "geometry": { "type": "Point", "coordinates": [ 35.10882195, 1.20277813 ] } },
{ "type": "Feature", "properties": { "lat": -0.2759394, "lon": 36.1536918, "Date": "2018-05-08T00:00:00", "search_state": "Nakuru", "species": "FAW", "Year": 2018, "Month_of_year": 5, "YearMonth": "2018-05", "Week_of_year": 19, "cluster": 0, "partition": 3 }, "geometry": { "type": "Point", "coordinates": [ 36.1536918, -0.2759394 ] } },
{ "type": "Feature", "properties": { "lat": -0.05862, "lon": 36.2154, "Date": "2018-05-05T00:00:00", "search_state": "Nakuru", "species": "FAW", "Year": 2018, "Month_of_year": 5, "YearMonth": "2018-05", "Week_of_year": 18, "cluster": 0, "partition": 1 }, "geometry": { "type": "Point", "coordinates": [ 36.2154, -0.05862 ] } },
{ "type": "Feature", "properties": { "lat": -1.3391864, "lon": 37.4432928, "Date": "2018-04-30T00:00:00", "search_state": "Machakos County", "species": "FAW", "Year": 2018, "Month_of_year": 4, "YearMonth": "2018-04", "Week_of_year": 18, "cluster": 9, "partition": 3 }, "geometry": { "type": "Point", "coordinates": [ 37.4432928, -1.3391864 ] } },
{ "type": "Feature", "properties": { "lat": -0.4671209, "lon": 37.6912368, "Date": "2018-04-27T00:00:00", "search_state": "Embu", "species": "FAW", "Year": 2018, "Month_of_year": 4, "YearMonth": "2018-04", "Week_of_year": 17, "cluster": 2, "partition": 3 }, "geometry": { "type": "Point", "coordinates": [ 37.6912368, -0.4671209 ] } },
{ "type": "Feature", "properties": { "lat": -2.9312435, "lon": 37.5027272, "Date": "2018-04-26T00:00:00", "search_state": "Kajiado County", "species": "FAW", "Year": 2018, "Month_of_year": 4, "YearMonth": "2018-04", "Week_of_year": 17, "cluster": 3, "partition": 3 }, "geometry": { "type": "Point", "coordinates": [ 37.5027272, -2.9312435 ] } },
{ "type": "Feature", "properties": { "lat": -1.58253, "lon": 37.24501, "Date": "2018-04-26T00:00:00", "search_state": "Machakos County", "species": "FAW", "Year": 2018, "Month_of_year": 4, "YearMonth": "2018-04", "Week_of_year": 17, "cluster": 9, "partition": 3 }, "geometry": { "type": "Point", "coordinates": [ 37.24501, -1.58253 ] } },
{ "type": "Feature", "properties": { "lat": 1.238108, "lon": 35.14218, "Date": "2018-04-25T00:00:00", "search_state": "West Pokot", "species": "FAW", "Year": 2018, "Month_of_year": 4, "YearMonth": "2018-04", "Week_of_year": 17, "cluster": 1, "partition": 0 }, "geometry": { "type": "Point", "coordinates": [ 35.14218, 1.238108 ] } },
{ "type": "Feature", "properties": { "lat": -1.46785, "lon": 37.30344, "Date": "2018-04-25T00:00:00", "search_state": "Machakos County", "species": "FAW", "Year": 2018, "Month_of_year": 4, "YearMonth": "2018-04", "Week_of_year": 17, "cluster": 9, "partition": 0 }, "geometry": { "type": "Point", "coordinates": [ 37.30344, -1.46785 ] } },
{ "type": "Feature", "properties": { "lat": -1.2380939, "lon": 36.6000688, "Date": "2018-04-18T00:00:00", "search_state": "Kiambu", "species": "FAW", "Year": 2018, "Month_of_year": 4, "YearMonth": "2018-04", "Week_of_year": 16, "cluster": 7, "partition": 3 }, "geometry": { "type": "Point", "coordinates": [ 36.6000688, -1.2380939 ] } },
{ "type": "Feature", "properties": { "lat": 1.0124943, "lon": 35.3209552, "Date": "2018-04-17T00:00:00", "search_state": "Trans-Nzoia County", "species": "FAW", "Year": 2018, "Month_of_year": 4, "YearMonth": "2018-04", "Week_of_year": 16, "cluster": 1, "partition": 1 }, "geometry": { "type": "Point", "coordinates": [ 35.3209552, 1.0124943 ] } },
{ "type": "Feature", "properties": { "lat": -1.3752691, "lon": 37.2478215, "Date": "2018-04-15T00:00:00", "search_state": "Machakos County", "species": "FAW", "Year": 2018, "Month_of_year": 4, "YearMonth": "2018-04", "Week_of_year": 15, "cluster": 9, "partition": 0 }, "geometry": { "type": "Point", "coordinates": [ 37.2478215, -1.3752691 ] } },
{ "type": "Feature", "properties": { "lat": 0.6188297, "lon": 34.5851958, "Date": "2018-04-16T00:00:00", "search_state": "Bungoma County", "species": "FAW", "Year": 2018, "Month_of_year": 4, "YearMonth": "2018-04", "Week_of_year": 16, "cluster": 4, "partition": 3 }, "geometry": { "type": "Point", "coordinates": [ 34.5851958, 0.6188297 ] } },
{ "type": "Feature", "properties": { "lat": -2.998274871, "lon": 37.62601476, "Date": "2018-04-12T00:00:00", "search_state": "Kajiado County", "species": "FAW", "Year": 2018, "Month_of_year": 4, "YearMonth": "2018-04", "Week_of_year": 15, "cluster": 3, "partition": 2 }, "geometry": { "type": "Point", "coordinates": [ 37.62601476, -2.998274871 ] } },
{ "type": "Feature", "properties": { "lat": -1.8546139, "lon": 36.7825261, "Date": "2018-04-10T00:00:00", "search_state": "Kajiado County", "species": "FAW", "Year": 2018, "Month_of_year": 4, "YearMonth": "2018-04", "Week_of_year": 15, "cluster": 7, "partition": 0 }, "geometry": { "type": "Point", "coordinates": [ 36.7825261, -1.8546139 ] } },
{ "type": "Feature", "properties": { "lat": -1.089464671, "lon": 35.95504539, "Date": "2018-04-02T00:00:00", "search_state": "Narok", "species": "FAW", "Year": 2018, "Month_of_year": 4, "YearMonth": "2018-04", "Week_of_year": 14, "cluster": 6, "partition": 3 }, "geometry": { "type": "Point", "coordinates": [ 35.95504539, -1.089464671 ] } },
{ "type": "Feature", "properties": { "lat": -0.62768, "lon": 37.10609, "Date": "2018-03-29T00:00:00", "search_state": "Nyeri", "species": "FAW", "Year": 2018, "Month_of_year": 3, "YearMonth": "2018-03", "Week_of_year": 13, "cluster": 2, "partition": 2 }, "geometry": { "type": "Point", "coordinates": [ 37.10609, -0.62768 ] } },
{ "type": "Feature", "properties": { "lat": -0.47389, "lon": 37.46408, "Date": "2018-03-23T00:00:00", "search_state": "Embu", "species": "FAW", "Year": 2018, "Month_of_year": 3, "YearMonth": "2018-03", "Week_of_year": 12, "cluster": 2, "partition": 1 }, "geometry": { "type": "Point", "coordinates": [ 37.46408, -0.47389 ] } },
{ "type": "Feature", "properties": { "lat": -0.6430817, "lon": 37.2372161, "Date": "2018-03-19T00:00:00", "search_state": "Kirinyaga County", "species": "FAW", "Year": 2018, "Month_of_year": 3, "YearMonth": "2018-03", "Week_of_year": 12, "cluster": 2, "partition": 0 }, "geometry": { "type": "Point", "coordinates": [ 37.2372161, -0.6430817 ] } },
{ "type": "Feature", "properties": { "lat": -0.5599069, "lon": 37.235621, "Date": "2018-03-19T00:00:00", "search_state": "Kirinyaga County", "species": "FAW", "Year": 2018, "Month_of_year": 3, "YearMonth": "2018-03", "Week_of_year": 12, "cluster": 2, "partition": 2 }, "geometry": { "type": "Point", "coordinates": [ 37.235621, -0.5599069 ] } },
{ "type": "Feature", "properties": { "lat": 1.0236529, "lon": 34.9896093, "Date": "2018-03-19T00:00:00", "search_state": "Trans-Nzoia County", "species": "FAW", "Year": 2018, "Month_of_year": 3, "YearMonth": "2018-03", "Week_of_year": 12, "cluster": 1, "partition": 1 }, "geometry": { "type": "Point", "coordinates": [ 34.9896093, 1.0236529 ] } },
{ "type": "Feature", "properties": { "lat": -1.21822, "lon": 36.65172, "Date": "2018-02-27T00:00:00", "search_state": "Kiambu", "species": "FAW", "Year": 2018, "Month_of_year": 2, "YearMonth": "2018-02", "Week_of_year": 9, "cluster": 7, "partition": 1 }, "geometry": { "type": "Point", "coordinates": [ 36.65172, -1.21822 ] } },
{ "type": "Feature", "properties": { "lat": 1.0406658, "lon": 35.3205255, "Date": "2018-02-08T00:00:00", "search_state": "Elgeyo-Marakwet County", "species": "FAW", "Year": 2018, "Month_of_year": 2, "YearMonth": "2018-02", "Week_of_year": 6, "cluster": 1, "partition": 1 }, "geometry": { "type": "Point", "coordinates": [ 35.3205255, 1.0406658 ] } },
{ "type": "Feature", "properties": { "lat": 1.0580648, "lon": 35.2106801, "Date": "2018-02-08T00:00:00", "search_state": "Trans-Nzoia County", "species": "FAW", "Year": 2018, "Month_of_year": 2, "YearMonth": "2018-02", "Week_of_year": 6, "cluster": 1, "partition": 1 }, "geometry": { "type": "Point", "coordinates": [ 35.2106801, 1.0580648 ] } },
{ "type": "Feature", "properties": { "lat": -0.5414906, "lon": 36.9891685, "Date": "2018-01-26T00:00:00", "search_state": "Nyeri", "species": "FAW", "Year": 2018, "Month_of_year": 1, "YearMonth": "2018-01", "Week_of_year": 4, "cluster": 2, "partition": 2 }, "geometry": { "type": "Point", "coordinates": [ 36.9891685, -0.5414906 ] } },
{ "type": "Feature", "properties": { "lat": -2.8119982, "lon": 37.4958208, "Date": "2018-01-25T00:00:00", "search_state": "Kajiado County", "species": "FAW", "Year": 2018, "Month_of_year": 1, "YearMonth": "2018-01", "Week_of_year": 4, "cluster": 3, "partition": 0 }, "geometry": { "type": "Point", "coordinates": [ 37.4958208, -2.8119982 ] } },
{ "type": "Feature", "properties": { "lat": -1.2431016, "lon": 36.6628923, "Date": "2018-01-24T00:00:00", "search_state": "Kiambu", "species": "FAW", "Year": 2018, "Month_of_year": 1, "YearMonth": "2018-01", "Week_of_year": 4, "cluster": 7, "partition": 3 }, "geometry": { "type": "Point", "coordinates": [ 36.6628923, -1.2431016 ] } },
{ "type": "Feature", "properties": { "lat": 0.8097101, "lon": 35.0534424, "Date": "2017-12-22T00:00:00", "search_state": "Kakamega County", "species": "FAW", "Year": 2017, "Month_of_year": 12, "YearMonth": "2017-12", "Week_of_year": 51, "cluster": 1, "partition": 0 }, "geometry": { "type": "Point", "coordinates": [ 35.0534424, 0.8097101 ] } },
{ "type": "Feature", "properties": { "lat": -0.52697, "lon": 37.01729, "Date": "2017-12-14T00:00:00", "search_state": "Nyeri", "species": "FAW", "Year": 2017, "Month_of_year": 12, "YearMonth": "2017-12", "Week_of_year": 50, "cluster": 2, "partition": 3 }, "geometry": { "type": "Point", "coordinates": [ 37.01729, -0.52697 ] } },
{ "type": "Feature", "properties": { "lat": -0.5857, "lon": 37.29047, "Date": "2017-12-14T00:00:00", "search_state": "Kirinyaga County", "species": "FAW", "Year": 2017, "Month_of_year": 12, "YearMonth": "2017-12", "Week_of_year": 50, "cluster": 2, "partition": 3 }, "geometry": { "type": "Point", "coordinates": [ 37.29047, -0.5857 ] } },
{ "type": "Feature", "properties": { "lat": -1.3992183, "lon": 36.6844302, "Date": "2017-12-05T00:00:00", "search_state": "Kajiado County", "species": "FAW", "Year": 2017, "Month_of_year": 12, "YearMonth": "2017-12", "Week_of_year": 49, "cluster": 7, "partition": 2 }, "geometry": { "type": "Point", "coordinates": [ 36.6844302, -1.3992183 ] } },
{ "type": "Feature", "properties": { "lat": -0.381526441, "lon": 37.83991685, "Date": "2017-11-30T00:00:00", "search_state": "Tharaka-Nithi", "species": "FAW", "Year": 2017, "Month_of_year": 11, "YearMonth": "2017-11", "Week_of_year": 48, "cluster": 2, "partition": 2 }, "geometry": { "type": "Point", "coordinates": [ 37.83991685, -0.381526441 ] } },
{ "type": "Feature", "properties": { "lat": -0.9982082, "lon": 35.6008312, "Date": "2017-11-29T00:00:00", "search_state": "Narok", "species": "FAW", "Year": 2017, "Month_of_year": 11, "YearMonth": "2017-11", "Week_of_year": 48, "cluster": 6, "partition": 0 }, "geometry": { "type": "Point", "coordinates": [ 35.6008312, -0.9982082 ] } },
{ "type": "Feature", "properties": { "lat": -1.4004217, "lon": 36.7656218, "Date": "2017-11-29T00:00:00", "search_state": "Kajiado County", "species": "FAW", "Year": 2017, "Month_of_year": 11, "YearMonth": "2017-11", "Week_of_year": 48, "cluster": 7, "partition": 0 }, "geometry": { "type": "Point", "coordinates": [ 36.7656218, -1.4004217 ] } },
{ "type": "Feature", "properties": { "lat": -0.4476182, "lon": 37.4799763, "Date": "2017-11-23T00:00:00", "search_state": "Embu", "species": "FAW", "Year": 2017, "Month_of_year": 11, "YearMonth": "2017-11", "Week_of_year": 47, "cluster": 2, "partition": 3 }, "geometry": { "type": "Point", "coordinates": [ 37.4799763, -0.4476182 ] } },
{ "type": "Feature", "properties": { "lat": -1.408468098, "lon": 37.48089637, "Date": "2017-11-21T00:00:00", "search_state": "Machakos County", "species": "FAW", "Year": 2017, "Month_of_year": 11, "YearMonth": "2017-11", "Week_of_year": 47, "cluster": 9, "partition": 4 }, "geometry": { "type": "Point", "coordinates": [ 37.48089637, -1.408468098 ] } },
{ "type": "Feature", "properties": { "lat": -0.34158, "lon": 37.62088, "Date": "2017-11-21T00:00:00", "search_state": "Tharaka-Nithi", "species": "FAW", "Year": 2017, "Month_of_year": 11, "YearMonth": "2017-11", "Week_of_year": 47, "cluster": 2, "partition": 1 }, "geometry": { "type": "Point", "coordinates": [ 37.62088, -0.34158 ] } },
{ "type": "Feature", "properties": { "lat": -0.3977889, "lon": 37.5912438, "Date": "2017-11-17T00:00:00", "search_state": "Embu", "species": "FAW", "Year": 2017, "Month_of_year": 11, "YearMonth": "2017-11", "Week_of_year": 46, "cluster": 2, "partition": 2 }, "geometry": { "type": "Point", "coordinates": [ 37.5912438, -0.3977889 ] } },
{ "type": "Feature", "properties": { "lat": -1.28124, "lon": 36.61225, "Date": "2017-11-13T00:00:00", "search_state": "Kiambu", "species": "FAW", "Year": 2017, "Month_of_year": 11, "YearMonth": "2017-11", "Week_of_year": 46, "cluster": 7, "partition": 0 }, "geometry": { "type": "Point", "coordinates": [ 36.61225, -1.28124 ] } },
{ "type": "Feature", "properties": { "lat": -0.318592, "lon": 37.65946, "Date": "2017-11-09T00:00:00", "search_state": "Tharaka-Nithi", "species": "FAW", "Year": 2017, "Month_of_year": 11, "YearMonth": "2017-11", "Week_of_year": 45, "cluster": 2, "partition": 0 }, "geometry": { "type": "Point", "coordinates": [ 37.65946, -0.318592 ] } },
{ "type": "Feature", "properties": { "lat": -0.6328785, "lon": 37.3611863, "Date": "2017-10-17T00:00:00", "search_state": "Kirinyaga County", "species": "FAW", "Year": 2017, "Month_of_year": 10, "YearMonth": "2017-10", "Week_of_year": 42, "cluster": 2, "partition": 3 }, "geometry": { "type": "Point", "coordinates": [ 37.3611863, -0.6328785 ] } },
{ "type": "Feature", "properties": { "lat": -1.344176, "lon": 36.64176, "Date": "2017-09-25T00:00:00", "search_state": "Kajiado County", "species": "FAW", "Year": 2017, "Month_of_year": 9, "YearMonth": "2017-09", "Week_of_year": 39, "cluster": 7, "partition": 4 }, "geometry": { "type": "Point", "coordinates": [ 36.64176, -1.344176 ] } },
{ "type": "Feature", "properties": { "lat": -0.1585916, "lon": 34.8543113, "Date": "2017-09-18T00:00:00", "search_state": "Kisumu County", "species": "FAW", "Year": 2017, "Month_of_year": 9, "YearMonth": "2017-09", "Week_of_year": 38, "cluster": 8, "partition": 4 }, "geometry": { "type": "Point", "coordinates": [ 34.8543113, -0.1585916 ] } },
{ "type": "Feature", "properties": { "lat": -0.4447744, "lon": 37.7128589, "Date": "2017-09-14T00:00:00", "search_state": "Tharaka-Nithi", "species": "FAW", "Year": 2017, "Month_of_year": 9, "YearMonth": "2017-09", "Week_of_year": 37, "cluster": 2, "partition": 1 }, "geometry": { "type": "Point", "coordinates": [ 37.7128589, -0.4447744 ] } },
{ "type": "Feature", "properties": { "lat": 0.7215922, "lon": 34.7584322, "Date": "2017-09-13T00:00:00", "search_state": "Bungoma County", "species": "FAW", "Year": 2017, "Month_of_year": 9, "YearMonth": "2017-09", "Week_of_year": 37, "cluster": 1, "partition": 3 }, "geometry": { "type": "Point", "coordinates": [ 34.7584322, 0.7215922 ] } },
{ "type": "Feature", "properties": { "lat": -0.96993428, "lon": 35.89853636, "Date": "2017-07-25T00:00:00", "search_state": "Narok", "species": "FAW", "Year": 2017, "Month_of_year": 7, "YearMonth": "2017-07", "Week_of_year": 30, "cluster": 6, "partition": 4 }, "geometry": { "type": "Point", "coordinates": [ 35.89853636, -0.96993428 ] } },
{ "type": "Feature", "properties": { "lat": -0.2159, "lon": 36.1648, "Date": "2017-07-26T00:00:00", "search_state": "Nakuru", "species": "FAW", "Year": 2017, "Month_of_year": 7, "YearMonth": "2017-07", "Week_of_year": 30, "cluster": 0, "partition": 0 }, "geometry": { "type": "Point", "coordinates": [ 36.1648, -0.2159 ] } },
{ "type": "Feature", "properties": { "lat": 1.0145792, "lon": 35.1967382, "Date": "2017-07-14T00:00:00", "search_state": "Trans-Nzoia County", "species": "FAW", "Year": 2017, "Month_of_year": 7, "YearMonth": "2017-07", "Week_of_year": 28, "cluster": 1, "partition": 0 }, "geometry": { "type": "Point", "coordinates": [ 35.1967382, 1.0145792 ] } },
{ "type": "Feature", "properties": { "lat": 0.9995849, "lon": 34.9721929, "Date": "2017-06-30T00:00:00", "search_state": "Trans-Nzoia County", "species": "FAW", "Year": 2017, "Month_of_year": 6, "YearMonth": "2017-06", "Week_of_year": 26, "cluster": 1, "partition": 2 }, "geometry": { "type": "Point", "coordinates": [ 34.9721929, 0.9995849 ] } },
{ "type": "Feature", "properties": { "lat": -0.1461222, "lon": 36.1499578, "Date": "2017-06-14T00:00:00", "search_state": "Nakuru", "species": "FAW", "Year": 2017, "Month_of_year": 6, "YearMonth": "2017-06", "Week_of_year": 24, "cluster": 0, "partition": 1 }, "geometry": { "type": "Point", "coordinates": [ 36.1499578, -0.1461222 ] } },
{ "type": "Feature", "properties": { "lat": -0.64574801, "lon": 37.31893156, "Date": "2017-06-08T00:00:00", "search_state": "Kirinyaga County", "species": "FAW", "Year": 2017, "Month_of_year": 6, "YearMonth": "2017-06", "Week_of_year": 23, "cluster": 2, "partition": 4 }, "geometry": { "type": "Point", "coordinates": [ 37.31893156, -0.64574801 ] } },
{ "type": "Feature", "properties": { "lat": -1.2220597, "lon": 36.7004931, "Date": "2017-06-08T00:00:00", "search_state": "Kiambu", "species": "FAW", "Year": 2017, "Month_of_year": 6, "YearMonth": "2017-06", "Week_of_year": 23, "cluster": 7, "partition": 1 }, "geometry": { "type": "Point", "coordinates": [ 36.7004931, -1.2220597 ] } },
{ "type": "Feature", "properties": { "lat": 1.0020446, "lon": 35.2456022, "Date": "2017-06-05T00:00:00", "search_state": "Trans-Nzoia County", "species": "FAW", "Year": 2017, "Month_of_year": 6, "YearMonth": "2017-06", "Week_of_year": 23, "cluster": 1, "partition": 3 }, "geometry": { "type": "Point", "coordinates": [ 35.2456022, 1.0020446 ] } },
{ "type": "Feature", "properties": { "lat": 0.0602005, "lon": 36.2184913, "Date": "2017-06-02T00:00:00", "search_state": "Nakuru", "species": "FAW", "Year": 2017, "Month_of_year": 6, "YearMonth": "2017-06", "Week_of_year": 22, "cluster": 0, "partition": 3 }, "geometry": { "type": "Point", "coordinates": [ 36.2184913, 0.0602005 ] } },
{ "type": "Feature", "properties": { "lat": 0.99319, "lon": 34.87029, "Date": "2017-05-31T00:00:00", "search_state": "Trans-Nzoia County", "species": "FAW", "Year": 2017, "Month_of_year": 5, "YearMonth": "2017-05", "Week_of_year": 22, "cluster": 1, "partition": 0 }, "geometry": { "type": "Point", "coordinates": [ 34.87029, 0.99319 ] } },
{ "type": "Feature", "properties": { "lat": 1.2644533, "lon": 35.130475, "Date": "2017-05-30T00:00:00", "search_state": "West Pokot", "species": "FAW", "Year": 2017, "Month_of_year": 5, "YearMonth": "2017-05", "Week_of_year": 22, "cluster": 1, "partition": 0 }, "geometry": { "type": "Point", "coordinates": [ 35.130475, 1.2644533 ] } },
{ "type": "Feature", "properties": { "lat": 0.95475, "lon": 35.61245, "Date": "2017-05-18T00:00:00", "search_state": "Elgeyo-Marakwet County", "species": "FAW", "Year": 2017, "Month_of_year": 5, "YearMonth": "2017-05", "Week_of_year": 20, "cluster": 1, "partition": 0 }, "geometry": { "type": "Point", "coordinates": [ 35.61245, 0.95475 ] } },
{ "type": "Feature", "properties": { "lat": -0.57658598, "lon": 37.43290221, "Date": "2017-05-15T00:00:00", "search_state": "Kirinyaga County", "species": "FAW", "Year": 2017, "Month_of_year": 5, "YearMonth": "2017-05", "Week_of_year": 20, "cluster": 2, "partition": 1 }, "geometry": { "type": "Point", "coordinates": [ 37.43290221, -0.57658598 ] } },
{ "type": "Feature", "properties": { "lat": -0.418800298, "lon": 37.50348991, "Date": "2017-05-12T00:00:00", "search_state": "Embu", "species": "FAW", "Year": 2017, "Month_of_year": 5, "YearMonth": "2017-05", "Week_of_year": 19, "cluster": 2, "partition": 0 }, "geometry": { "type": "Point", "coordinates": [ 37.50348991, -0.418800298 ] } },
{ "type": "Feature", "properties": { "lat": 0.73706324, "lon": 34.68771768, "Date": "2017-04-13T00:00:00", "search_state": "Bungoma County", "species": "FAW", "Year": 2017, "Month_of_year": 4, "YearMonth": "2017-04", "Week_of_year": 15, "cluster": 1, "partition": 4 }, "geometry": { "type": "Point", "coordinates": [ 34.68771768, 0.73706324 ] } },
{ "type": "Feature", "properties": { "lat": 0.79611, "lon": 34.665526, "Date": "2017-04-12T00:00:00", "search_state": "Bungoma County", "species": "FAW", "Year": 2017, "Month_of_year": 4, "YearMonth": "2017-04", "Week_of_year": 15, "cluster": 1, "partition": 4 }, "geometry": { "type": "Point", "coordinates": [ 34.665526, 0.79611 ] } },
{ "type": "Feature", "properties": { "lat": 0.77862, "lon": 34.7895, "Date": "2017-04-11T00:00:00", "search_state": "Bungoma County", "species": "FAW", "Year": 2017, "Month_of_year": 4, "YearMonth": "2017-04", "Week_of_year": 15, "cluster": 1, "partition": 2 }, "geometry": { "type": "Point", "coordinates": [ 34.7895, 0.77862 ] } },
{ "type": "Feature", "properties": { "lat": 0.7932692, "lon": 34.7163129, "Date": "2017-04-10T00:00:00", "search_state": "Bungoma County", "species": "FAW", "Year": 2017, "Month_of_year": 4, "YearMonth": "2017-04", "Week_of_year": 15, "cluster": 1, "partition": 0 }, "geometry": { "type": "Point", "coordinates": [ 34.7163129, 0.7932692 ] } },
{ "type": "Feature", "properties": { "lat": -0.5709673, "lon": 37.0642919, "Date": "2017-11-14T00:00:00", "search_state": "Nyeri", "species": "FAW", "Year": 2017, "Month_of_year": 11, "YearMonth": "2017-11", "Week_of_year": 46, "cluster": 2, "partition": 4 }, "geometry": { "type": "Point", "coordinates": [ 37.0642919, -0.5709673 ] } }
]
}
