{
"type": "FeatureCollection",
"name": "early_thinned_5km_partition",
"crs": { "type": "name", "properties": { "name": "urn:ogc:def:crs:OGC:1.3:CRS84" } },
"features": [
{ "type": "Feature", "properties": { "lat": -0.0869941, "lon": 37.6630762, "Date": "2019-04-09T00:00:00", "search_state": "Meru County", "species": "FAW", "Year": 2019, "Month_of_year": 4, "YearMonth": "2019-04", "Week_of_year": 15, "cluster": 2, "partition": 2 }, "geometry": { "type": "Point", "coordinates": [ 37.6630762, -0.0869941 ] } },
{ "type": "Feature", "properties": { "lat": 0.496708, "lon": 34.204908, "Date": "2019-10-18T00:00:00", "search_state": "Busia County", "species": "FAW", "Year": 2019, "Month_of_year": 10, "YearMonth": "2019-10", "Week_of_year": 42, "cluster": 4, "partition": 1 }, "geometry": { "type": "Point", "coordinates": [ 34.204908, 0.496708 ] } },
{ "type": "Feature", "properties": { "lat": -1.2623592, "lon": 36.8013114, "Date": "2019-03-14T00:00:00", "search_state": "Nairobi County", "species": "FAW", "Year": 2019, "Month_of_year": 3, "YearMonth": "2019-03", "Week_of_year": 11, "cluster": 1, "partition": 4 }, "geometry": { "type": "Point", "coordinates": [ 36.8013114, -1.2623592 ] } },
{ "type": "Feature", "properties": { "lat": -1.5290018, "lon": 37.2628393, "Date": "2019-06-12T00:00:00", "search_state": "Machakos County", "species": "FAW", "Year": 2019, "Month_of_year": 6, "YearMonth": "2019-06", "Week_of_year": 24, "cluster": 8, "partition": 2 }, "geometry": { "type": "Point", "coordinates": [ 37.2628393, -1.5290018 ] } },
{ "type": "Feature", "properties": { "lat": 1.0947321, "lon": 34.770922, "Date": "2018-07-28T00:00:00", "search_state": "Trans-Nzoia County", "species": "FAW", "Year": 2018, "Month_of_year": 7, "YearMonth": "2018-07", "Week_of_year": 30, "cluster": 3, "partition": 0 }, "geometry": { "type": "Point", "coordinates": [ 34.770922, 1.0947321 ] } },
{ "type": "Feature", "properties": { "lat": 0.709391, "lon": 34.381132, "Date": "2019-08-27T00:00:00", "search_state": "Busia County", "species": "FAW", "Year": 2019, "Month_of_year": 8, "YearMonth": "2019-08", "Week_of_year": 35, "cluster": 4, "partition": 2 }, "geometry": { "type": "Point", "coordinates": [ 34.381132, 0.709391 ] } },
{ "type": "Feature", "properties": { "lat": 0.6014712, "lon": 34.6187514, "Date": "2018-09-14T00:00:00", "search_state": "Bungoma County", "species": "FAW", "Year": 2018, "Month_of_year": 9, "YearMonth": "2018-09", "Week_of_year": 37, "cluster": 4, "partition": 1 }, "geometry": { "type": "Point", "coordinates": [ 34.6187514, 0.6014712 ] } },
{ "type": "Feature", "properties": { "lat": 0.277717, "lon": 36.379493, "Date": "2020-03-03T00:00:00", "search_state": "Laikipia County", "species": "FAW", "Year": 2020, "Month_of_year": 3, "YearMonth": "2020-03", "Week_of_year": 10, "cluster": 7, "partition": 1 }, "geometry": { "type": "Point", "coordinates": [ 36.379493, 0.277717 ] } },
{ "type": "Feature", "properties": { "lat": 0.552766, "lon": 34.335819, "Date": "2019-05-25T00:00:00", "search_state": "Busia County", "species": "FAW", "Year": 2019, "Month_of_year": 5, "YearMonth": "2019-05", "Week_of_year": 21, "cluster": 4, "partition": 4 }, "geometry": { "type": "Point", "coordinates": [ 34.335819, 0.552766 ] } },
{ "type": "Feature", "properties": { "lat": -1.210481, "lon": 36.8510154, "Date": "2019-03-20T00:00:00", "search_state": "Nairobi County", "species": "FAW", "Year": 2019, "Month_of_year": 3, "YearMonth": "2019-03", "Week_of_year": 12, "cluster": 1, "partition": 1 }, "geometry": { "type": "Point", "coordinates": [ 36.8510154, -1.210481 ] } },
{ "type": "Feature", "properties": { "lat": 0.408169, "lon": 34.194459, "Date": "2020-05-20T00:00:00", "search_state": "Busia County", "species": "FAW", "Year": 2020, "Month_of_year": 5, "YearMonth": "2020-05", "Week_of_year": 21, "cluster": 4, "partition": 2 }, "geometry": { "type": "Point", "coordinates": [ 34.194459, 0.408169 ] } },
{ "type": "Feature", "properties": { "lat": 1.563338, "lon": 35.383911, "Date": "2019-10-18T00:00:00", "search_state": "West Pokot", "species": "FAW", "Year": 2019, "Month_of_year": 10, "YearMonth": "2019-10", "Week_of_year": 42, "cluster": 3, "partition": 4 }, "geometry": { "type": "Point", "coordinates": [ 35.383911, 1.563338 ] } },
{ "type": "Feature", "properties": { "lat": 0.504638, "lon": 34.138156, "Date": "2019-09-16T00:00:00", "search_state": "Busia County", "species": "FAW", "Year": 2019, "Month_of_year": 9, "YearMonth": "2019-09", "Week_of_year": 38, "cluster": 4, "partition": 3 }, "geometry": { "type": "Point", "coordinates": [ 34.138156, 0.504638 ] } },
{ "type": "Feature", "properties": { "lat": 0.406816, "lon": 34.140002, "Date": "2019-11-11T00:00:00", "search_state": "Busia County", "species": "FAW", "Year": 2019, "Month_of_year": 11, "YearMonth": "2019-11", "Week_of_year": 46, "cluster": 4, "partition": 1 }, "geometry": { "type": "Point", "coordinates": [ 34.140002, 0.406816 ] } },
{ "type": "Feature", "properties": { "lat": 0.452256, "lon": 34.352027, "Date": "2019-05-16T00:00:00", "search_state": "Busia County", "species": "FAW", "Year": 2019, "Month_of_year": 5, "YearMonth": "2019-05", "Week_of_year": 20, "cluster": 4, "partition": 4 }, "geometry": { "type": "Point", "coordinates": [ 34.352027, 0.452256 ] } },
{ "type": "Feature", "properties": { "lat": 0.499269, "lon": 34.288866, "Date": "2019-09-25T00:00:00", "search_state": "Busia County", "species": "FAW", "Year": 2019, "Month_of_year": 9, "YearMonth": "2019-09", "Week_of_year": 39, "cluster": 4, "partition": 0 }, "geometry": { "type": "Point", "coordinates": [ 34.288866, 0.499269 ] } },
{ "type": "Feature", "properties": { "lat": 1.0062866, "lon": 35.0279743, "Date": "2018-09-18T00:00:00", "search_state": "Trans-Nzoia County", "species": "FAW", "Year": 2018, "Month_of_year": 9, "YearMonth": "2018-09", "Week_of_year": 38, "cluster": 3, "partition": 2 }, "geometry": { "type": "Point", "coordinates": [ 35.0279743, 1.0062866 ] } },
{ "type": "Feature", "properties": { "lat": 0.352368, "lon": 34.177356, "Date": "2020-10-23T00:00:00", "search_state": "Busia County", "species": "FAW", "Year": 2020, "Month_of_year": 10, "YearMonth": "2020-10", "Week_of_year": 43, "cluster": 4, "partition": 3 }, "geometry": { "type": "Point", "coordinates": [ 34.177356, 0.352368 ] } },
{ "type": "Feature", "properties": { "lat": 0.493634, "lon": 34.535634, "Date": "2020-06-11T00:00:00", "search_state": "Bungoma County", "species": "FAW", "Year": 2020, "Month_of_year": 6, "YearMonth": "2020-06", "Week_of_year": 24, "cluster": 4, "partition": 0 }, "geometry": { "type": "Point", "coordinates": [ 34.535634, 0.493634 ] } },
{ "type": "Feature", "properties": { "lat": 0.4488162, "lon": 34.8515518, "Date": "2018-04-17T00:00:00", "search_state": "Kakamega County", "species": "FAW", "Year": 2018, "Month_of_year": 4, "YearMonth": "2018-04", "Week_of_year": 16, "cluster": 3, "partition": 0 }, "geometry": { "type": "Point", "coordinates": [ 34.8515518, 0.4488162 ] } },
{ "type": "Feature", "properties": { "lat": 0.7836838, "lon": 34.8084243, "Date": "2018-09-12T00:00:00", "search_state": "Bungoma County", "species": "FAW", "Year": 2018, "Month_of_year": 9, "YearMonth": "2018-09", "Week_of_year": 37, "cluster": 3, "partition": 0 }, "geometry": { "type": "Point", "coordinates": [ 34.8084243, 0.7836838 ] } },
{ "type": "Feature", "properties": { "lat": 0.4708033, "lon": 35.9860467, "Date": "2019-02-15T00:00:00", "search_state": "Baringo", "species": "FAW", "Year": 2019, "Month_of_year": 2, "YearMonth": "2019-02", "Week_of_year": 7, "cluster": 7, "partition": 2 }, "geometry": { "type": "Point", "coordinates": [ 35.9860467, 0.4708033 ] } },
{ "type": "Feature", "properties": { "lat": 0.7, "lon": 35.7, "Date": "2018-07-03T00:00:00", "search_state": "Baringo", "species": "FAW", "Year": 2018, "Month_of_year": 7, "YearMonth": "2018-07", "Week_of_year": 27, "cluster": 3, "partition": 2 }, "geometry": { "type": "Point", "coordinates": [ 35.7, 0.7 ] } },
{ "type": "Feature", "properties": { "lat": 0.791689, "lon": 35.470147, "Date": "2018-11-09T00:00:00", "search_state": "Uasin Gishu County", "species": "FAW", "Year": 2018, "Month_of_year": 11, "YearMonth": "2018-11", "Week_of_year": 45, "cluster": 3, "partition": 4 }, "geometry": { "type": "Point", "coordinates": [ 35.470147, 0.791689 ] } },
{ "type": "Feature", "properties": { "lat": 0.6332, "lon": 34.26977, "Date": "2019-08-20T00:00:00", "search_state": "Busia County", "species": "FAW", "Year": 2019, "Month_of_year": 8, "YearMonth": "2019-08", "Week_of_year": 34, "cluster": 4, "partition": 3 }, "geometry": { "type": "Point", "coordinates": [ 34.26977, 0.6332 ] } },
{ "type": "Feature", "properties": { "lat": 0.7948652, "lon": 35.4120133, "Date": "2018-07-04T00:00:00", "search_state": "Uasin Gishu County", "species": "FAW", "Year": 2018, "Month_of_year": 7, "YearMonth": "2018-07", "Week_of_year": 27, "cluster": 3, "partition": 1 }, "geometry": { "type": "Point", "coordinates": [ 35.4120133, 0.7948652 ] } },
{ "type": "Feature", "properties": { "lat": 0.634455, "lon": 34.33121, "Date": "2020-04-28T00:00:00", "search_state": "Busia County", "species": "FAW", "Year": 2020, "Month_of_year": 4, "YearMonth": "2020-04", "Week_of_year": 18, "cluster": 4, "partition": 1 }, "geometry": { "type": "Point", "coordinates": [ 34.33121, 0.634455 ] } },
{ "type": "Feature", "properties": { "lat": -0.4563638, "lon": 37.0029567, "Date": "2018-04-26T00:00:00", "search_state": "Nyeri", "species": "FAW", "Year": 2018, "Month_of_year": 4, "YearMonth": "2018-04", "Week_of_year": 17, "cluster": 2, "partition": 4 }, "geometry": { "type": "Point", "coordinates": [ 37.0029567, -0.4563638 ] } },
{ "type": "Feature", "properties": { "lat": -3.214996, "lon": 40.093899, "Date": "2020-07-14T00:00:00", "search_state": "Kilifi County", "species": "FAW", "Year": 2020, "Month_of_year": 7, "YearMonth": "2020-07", "Week_of_year": 29, "cluster": 5, "partition": 1 }, "geometry": { "type": "Point", "coordinates": [ 40.093899, -3.214996 ] } },
{ "type": "Feature", "properties": { "lat": 0.8774009, "lon": 34.8586339, "Date": "2018-06-26T00:00:00", "search_state": "Trans-Nzoia County", "species": "FAW", "Year": 2018, "Month_of_year": 6, "YearMonth": "2018-06", "Week_of_year": 26, "cluster": 3, "partition": 3 }, "geometry": { "type": "Point", "coordinates": [ 34.8586339, 0.8774009 ] } },
{ "type": "Feature", "properties": { "lat": 0.359733, "lon": 34.256555, "Date": "2020-05-06T00:00:00", "search_state": "Busia County", "species": "FAW", "Year": 2020, "Month_of_year": 5, "YearMonth": "2020-05", "Week_of_year": 19, "cluster": 4, "partition": 2 }, "geometry": { "type": "Point", "coordinates": [ 34.256555, 0.359733 ] } },
{ "type": "Feature", "properties": { "lat": 0.602632, "lon": 34.36764, "Date": "2019-05-25T00:00:00", "search_state": "Busia County", "species": "FAW", "Year": 2019, "Month_of_year": 5, "YearMonth": "2019-05", "Week_of_year": 21, "cluster": 4, "partition": 3 }, "geometry": { "type": "Point", "coordinates": [ 34.36764, 0.602632 ] } },
{ "type": "Feature", "properties": { "lat": 0.567394, "lon": 34.560638, "Date": "2018-06-13T00:00:00", "search_state": "Bungoma County", "species": "FAW", "Year": 2018, "Month_of_year": 6, "YearMonth": "2018-06", "Week_of_year": 24, "cluster": 4, "partition": 1 }, "geometry": { "type": "Point", "coordinates": [ 34.560638, 0.567394 ] } },
{ "type": "Feature", "properties": { "lat": -0.3017648, "lon": 36.0741751, "Date": "2019-02-12T00:00:00", "search_state": "Nakuru", "species": "FAW", "Year": 2019, "Month_of_year": 2, "YearMonth": "2019-02", "Week_of_year": 7, "cluster": 7, "partition": 1 }, "geometry": { "type": "Point", "coordinates": [ 36.0741751, -0.3017648 ] } },
{ "type": "Feature", "properties": { "lat": -0.8754993, "lon": 35.2838259, "Date": "2018-12-14T00:00:00", "search_state": "Bomet", "species": "FAW", "Year": 2018, "Month_of_year": 12, "YearMonth": "2018-12", "Week_of_year": 50, "cluster": 9, "partition": 4 }, "geometry": { "type": "Point", "coordinates": [ 35.2838259, -0.8754993 ] } },
{ "type": "Feature", "properties": { "lat": 0.213035, "lon": 34.350195, "Date": "2019-07-10T00:00:00", "search_state": "Siaya County", "species": "FAW", "Year": 2019, "Month_of_year": 7, "YearMonth": "2019-07", "Week_of_year": 28, "cluster": 4, "partition": 3 }, "geometry": { "type": "Point", "coordinates": [ 34.350195, 0.213035 ] } },
{ "type": "Feature", "properties": { "lat": 0.752063, "lon": 34.404323, "Date": "2019-05-31T00:00:00", "search_state": "Busia County", "species": "FAW", "Year": 2019, "Month_of_year": 5, "YearMonth": "2019-05", "Week_of_year": 22, "cluster": 4, "partition": 0 }, "geometry": { "type": "Point", "coordinates": [ 34.404323, 0.752063 ] } },
{ "type": "Feature", "properties": { "lat": -1.50781, "lon": 37.0999733, "Date": "2019-04-03T00:00:00", "search_state": "Machakos County", "species": "FAW", "Year": 2019, "Month_of_year": 4, "YearMonth": "2019-04", "Week_of_year": 14, "cluster": 8, "partition": 0 }, "geometry": { "type": "Point", "coordinates": [ 37.0999733, -1.50781 ] } },
{ "type": "Feature", "properties": { "lat": 0.208277, "lon": 34.122071, "Date": "2019-09-27T00:00:00", "search_state": "Siaya County", "species": "FAW", "Year": 2019, "Month_of_year": 9, "YearMonth": "2019-09", "Week_of_year": 39, "cluster": 4, "partition": 1 }, "geometry": { "type": "Point", "coordinates": [ 34.122071, 0.208277 ] } },
{ "type": "Feature", "properties": { "lat": 1.1295951, "lon": 34.8284382, "Date": "2018-07-20T00:00:00", "search_state": "Trans-Nzoia County", "species": "FAW", "Year": 2018, "Month_of_year": 7, "YearMonth": "2018-07", "Week_of_year": 29, "cluster": 3, "partition": 1 }, "geometry": { "type": "Point", "coordinates": [ 34.8284382, 1.1295951 ] } },
{ "type": "Feature", "properties": { "lat": 0.602451, "lon": 34.415491, "Date": "2019-12-04T00:00:00", "search_state": "Bungoma County", "species": "FAW", "Year": 2019, "Month_of_year": 12, "YearMonth": "2019-12", "Week_of_year": 49, "cluster": 4, "partition": 4 }, "geometry": { "type": "Point", "coordinates": [ 34.415491, 0.602451 ] } },
{ "type": "Feature", "properties": { "lat": 0.308899, "lon": 34.207244, "Date": "2019-11-12T00:00:00", "search_state": "Busia County", "species": "FAW", "Year": 2019, "Month_of_year": 11, "YearMonth": "2019-11", "Week_of_year": 46, "cluster": 4, "partition": 1 }, "geometry": { "type": "Point", "coordinates": [ 34.207244, 0.308899 ] } },
{ "type": "Feature", "properties": { "lat": -0.70953333333333335, "lon": 35.06756, "Date": "2018-06-10T00:00:00", "search_state": "Bomet", "species": "FAW", "Year": 2018, "Month_of_year": 6, "YearMonth": "2018-06", "Week_of_year": 23, "cluster": 0, "partition": 2 }, "geometry": { "type": "Point", "coordinates": [ 35.06756, -0.709533333333333 ] } },
{ "type": "Feature", "properties": { "lat": -0.384357, "lon": 38.569486, "Date": "2019-09-13T00:00:00", "search_state": "Kitui County", "species": "FAW", "Year": 2019, "Month_of_year": 9, "YearMonth": "2019-09", "Week_of_year": 37, "cluster": 2, "partition": 2 }, "geometry": { "type": "Point", "coordinates": [ 38.569486, -0.384357 ] } },
{ "type": "Feature", "properties": { "lat": 0.1835069, "lon": 34.3011675, "Date": "2019-07-09T00:00:00", "search_state": "Siaya County", "species": "FAW", "Year": 2019, "Month_of_year": 7, "YearMonth": "2019-07", "Week_of_year": 28, "cluster": 4, "partition": 3 }, "geometry": { "type": "Point", "coordinates": [ 34.3011675, 0.1835069 ] } },
{ "type": "Feature", "properties": { "lat": 0.2825186, "lon": 34.7575565, "Date": "2018-04-05T00:00:00", "search_state": "Kakamega County", "species": "FAW", "Year": 2018, "Month_of_year": 4, "YearMonth": "2018-04", "Week_of_year": 14, "cluster": 4, "partition": 0 }, "geometry": { "type": "Point", "coordinates": [ 34.7575565, 0.2825186 ] } },
{ "type": "Feature", "properties": { "lat": 0.9187015, "lon": 34.9300383, "Date": "2018-07-28T00:00:00", "search_state": "Trans-Nzoia County", "species": "FAW", "Year": 2018, "Month_of_year": 7, "YearMonth": "2018-07", "Week_of_year": 30, "cluster": 3, "partition": 3 }, "geometry": { "type": "Point", "coordinates": [ 34.9300383, 0.9187015 ] } },
{ "type": "Feature", "properties": { "lat": -1.5683764, "lon": 37.078103, "Date": "2019-04-03T00:00:00", "search_state": "Machakos County", "species": "FAW", "Year": 2019, "Month_of_year": 4, "YearMonth": "2019-04", "Week_of_year": 14, "cluster": 8, "partition": 4 }, "geometry": { "type": "Point", "coordinates": [ 37.078103, -1.5683764 ] } },
{ "type": "Feature", "properties": { "lat": 0.583091, "lon": 34.205855, "Date": "2020-06-17T00:00:00", "search_state": "Busia County", "species": "FAW", "Year": 2020, "Month_of_year": 6, "YearMonth": "2020-06", "Week_of_year": 25, "cluster": 4, "partition": 3 }, "geometry": { "type": "Point", "coordinates": [ 34.205855, 0.583091 ] } },
{ "type": "Feature", "properties": { "lat": 0.583829, "lon": 34.26234, "Date": "2019-05-24T00:00:00", "search_state": "Busia County", "species": "FAW", "Year": 2019, "Month_of_year": 5, "YearMonth": "2019-05", "Week_of_year": 21, "cluster": 4, "partition": 1 }, "geometry": { "type": "Point", "coordinates": [ 34.26234, 0.583829 ] } },
{ "type": "Feature", "properties": { "lat": 0.460309, "lon": 34.239159, "Date": "2019-05-16T00:00:00", "search_state": "Busia County", "species": "FAW", "Year": 2019, "Month_of_year": 5, "YearMonth": "2019-05", "Week_of_year": 20, "cluster": 4, "partition": 2 }, "geometry": { "type": "Point", "coordinates": [ 34.239159, 0.460309 ] } },
{ "type": "Feature", "properties": { "lat": -1.168545, "lon": 36.7850683, "Date": "2019-11-22T00:00:00", "search_state": "Kiambu", "species": "FAW", "Year": 2019, "Month_of_year": 11, "YearMonth": "2019-11", "Week_of_year": 47, "cluster": 1, "partition": 4 }, "geometry": { "type": "Point", "coordinates": [ 36.7850683, -1.168545 ] } },
{ "type": "Feature", "properties": { "lat": 1.942783, "lon": 35.044426, "Date": "2020-11-09T00:00:00", "search_state": "West Pokot", "species": "FAW", "Year": 2020, "Month_of_year": 11, "YearMonth": "2020-11", "Week_of_year": 46, "cluster": 3, "partition": 1 }, "geometry": { "type": "Point", "coordinates": [ 35.044426, 1.942783 ] } },
{ "type": "Feature", "properties": { "lat": 0.9669028, "lon": 35.0677245, "Date": "2018-07-21T00:00:00", "search_state": "Trans-Nzoia County", "species": "FAW", "Year": 2018, "Month_of_year": 7, "YearMonth": "2018-07", "Week_of_year": 29, "cluster": 3, "partition": 1 }, "geometry": { "type": "Point", "coordinates": [ 35.0677245, 0.9669028 ] } },
{ "type": "Feature", "properties": { "lat": -0.448273, "lon": 38.569491, "Date": "2019-09-13T00:00:00", "search_state": "Kitui County", "species": "FAW", "Year": 2019, "Month_of_year": 9, "YearMonth": "2019-09", "Week_of_year": 37, "cluster": 2, "partition": 4 }, "geometry": { "type": "Point", "coordinates": [ 38.569491, -0.448273 ] } },
{ "type": "Feature", "properties": { "lat": -1.2927264, "lon": 36.8890826, "Date": "2019-07-12T00:00:00", "search_state": "Nairobi County", "species": "FAW", "Year": 2019, "Month_of_year": 7, "YearMonth": "2019-07", "Week_of_year": 28, "cluster": 1, "partition": 1 }, "geometry": { "type": "Point", "coordinates": [ 36.8890826, -1.2927264 ] } },
{ "type": "Feature", "properties": { "lat": 0.820652, "lon": 34.913617, "Date": "2020-05-05T00:00:00", "search_state": "Bungoma County", "species": "FAW", "Year": 2020, "Month_of_year": 5, "YearMonth": "2020-05", "Week_of_year": 19, "cluster": 3, "partition": 4 }, "geometry": { "type": "Point", "coordinates": [ 34.913617, 0.820652 ] } },
{ "type": "Feature", "properties": { "lat": 0.464761, "lon": 34.102925, "Date": "2019-08-20T00:00:00", "search_state": "Busia County", "species": "FAW", "Year": 2019, "Month_of_year": 8, "YearMonth": "2019-08", "Week_of_year": 34, "cluster": 4, "partition": 2 }, "geometry": { "type": "Point", "coordinates": [ 34.102925, 0.464761 ] } },
{ "type": "Feature", "properties": { "lat": 0.8912187, "lon": 34.9882528, "Date": "2018-06-30T00:00:00", "search_state": "Trans-Nzoia County", "species": "FAW", "Year": 2018, "Month_of_year": 6, "YearMonth": "2018-06", "Week_of_year": 26, "cluster": 3, "partition": 2 }, "geometry": { "type": "Point", "coordinates": [ 34.9882528, 0.8912187 ] } },
{ "type": "Feature", "properties": { "lat": -0.2, "lon": 36.09, "Date": "2019-02-14T00:00:00", "search_state": "Nakuru", "species": "FAW", "Year": 2019, "Month_of_year": 2, "YearMonth": "2019-02", "Week_of_year": 7, "cluster": 7, "partition": 0 }, "geometry": { "type": "Point", "coordinates": [ 36.09, -0.2 ] } },
{ "type": "Feature", "properties": { "lat": 0.1447692, "lon": 36.274346, "Date": "2018-11-21T00:00:00", "search_state": "Nakuru", "species": "FAW", "Year": 2018, "Month_of_year": 11, "YearMonth": "2018-11", "Week_of_year": 47, "cluster": 7, "partition": 2 }, "geometry": { "type": "Point", "coordinates": [ 36.274346, 0.1447692 ] } },
{ "type": "Feature", "properties": { "lat": -1.370085, "lon": 38.00522, "Date": "2020-05-15T00:00:00", "search_state": "Kitui County", "species": "FAW", "Year": 2020, "Month_of_year": 5, "YearMonth": "2020-05", "Week_of_year": 20, "cluster": 8, "partition": 4 }, "geometry": { "type": "Point", "coordinates": [ 38.00522, -1.370085 ] } },
{ "type": "Feature", "properties": { "lat": 0.4831488, "lon": 37.6090933, "Date": "2019-04-24T00:00:00", "search_state": "Meru County", "species": "FAW", "Year": 2019, "Month_of_year": 4, "YearMonth": "2019-04", "Week_of_year": 17, "cluster": 2, "partition": 1 }, "geometry": { "type": "Point", "coordinates": [ 37.6090933, 0.4831488 ] } },
{ "type": "Feature", "properties": { "lat": 0.422932, "lon": 34.266297, "Date": "2019-09-09T00:00:00", "search_state": "Busia County", "species": "FAW", "Year": 2019, "Month_of_year": 9, "YearMonth": "2019-09", "Week_of_year": 37, "cluster": 4, "partition": 2 }, "geometry": { "type": "Point", "coordinates": [ 34.266297, 0.422932 ] } },
{ "type": "Feature", "properties": { "lat": 0.534952, "lon": 34.230194, "Date": "2019-05-17T00:00:00", "search_state": "Busia County", "species": "FAW", "Year": 2019, "Month_of_year": 5, "YearMonth": "2019-05", "Week_of_year": 20, "cluster": 4, "partition": 0 }, "geometry": { "type": "Point", "coordinates": [ 34.230194, 0.534952 ] } },
{ "type": "Feature", "properties": { "lat": -0.7532498, "lon": 35.4473156, "Date": "2018-09-28T00:00:00", "search_state": "Bomet", "species": "FAW", "Year": 2018, "Month_of_year": 9, "YearMonth": "2018-09", "Week_of_year": 39, "cluster": 9, "partition": 2 }, "geometry": { "type": "Point", "coordinates": [ 35.4473156, -0.7532498 ] } },
{ "type": "Feature", "properties": { "lat": -0.4105983, "lon": 35.6917062, "Date": "2018-07-18T00:00:00", "search_state": "Nakuru", "species": "FAW", "Year": 2018, "Month_of_year": 7, "YearMonth": "2018-07", "Week_of_year": 29, "cluster": 9, "partition": 3 }, "geometry": { "type": "Point", "coordinates": [ 35.6917062, -0.4105983 ] } },
{ "type": "Feature", "properties": { "lat": -0.83427, "lon": 35.3539973, "Date": "2018-09-07T00:00:00", "search_state": "Bomet", "species": "FAW", "Year": 2018, "Month_of_year": 9, "YearMonth": "2018-09", "Week_of_year": 36, "cluster": 9, "partition": 0 }, "geometry": { "type": "Point", "coordinates": [ 35.3539973, -0.83427 ] } },
{ "type": "Feature", "properties": { "lat": -0.8762537, "lon": 35.398558, "Date": "2018-07-02T00:00:00", "search_state": "Bomet", "species": "FAW", "Year": 2018, "Month_of_year": 7, "YearMonth": "2018-07", "Week_of_year": 27, "cluster": 9, "partition": 0 }, "geometry": { "type": "Point", "coordinates": [ 35.398558, -0.8762537 ] } },
{ "type": "Feature", "properties": { "lat": 0.354647, "lon": 34.120941, "Date": "2019-03-18T00:00:00", "search_state": "Busia County", "species": "FAW", "Year": 2019, "Month_of_year": 3, "YearMonth": "2019-03", "Week_of_year": 12, "cluster": 4, "partition": 0 }, "geometry": { "type": "Point", "coordinates": [ 34.120941, 0.354647 ] } },
{ "type": "Feature", "properties": { "lat": 0.055943, "lon": 37.755668, "Date": "2019-09-13T00:00:00", "search_state": "Meru County", "species": "FAW", "Year": 2019, "Month_of_year": 9, "YearMonth": "2019-09", "Week_of_year": 37, "cluster": 2, "partition": 1 }, "geometry": { "type": "Point", "coordinates": [ 37.755668, 0.055943 ] } },
{ "type": "Feature", "properties": { "lat": -1.8444747, "lon": 37.6343055, "Date": "2019-07-27T00:00:00", "search_state": "Makueni", "species": "FAW", "Year": 2019, "Month_of_year": 7, "YearMonth": "2019-07", "Week_of_year": 30, "cluster": 8, "partition": 3 }, "geometry": { "type": "Point", "coordinates": [ 37.6343055, -1.8444747 ] } },
{ "type": "Feature", "properties": { "lat": -0.8037201, "lon": 35.4823585, "Date": "2018-08-24T00:00:00", "search_state": "Bomet", "species": "FAW", "Year": 2018, "Month_of_year": 8, "YearMonth": "2018-08", "Week_of_year": 34, "cluster": 9, "partition": 3 }, "geometry": { "type": "Point", "coordinates": [ 35.4823585, -0.8037201 ] } },
{ "type": "Feature", "properties": { "lat": -0.9459788, "lon": 35.4082726, "Date": "2018-08-24T00:00:00", "search_state": "Bomet", "species": "FAW", "Year": 2018, "Month_of_year": 8, "YearMonth": "2018-08", "Week_of_year": 34, "cluster": 9, "partition": 0 }, "geometry": { "type": "Point", "coordinates": [ 35.4082726, -0.9459788 ] } },
{ "type": "Feature", "properties": { "lat": -1.8708834, "lon": 37.5872072, "Date": "2019-08-05T00:00:00", "search_state": "Makueni", "species": "FAW", "Year": 2019, "Month_of_year": 8, "YearMonth": "2019-08", "Week_of_year": 32, "cluster": 8, "partition": 2 }, "geometry": { "type": "Point", "coordinates": [ 37.5872072, -1.8708834 ] } },
{ "type": "Feature", "properties": { "lat": -0.3880489, "lon": 34.64395, "Date": "2020-02-25T00:00:00", "search_state": "Homa Bay County", "species": "FAW", "Year": 2020, "Month_of_year": 2, "YearMonth": "2020-02", "Week_of_year": 9, "cluster": 0, "partition": 2 }, "geometry": { "type": "Point", "coordinates": [ 34.64395, -0.3880489 ] } },
{ "type": "Feature", "properties": { "lat": -0.3880489, "lon": 37.64395, "Date": "2019-11-27T00:00:00", "search_state": "Tharaka-Nithi", "species": "FAW", "Year": 2019, "Month_of_year": 11, "YearMonth": "2019-11", "Week_of_year": 48, "cluster": 2, "partition": 4 }, "geometry": { "type": "Point", "coordinates": [ 37.64395, -0.3880489 ] } },
{ "type": "Feature", "properties": { "lat": -0.8160555, "lon": 35.4070817, "Date": "2019-02-15T00:00:00", "search_state": "Bomet", "species": "FAW", "Year": 2019, "Month_of_year": 2, "YearMonth": "2019-02", "Week_of_year": 7, "cluster": 9, "partition": 2 }, "geometry": { "type": "Point", "coordinates": [ 35.4070817, -0.8160555 ] } },
{ "type": "Feature", "properties": { "lat": 0.1411326, "lon": 34.36188958, "Date": "2019-08-16T00:00:00", "search_state": "Siaya County", "species": "FAW", "Year": 2019, "Month_of_year": 8, "YearMonth": "2019-08", "Week_of_year": 33, "cluster": 4, "partition": 4 }, "geometry": { "type": "Point", "coordinates": [ 34.36188958, 0.1411326 ] } },
{ "type": "Feature", "properties": { "lat": 0.7907401, "lon": 34.8690194, "Date": "2018-11-07T00:00:00", "search_state": "Bungoma County", "species": "FAW", "Year": 2018, "Month_of_year": 11, "YearMonth": "2018-11", "Week_of_year": 45, "cluster": 3, "partition": 2 }, "geometry": { "type": "Point", "coordinates": [ 34.8690194, 0.7907401 ] } },
{ "type": "Feature", "properties": { "lat": 0.07726249, "lon": 34.8147082, "Date": "2018-12-14T00:00:00", "search_state": "Vihiga County", "species": "FAW", "Year": 2018, "Month_of_year": 12, "YearMonth": "2018-12", "Week_of_year": 50, "cluster": 0, "partition": 1 }, "geometry": { "type": "Point", "coordinates": [ 34.8147082, 0.07726249 ] } },
{ "type": "Feature", "properties": { "lat": 0.8166174, "lon": 34.9971321, "Date": "2018-07-03T00:00:00", "search_state": "Bungoma County", "species": "FAW", "Year": 2018, "Month_of_year": 7, "YearMonth": "2018-07", "Week_of_year": 27, "cluster": 3, "partition": 2 }, "geometry": { "type": "Point", "coordinates": [ 34.9971321, 0.8166174 ] } },
{ "type": "Feature", "properties": { "lat": -1.8041, "lon": 37.747555, "Date": "2019-08-23T00:00:00", "search_state": "Makueni", "species": "FAW", "Year": 2019, "Month_of_year": 8, "YearMonth": "2019-08", "Week_of_year": 34, "cluster": 8, "partition": 3 }, "geometry": { "type": "Point", "coordinates": [ 37.747555, -1.8041 ] } },
{ "type": "Feature", "properties": { "lat": 1.0998433, "lon": 34.8623674, "Date": "2018-07-13T00:00:00", "search_state": "Trans-Nzoia County", "species": "FAW", "Year": 2018, "Month_of_year": 7, "YearMonth": "2018-07", "Week_of_year": 28, "cluster": 3, "partition": 0 }, "geometry": { "type": "Point", "coordinates": [ 34.8623674, 1.0998433 ] } },
{ "type": "Feature", "properties": { "lat": 1.176886, "lon": 36.8757767, "Date": "2019-11-09T00:00:00", "search_state": "Samburu", "species": "FAW", "Year": 2019, "Month_of_year": 11, "YearMonth": "2019-11", "Week_of_year": 45, "cluster": 7, "partition": 1 }, "geometry": { "type": "Point", "coordinates": [ 36.8757767, 1.176886 ] } },
{ "type": "Feature", "properties": { "lat": -0.2756865, "lon": 36.0337715, "Date": "2018-06-14T00:00:00", "search_state": "Nakuru", "species": "FAW", "Year": 2018, "Month_of_year": 6, "YearMonth": "2018-06", "Week_of_year": 24, "cluster": 7, "partition": 4 }, "geometry": { "type": "Point", "coordinates": [ 36.0337715, -0.2756865 ] } },
{ "type": "Feature", "properties": { "lat": 0.1141122, "lon": 36.2246028, "Date": "2018-11-28T00:00:00", "search_state": "Nakuru", "species": "FAW", "Year": 2018, "Month_of_year": 11, "YearMonth": "2018-11", "Week_of_year": 48, "cluster": 7, "partition": 2 }, "geometry": { "type": "Point", "coordinates": [ 36.2246028, 0.1141122 ] } },
{ "type": "Feature", "properties": { "lat": 0.7521147, "lon": 34.6322457, "Date": "2017-04-12T00:00:00", "search_state": "Bungoma County", "species": "FAW", "Year": 2017, "Month_of_year": 4, "YearMonth": "2017-04", "Week_of_year": 15, "cluster": 3, "partition": 1 }, "geometry": { "type": "Point", "coordinates": [ 34.6322457, 0.7521147 ] } },
{ "type": "Feature", "properties": { "lat": -1.79007, "lon": 36.0595, "Date": "2017-05-04T00:00:00", "search_state": "Kajiado County", "species": "FAW", "Year": 2017, "Month_of_year": 5, "YearMonth": "2017-05", "Week_of_year": 18, "cluster": 1, "partition": 2 }, "geometry": { "type": "Point", "coordinates": [ 36.0595, -1.79007 ] } },
{ "type": "Feature", "properties": { "lat": 0.93371, "lon": 34.7689, "Date": "2017-05-04T00:00:00", "search_state": "Trans-Nzoia County", "species": "FAW", "Year": 2017, "Month_of_year": 5, "YearMonth": "2017-05", "Week_of_year": 18, "cluster": 3, "partition": 3 }, "geometry": { "type": "Point", "coordinates": [ 34.7689, 0.93371 ] } },
{ "type": "Feature", "properties": { "lat": -0.41337, "lon": 37.4569, "Date": "2017-05-16T00:00:00", "search_state": "Embu", "species": "FAW", "Year": 2017, "Month_of_year": 5, "YearMonth": "2017-05", "Week_of_year": 20, "cluster": 2, "partition": 4 }, "geometry": { "type": "Point", "coordinates": [ 37.4569, -0.41337 ] } },
{ "type": "Feature", "properties": { "lat": -0.15732, "lon": 36.105, "Date": "2017-05-23T00:00:00", "search_state": "Nakuru", "species": "FAW", "Year": 2017, "Month_of_year": 5, "YearMonth": "2017-05", "Week_of_year": 21, "cluster": 7, "partition": 3 }, "geometry": { "type": "Point", "coordinates": [ 36.105, -0.15732 ] } },
{ "type": "Feature", "properties": { "lat": -1.3114041, "lon": 36.8118104, "Date": "2017-06-08T00:00:00", "search_state": "Nairobi County", "species": "FAW", "Year": 2017, "Month_of_year": 6, "YearMonth": "2017-06", "Week_of_year": 23, "cluster": 1, "partition": 3 }, "geometry": { "type": "Point", "coordinates": [ 36.8118104, -1.3114041 ] } },
{ "type": "Feature", "properties": { "lat": -1.2003263, "lon": 36.6543959, "Date": "2017-06-13T00:00:00", "search_state": "Kiambu", "species": "FAW", "Year": 2017, "Month_of_year": 6, "YearMonth": "2017-06", "Week_of_year": 24, "cluster": 1, "partition": 3 }, "geometry": { "type": "Point", "coordinates": [ 36.6543959, -1.2003263 ] } },
{ "type": "Feature", "properties": { "lat": -1.28308, "lon": 36.7267, "Date": "2017-06-21T00:00:00", "search_state": "Nairobi County", "species": "FAW", "Year": 2017, "Month_of_year": 6, "YearMonth": "2017-06", "Week_of_year": 25, "cluster": 1, "partition": 1 }, "geometry": { "type": "Point", "coordinates": [ 36.7267, -1.28308 ] } },
{ "type": "Feature", "properties": { "lat": 1.02563, "lon": 35.27245, "Date": "2017-06-29T00:00:00", "search_state": "Trans-Nzoia County", "species": "FAW", "Year": 2017, "Month_of_year": 6, "YearMonth": "2017-06", "Week_of_year": 26, "cluster": 3, "partition": 3 }, "geometry": { "type": "Point", "coordinates": [ 35.27245, 1.02563 ] } },
{ "type": "Feature", "properties": { "lat": 1.2786379, "lon": 35.0912238, "Date": "2017-07-18T00:00:00", "search_state": "West Pokot", "species": "FAW", "Year": 2017, "Month_of_year": 7, "YearMonth": "2017-07", "Week_of_year": 29, "cluster": 3, "partition": 4 }, "geometry": { "type": "Point", "coordinates": [ 35.0912238, 1.2786379 ] } },
{ "type": "Feature", "properties": { "lat": -0.581825, "lon": 37.052063333333301, "Date": "2017-09-07T00:00:00", "search_state": "Nyeri", "species": "FAW", "Year": 2017, "Month_of_year": 9, "YearMonth": "2017-09", "Week_of_year": 36, "cluster": 2, "partition": 2 }, "geometry": { "type": "Point", "coordinates": [ 37.052063333333301, -0.581825 ] } },
{ "type": "Feature", "properties": { "lat": -1.4391589, "lon": 37.2440674, "Date": "2017-11-19T00:00:00", "search_state": "Machakos County", "species": "FAW", "Year": 2017, "Month_of_year": 11, "YearMonth": "2017-11", "Week_of_year": 46, "cluster": 8, "partition": 1 }, "geometry": { "type": "Point", "coordinates": [ 37.2440674, -1.4391589 ] } },
{ "type": "Feature", "properties": { "lat": -0.50537, "lon": 37.72824, "Date": "2017-11-22T00:00:00", "search_state": "Embu", "species": "FAW", "Year": 2017, "Month_of_year": 11, "YearMonth": "2017-11", "Week_of_year": 47, "cluster": 2, "partition": 4 }, "geometry": { "type": "Point", "coordinates": [ 37.72824, -0.50537 ] } },
{ "type": "Feature", "properties": { "lat": -1.5344537, "lon": 37.1616338, "Date": "2017-11-24T00:00:00", "search_state": "Machakos County", "species": "FAW", "Year": 2017, "Month_of_year": 11, "YearMonth": "2017-11", "Week_of_year": 47, "cluster": 8, "partition": 0 }, "geometry": { "type": "Point", "coordinates": [ 37.1616338, -1.5344537 ] } },
{ "type": "Feature", "properties": { "lat": -0.5258723, "lon": 37.077548, "Date": "2017-11-29T00:00:00", "search_state": "Nyeri", "species": "FAW", "Year": 2017, "Month_of_year": 11, "YearMonth": "2017-11", "Week_of_year": 48, "cluster": 2, "partition": 2 }, "geometry": { "type": "Point", "coordinates": [ 37.077548, -0.5258723 ] } },
{ "type": "Feature", "properties": { "lat": -1.23515, "lon": 37.47248, "Date": "2017-12-06T00:00:00", "search_state": "Machakos County", "species": "FAW", "Year": 2017, "Month_of_year": 12, "YearMonth": "2017-12", "Week_of_year": 49, "cluster": 8, "partition": 3 }, "geometry": { "type": "Point", "coordinates": [ 37.47248, -1.23515 ] } },
{ "type": "Feature", "properties": { "lat": -4.3741836, "lon": 39.4235019, "Date": "2018-01-10T00:00:00", "search_state": "Kwale", "species": "FAW", "Year": 2018, "Month_of_year": 1, "YearMonth": "2018-01", "Week_of_year": 2, "cluster": 5, "partition": 0 }, "geometry": { "type": "Point", "coordinates": [ 39.4235019, -4.3741836 ] } },
{ "type": "Feature", "properties": { "lat": -0.52697, "lon": 37.01729, "Date": "2018-01-25T00:00:00", "search_state": "Nyeri", "species": "FAW", "Year": 2018, "Month_of_year": 1, "YearMonth": "2018-01", "Week_of_year": 4, "cluster": 2, "partition": 1 }, "geometry": { "type": "Point", "coordinates": [ 37.01729, -0.52697 ] } },
{ "type": "Feature", "properties": { "lat": -2.929898, "lon": 37.5033104, "Date": "2018-02-08T00:00:00", "search_state": "Kajiado County", "species": "FAW", "Year": 2018, "Month_of_year": 2, "YearMonth": "2018-02", "Week_of_year": 6, "cluster": 6, "partition": 2 }, "geometry": { "type": "Point", "coordinates": [ 37.5033104, -2.929898 ] } },
{ "type": "Feature", "properties": { "lat": -0.2015921, "lon": 34.8190985, "Date": "2018-02-15T00:00:00", "search_state": "Kisumu County", "species": "FAW", "Year": 2018, "Month_of_year": 2, "YearMonth": "2018-02", "Week_of_year": 7, "cluster": 0, "partition": 2 }, "geometry": { "type": "Point", "coordinates": [ 34.8190985, -0.2015921 ] } },
{ "type": "Feature", "properties": { "lat": -0.6837526, "lon": 37.3598504, "Date": "2018-02-22T00:00:00", "search_state": "Kirinyaga County", "species": "FAW", "Year": 2018, "Month_of_year": 2, "YearMonth": "2018-02", "Week_of_year": 8, "cluster": 2, "partition": 0 }, "geometry": { "type": "Point", "coordinates": [ 37.3598504, -0.6837526 ] } },
{ "type": "Feature", "properties": { "lat": 0.1359984, "lon": 34.0804772, "Date": "2018-03-20T00:00:00", "search_state": "Busia County", "species": "FAW", "Year": 2018, "Month_of_year": 3, "YearMonth": "2018-03", "Week_of_year": 12, "cluster": 4, "partition": 0 }, "geometry": { "type": "Point", "coordinates": [ 34.0804772, 0.1359984 ] } },
{ "type": "Feature", "properties": { "lat": -0.57318, "lon": 37.32643, "Date": "2018-04-05T00:00:00", "search_state": "Kirinyaga County", "species": "FAW", "Year": 2018, "Month_of_year": 4, "YearMonth": "2018-04", "Week_of_year": 14, "cluster": 2, "partition": 3 }, "geometry": { "type": "Point", "coordinates": [ 37.32643, -0.57318 ] } },
{ "type": "Feature", "properties": { "lat": -0.335613, "lon": 37.82998, "Date": "2018-04-11T00:00:00", "search_state": "Tharaka-Nithi", "species": "FAW", "Year": 2018, "Month_of_year": 4, "YearMonth": "2018-04", "Week_of_year": 15, "cluster": 2, "partition": 3 }, "geometry": { "type": "Point", "coordinates": [ 37.82998, -0.335613 ] } },
{ "type": "Feature", "properties": { "lat": -0.6912151, "lon": 37.4880841, "Date": "2018-04-25T00:00:00", "search_state": "Embu", "species": "FAW", "Year": 2018, "Month_of_year": 4, "YearMonth": "2018-04", "Week_of_year": 17, "cluster": 2, "partition": 4 }, "geometry": { "type": "Point", "coordinates": [ 37.4880841, -0.6912151 ] } },
{ "type": "Feature", "properties": { "lat": -1.21993, "lon": 36.7134, "Date": "2018-04-26T00:00:00", "search_state": "Kiambu", "species": "FAW", "Year": 2018, "Month_of_year": 4, "YearMonth": "2018-04", "Week_of_year": 17, "cluster": 1, "partition": 2 }, "geometry": { "type": "Point", "coordinates": [ 36.7134, -1.21993 ] } },
{ "type": "Feature", "properties": { "lat": -0.418800298, "lon": 37.50348991, "Date": "2018-05-01T00:00:00", "search_state": "Embu", "species": "FAW", "Year": 2018, "Month_of_year": 5, "YearMonth": "2018-05", "Week_of_year": 18, "cluster": 2, "partition": 3 }, "geometry": { "type": "Point", "coordinates": [ 37.50348991, -0.418800298 ] } },
{ "type": "Feature", "properties": { "lat": -1.2721495, "lon": 36.6749358, "Date": "2018-05-09T00:00:00", "search_state": "Kiambu", "species": "FAW", "Year": 2018, "Month_of_year": 5, "YearMonth": "2018-05", "Week_of_year": 19, "cluster": 1, "partition": 0 }, "geometry": { "type": "Point", "coordinates": [ 36.6749358, -1.2721495 ] } },
{ "type": "Feature", "properties": { "lat": 0.721912, "lon": 34.7587144, "Date": "2018-05-11T00:00:00", "search_state": "Bungoma County", "species": "FAW", "Year": 2018, "Month_of_year": 5, "YearMonth": "2018-05", "Week_of_year": 19, "cluster": 3, "partition": 4 }, "geometry": { "type": "Point", "coordinates": [ 34.7587144, 0.721912 ] } },
{ "type": "Feature", "properties": { "lat": -0.035813, "lon": 36.198263, "Date": "2018-05-23T00:00:00", "search_state": "Nakuru", "species": "FAW", "Year": 2018, "Month_of_year": 5, "YearMonth": "2018-05", "Week_of_year": 21, "cluster": 7, "partition": 1 }, "geometry": { "type": "Point", "coordinates": [ 36.198263, -0.035813 ] } },
{ "type": "Feature", "properties": { "lat": -3.039685, "lon": 37.6842283, "Date": "2018-06-07T00:00:00", "search_state": "Kajiado County", "species": "FAW", "Year": 2018, "Month_of_year": 6, "YearMonth": "2018-06", "Week_of_year": 23, "cluster": 6, "partition": 1 }, "geometry": { "type": "Point", "coordinates": [ 37.6842283, -3.039685 ] } },
{ "type": "Feature", "properties": { "lat": -0.2656203, "lon": 36.18695, "Date": "2018-06-22T00:00:00", "search_state": "Nakuru", "species": "FAW", "Year": 2018, "Month_of_year": 6, "YearMonth": "2018-06", "Week_of_year": 25, "cluster": 7, "partition": 2 }, "geometry": { "type": "Point", "coordinates": [ 36.18695, -0.2656203 ] } },
{ "type": "Feature", "properties": { "lat": -0.5428893, "lon": 37.4663055, "Date": "2018-08-17T00:00:00", "search_state": "Embu", "species": "FAW", "Year": 2018, "Month_of_year": 8, "YearMonth": "2018-08", "Week_of_year": 33, "cluster": 2, "partition": 0 }, "geometry": { "type": "Point", "coordinates": [ 37.4663055, -0.5428893 ] } },
{ "type": "Feature", "properties": { "lat": -1.58253, "lon": 37.24501, "Date": "2018-08-30T00:00:00", "search_state": "Machakos County", "species": "FAW", "Year": 2018, "Month_of_year": 8, "YearMonth": "2018-08", "Week_of_year": 35, "cluster": 8, "partition": 0 }, "geometry": { "type": "Point", "coordinates": [ 37.24501, -1.58253 ] } },
{ "type": "Feature", "properties": { "lat": 0.3690245, "lon": 34.4907171, "Date": "2018-10-27T00:00:00", "search_state": "Kakamega County", "species": "FAW", "Year": 2018, "Month_of_year": 10, "YearMonth": "2018-10", "Week_of_year": 43, "cluster": 4, "partition": 2 }, "geometry": { "type": "Point", "coordinates": [ 34.4907171, 0.3690245 ] } },
{ "type": "Feature", "properties": { "lat": -4.3881297, "lon": 39.3554756, "Date": "2018-11-01T00:00:00", "search_state": "Kwale", "species": "FAW", "Year": 2018, "Month_of_year": 11, "YearMonth": "2018-11", "Week_of_year": 44, "cluster": 5, "partition": 2 }, "geometry": { "type": "Point", "coordinates": [ 39.3554756, -4.3881297 ] } },
{ "type": "Feature", "properties": { "lat": 0.00295, "lon": 36.2274, "Date": "2019-02-21T00:00:00", "search_state": "Nakuru", "species": "FAW", "Year": 2019, "Month_of_year": 2, "YearMonth": "2019-02", "Week_of_year": 8, "cluster": 7, "partition": 0 }, "geometry": { "type": "Point", "coordinates": [ 36.2274, 0.00295 ] } },
{ "type": "Feature", "properties": { "lat": -0.2704773, "lon": 34.9723436, "Date": "2019-03-21T00:00:00", "search_state": "Kisumu County", "species": "FAW", "Year": 2019, "Month_of_year": 3, "YearMonth": "2019-03", "Week_of_year": 12, "cluster": 0, "partition": 4 }, "geometry": { "type": "Point", "coordinates": [ 34.9723436, -0.2704773 ] } },
{ "type": "Feature", "properties": { "lat": -0.1122772, "lon": 34.9497189, "Date": "2019-04-17T00:00:00", "search_state": "Kisumu County", "species": "FAW", "Year": 2019, "Month_of_year": 4, "YearMonth": "2019-04", "Week_of_year": 16, "cluster": 0, "partition": 4 }, "geometry": { "type": "Point", "coordinates": [ 34.9497189, -0.1122772 ] } },
{ "type": "Feature", "properties": { "lat": -0.0832108, "lon": 34.7656422, "Date": "2019-04-25T00:00:00", "search_state": "Kisumu County", "species": "FAW", "Year": 2019, "Month_of_year": 4, "YearMonth": "2019-04", "Week_of_year": 17, "cluster": 0, "partition": 3 }, "geometry": { "type": "Point", "coordinates": [ 34.7656422, -0.0832108 ] } },
{ "type": "Feature", "properties": { "lat": -0.5692796, "lon": 36.9630065, "Date": "2019-06-03T00:00:00", "search_state": "Nyeri", "species": "FAW", "Year": 2019, "Month_of_year": 6, "YearMonth": "2019-06", "Week_of_year": 23, "cluster": 2, "partition": 0 }, "geometry": { "type": "Point", "coordinates": [ 36.9630065, -0.5692796 ] } },
{ "type": "Feature", "properties": { "lat": -1.4067127, "lon": 36.7758961, "Date": "2019-06-04T00:00:00", "search_state": "Kajiado County", "species": "FAW", "Year": 2019, "Month_of_year": 6, "YearMonth": "2019-06", "Week_of_year": 23, "cluster": 1, "partition": 2 }, "geometry": { "type": "Point", "coordinates": [ 36.7758961, -1.4067127 ] } },
{ "type": "Feature", "properties": { "lat": -1.460546, "lon": 36.6571219, "Date": "2019-06-24T00:00:00", "search_state": "Kajiado County", "species": "FAW", "Year": 2019, "Month_of_year": 6, "YearMonth": "2019-06", "Week_of_year": 26, "cluster": 1, "partition": 3 }, "geometry": { "type": "Point", "coordinates": [ 36.6571219, -1.460546 ] } },
{ "type": "Feature", "properties": { "lat": -0.2159, "lon": 36.1648, "Date": "2019-08-14T00:00:00", "search_state": "Nakuru", "species": "FAW", "Year": 2019, "Month_of_year": 8, "YearMonth": "2019-08", "Week_of_year": 33, "cluster": 7, "partition": 0 }, "geometry": { "type": "Point", "coordinates": [ 36.1648, -0.2159 ] } },
{ "type": "Feature", "properties": { "lat": -0.9189462, "lon": 34.526702, "Date": "2019-10-24T00:00:00", "search_state": "Migori County", "species": "FAW", "Year": 2019, "Month_of_year": 10, "YearMonth": "2019-10", "Week_of_year": 43, "cluster": 0, "partition": 0 }, "geometry": { "type": "Point", "coordinates": [ 34.526702, -0.9189462 ] } },
{ "type": "Feature", "properties": { "lat": -1.0651551, "lon": 34.4525769, "Date": "2019-10-01T00:00:00", "search_state": "Migori County", "species": "FAW", "Year": 2019, "Month_of_year": 10, "YearMonth": "2019-10", "Week_of_year": 40, "cluster": 0, "partition": 0 }, "geometry": { "type": "Point", "coordinates": [ 34.4525769, -1.0651551 ] } },
{ "type": "Feature", "properties": { "lat": 0.0535605, "lon": 34.2960365, "Date": "2019-07-30T00:00:00", "search_state": "Siaya County", "species": "FAW", "Year": 2019, "Month_of_year": 7, "YearMonth": "2019-07", "Week_of_year": 31, "cluster": 4, "partition": 0 }, "geometry": { "type": "Point", "coordinates": [ 34.2960365, 0.0535605 ] } },
{ "type": "Feature", "properties": { "lat": 0.9346573, "lon": 35.276148, "Date": "2019-06-26T00:00:00", "search_state": "Trans-Nzoia County", "species": "FAW", "Year": 2019, "Month_of_year": 6, "YearMonth": "2019-06", "Week_of_year": 26, "cluster": 3, "partition": 2 }, "geometry": { "type": "Point", "coordinates": [ 35.276148, 0.9346573 ] } },
{ "type": "Feature", "properties": { "lat": 1.02874, "lon": 35.12113, "Date": "2019-06-17T00:00:00", "search_state": "Trans-Nzoia County", "species": "FAW", "Year": 2019, "Month_of_year": 6, "YearMonth": "2019-06", "Week_of_year": 25, "cluster": 3, "partition": 0 }, "geometry": { "type": "Point", "coordinates": [ 35.12113, 1.02874 ] } },
{ "type": "Feature", "properties": { "lat": -1.1260291, "lon": 34.544012, "Date": "2019-06-04T00:00:00", "search_state": "Migori County", "species": "FAW", "Year": 2019, "Month_of_year": 6, "YearMonth": "2019-06", "Week_of_year": 23, "cluster": 0, "partition": 0 }, "geometry": { "type": "Point", "coordinates": [ 34.544012, -1.1260291 ] } },
{ "type": "Feature", "properties": { "lat": 0.1865098, "lon": 34.1957768, "Date": "2019-05-27T00:00:00", "search_state": "Siaya County", "species": "FAW", "Year": 2019, "Month_of_year": 5, "YearMonth": "2019-05", "Week_of_year": 22, "cluster": 4, "partition": 4 }, "geometry": { "type": "Point", "coordinates": [ 34.1957768, 0.1865098 ] } },
{ "type": "Feature", "properties": { "lat": 0.6426725, "lon": 34.9473893, "Date": "2019-05-22T00:00:00", "search_state": "Kakamega County", "species": "FAW", "Year": 2019, "Month_of_year": 5, "YearMonth": "2019-05", "Week_of_year": 21, "cluster": 3, "partition": 4 }, "geometry": { "type": "Point", "coordinates": [ 34.9473893, 0.6426725 ] } },
{ "type": "Feature", "properties": { "lat": 0.9366649, "lon": 34.8377534, "Date": "2019-05-23T00:00:00", "search_state": "Trans-Nzoia County", "species": "FAW", "Year": 2019, "Month_of_year": 5, "YearMonth": "2019-05", "Week_of_year": 21, "cluster": 3, "partition": 1 }, "geometry": { "type": "Point", "coordinates": [ 34.8377534, 0.9366649 ] } },
{ "type": "Feature", "properties": { "lat": -0.0978012, "lon": 34.2749779, "Date": "2019-05-15T00:00:00", "search_state": "Siaya County", "species": "FAW", "Year": 2019, "Month_of_year": 5, "YearMonth": "2019-05", "Week_of_year": 20, "cluster": 4, "partition": 4 }, "geometry": { "type": "Point", "coordinates": [ 34.2749779, -0.0978012 ] } },
{ "type": "Feature", "properties": { "lat": -2.998274871, "lon": 37.62601476, "Date": "2019-05-09T00:00:00", "search_state": "Kajiado County", "species": "FAW", "Year": 2019, "Month_of_year": 5, "YearMonth": "2019-05", "Week_of_year": 19, "cluster": 6, "partition": 0 }, "geometry": { "type": "Point", "coordinates": [ 37.62601476, -2.998274871 ] } },
{ "type": "Feature", "properties": { "lat": -1.1144871, "lon": 34.3291278, "Date": "2019-04-16T00:00:00", "search_state": "Migori County", "species": "FAW", "Year": 2019, "Month_of_year": 4, "YearMonth": "2019-04", "Week_of_year": 16, "cluster": 0, "partition": 1 }, "geometry": { "type": "Point", "coordinates": [ 34.3291278, -1.1144871 ] } },
{ "type": "Feature", "properties": { "lat": -0.96993428, "lon": 35.89853636, "Date": "2019-01-29T00:00:00", "search_state": "Narok", "species": "FAW", "Year": 2019, "Month_of_year": 1, "YearMonth": "2019-01", "Week_of_year": 5, "cluster": 9, "partition": 1 }, "geometry": { "type": "Point", "coordinates": [ 35.89853636, -0.96993428 ] } },
{ "type": "Feature", "properties": { "lat": -0.0671556, "lon": 34.8121986, "Date": "2019-01-11T00:00:00", "search_state": "Kisumu County", "species": "FAW", "Year": 2019, "Month_of_year": 1, "YearMonth": "2019-01", "Week_of_year": 2, "cluster": 0, "partition": 1 }, "geometry": { "type": "Point", "coordinates": [ 34.8121986, -0.0671556 ] } },
{ "type": "Feature", "properties": { "lat": -0.6801384, "lon": 37.6488487, "Date": "2018-12-31T00:00:00", "search_state": "Embu", "species": "FAW", "Year": 2018, "Month_of_year": 12, "YearMonth": "2018-12", "Week_of_year": 1, "cluster": 2, "partition": 0 }, "geometry": { "type": "Point", "coordinates": [ 37.6488487, -0.6801384 ] } },
{ "type": "Feature", "properties": { "lat": -0.1657188, "lon": 36.1655714, "Date": "2018-07-17T00:00:00", "search_state": "Nakuru", "species": "FAW", "Year": 2018, "Month_of_year": 7, "YearMonth": "2018-07", "Week_of_year": 29, "cluster": 7, "partition": 4 }, "geometry": { "type": "Point", "coordinates": [ 36.1655714, -0.1657188 ] } },
{ "type": "Feature", "properties": { "lat": -3.0726432, "lon": 37.7230122, "Date": "2018-07-05T00:00:00", "search_state": "Kajiado County", "species": "FAW", "Year": 2018, "Month_of_year": 7, "YearMonth": "2018-07", "Week_of_year": 27, "cluster": 6, "partition": 3 }, "geometry": { "type": "Point", "coordinates": [ 37.7230122, -3.0726432 ] } },
{ "type": "Feature", "properties": { "lat": -0.854850796, "lon": 35.66428712, "Date": "2018-06-27T00:00:00", "search_state": "Narok", "species": "FAW", "Year": 2018, "Month_of_year": 6, "YearMonth": "2018-06", "Week_of_year": 26, "cluster": 9, "partition": 3 }, "geometry": { "type": "Point", "coordinates": [ 35.66428712, -0.854850796 ] } },
{ "type": "Feature", "properties": { "lat": 0.0835315, "lon": 34.0517858, "Date": "2018-06-19T00:00:00", "search_state": "Busia County", "species": "FAW", "Year": 2018, "Month_of_year": 6, "YearMonth": "2018-06", "Week_of_year": 25, "cluster": 4, "partition": 2 }, "geometry": { "type": "Point", "coordinates": [ 34.0517858, 0.0835315 ] } },
{ "type": "Feature", "properties": { "lat": -3.176272, "lon": 37.733, "Date": "2018-06-08T00:00:00", "search_state": "Kajiado County", "species": "FAW", "Year": 2018, "Month_of_year": 6, "YearMonth": "2018-06", "Week_of_year": 23, "cluster": 6, "partition": 2 }, "geometry": { "type": "Point", "coordinates": [ 37.733, -3.176272 ] } },
{ "type": "Feature", "properties": { "lat": 0.6304007, "lon": 35.0537865, "Date": "2018-06-05T00:00:00", "search_state": "Uasin Gishu County", "species": "FAW", "Year": 2018, "Month_of_year": 6, "YearMonth": "2018-06", "Week_of_year": 23, "cluster": 3, "partition": 3 }, "geometry": { "type": "Point", "coordinates": [ 35.0537865, 0.6304007 ] } },
{ "type": "Feature", "properties": { "lat": -0.1713646, "lon": 34.9182488, "Date": "2018-05-29T00:00:00", "search_state": "Kisumu County", "species": "FAW", "Year": 2018, "Month_of_year": 5, "YearMonth": "2018-05", "Week_of_year": 22, "cluster": 0, "partition": 3 }, "geometry": { "type": "Point", "coordinates": [ 34.9182488, -0.1713646 ] } },
{ "type": "Feature", "properties": { "lat": -1.0868165, "lon": 35.8676958, "Date": "2018-05-29T00:00:00", "search_state": "Narok", "species": "FAW", "Year": 2018, "Month_of_year": 5, "YearMonth": "2018-05", "Week_of_year": 22, "cluster": 9, "partition": 1 }, "geometry": { "type": "Point", "coordinates": [ 35.8676958, -1.0868165 ] } },
{ "type": "Feature", "properties": { "lat": -2.894053569, "lon": 37.5884336, "Date": "2018-05-24T00:00:00", "search_state": "Kajiado County", "species": "FAW", "Year": 2018, "Month_of_year": 5, "YearMonth": "2018-05", "Week_of_year": 21, "cluster": 6, "partition": 0 }, "geometry": { "type": "Point", "coordinates": [ 37.5884336, -2.894053569 ] } },
{ "type": "Feature", "properties": { "lat": -0.4674532, "lon": 37.6911151, "Date": "2018-05-24T00:00:00", "search_state": "Embu", "species": "FAW", "Year": 2018, "Month_of_year": 5, "YearMonth": "2018-05", "Week_of_year": 21, "cluster": 2, "partition": 3 }, "geometry": { "type": "Point", "coordinates": [ 37.6911151, -0.4674532 ] } },
{ "type": "Feature", "properties": { "lat": -2.71889, "lon": 37.46388, "Date": "2018-05-23T00:00:00", "search_state": "Kajiado County", "species": "FAW", "Year": 2018, "Month_of_year": 5, "YearMonth": "2018-05", "Week_of_year": 21, "cluster": 6, "partition": 1 }, "geometry": { "type": "Point", "coordinates": [ 37.46388, -2.71889 ] } },
{ "type": "Feature", "properties": { "lat": 0.9743511, "lon": 34.9622034, "Date": "2018-05-20T00:00:00", "search_state": "Trans-Nzoia County", "species": "FAW", "Year": 2018, "Month_of_year": 5, "YearMonth": "2018-05", "Week_of_year": 20, "cluster": 3, "partition": 2 }, "geometry": { "type": "Point", "coordinates": [ 34.9622034, 0.9743511 ] } },
{ "type": "Feature", "properties": { "lat": 0.6314635, "lon": 35.0087176, "Date": "2018-05-16T00:00:00", "search_state": "Kakamega County", "species": "FAW", "Year": 2018, "Month_of_year": 5, "YearMonth": "2018-05", "Week_of_year": 20, "cluster": 3, "partition": 2 }, "geometry": { "type": "Point", "coordinates": [ 35.0087176, 0.6314635 ] } },
{ "type": "Feature", "properties": { "lat": 1.0209427, "lon": 34.9852756, "Date": "2018-05-07T00:00:00", "search_state": "Trans-Nzoia County", "species": "FAW", "Year": 2018, "Month_of_year": 5, "YearMonth": "2018-05", "Week_of_year": 19, "cluster": 3, "partition": 3 }, "geometry": { "type": "Point", "coordinates": [ 34.9852756, 1.0209427 ] } },
{ "type": "Feature", "properties": { "lat": -1.344176, "lon": 36.64176, "Date": "2018-05-07T00:00:00", "search_state": "Kajiado County", "species": "FAW", "Year": 2018, "Month_of_year": 5, "YearMonth": "2018-05", "Week_of_year": 19, "cluster": 1, "partition": 0 }, "geometry": { "type": "Point", "coordinates": [ 36.64176, -1.344176 ] } },
{ "type": "Feature", "properties": { "lat": -0.2925258, "lon": 36.1189362, "Date": "2018-05-03T00:00:00", "search_state": "Nakuru", "species": "FAW", "Year": 2018, "Month_of_year": 5, "YearMonth": "2018-05", "Week_of_year": 18, "cluster": 7, "partition": 4 }, "geometry": { "type": "Point", "coordinates": [ 36.1189362, -0.2925258 ] } },
{ "type": "Feature", "properties": { "lat": -1.3391864, "lon": 37.4432928, "Date": "2018-04-30T00:00:00", "search_state": "Machakos County", "species": "FAW", "Year": 2018, "Month_of_year": 4, "YearMonth": "2018-04", "Week_of_year": 18, "cluster": 8, "partition": 1 }, "geometry": { "type": "Point", "coordinates": [ 37.4432928, -1.3391864 ] } },
{ "type": "Feature", "properties": { "lat": -1.089464671, "lon": 35.95504539, "Date": "2018-04-26T00:00:00", "search_state": "Narok", "species": "FAW", "Year": 2018, "Month_of_year": 4, "YearMonth": "2018-04", "Week_of_year": 17, "cluster": 9, "partition": 2 }, "geometry": { "type": "Point", "coordinates": [ 35.95504539, -1.089464671 ] } },
{ "type": "Feature", "properties": { "lat": 1.238108, "lon": 35.14218, "Date": "2018-04-25T00:00:00", "search_state": "West Pokot", "species": "FAW", "Year": 2018, "Month_of_year": 4, "YearMonth": "2018-04", "Week_of_year": 17, "cluster": 3, "partition": 4 }, "geometry": { "type": "Point", "coordinates": [ 35.14218, 1.238108 ] } },
{ "type": "Feature", "properties": { "lat": 1.053395, "lon": 35.5888663, "Date": "2018-04-26T00:00:00", "search_state": "Elgeyo-Marakwet County", "species": "FAW", "Year": 2018, "Month_of_year": 4, "YearMonth": "2018-04", "Week_of_year": 17, "cluster": 3, "partition": 4 }, "geometry": { "type": "Point", "coordinates": [ 35.5888663, 1.053395 ] } },
{ "type": "Feature", "properties": { "lat": 0.77076, "lon": 34.75954, "Date": "2018-04-25T00:00:00", "search_state": "Bungoma County", "species": "FAW", "Year": 2018, "Month_of_year": 4, "YearMonth": "2018-04", "Week_of_year": 17, "cluster": 3, "partition": 2 }, "geometry": { "type": "Point", "coordinates": [ 34.75954, 0.77076 ] } },
{ "type": "Feature", "properties": { "lat": -0.605488, "lon": 37.46312, "Date": "2018-04-19T00:00:00", "search_state": "Kirinyaga County", "species": "FAW", "Year": 2018, "Month_of_year": 4, "YearMonth": "2018-04", "Week_of_year": 16, "cluster": 2, "partition": 3 }, "geometry": { "type": "Point", "coordinates": [ 37.46312, -0.605488 ] } },
{ "type": "Feature", "properties": { "lat": -0.381526441, "lon": 37.83991685, "Date": "2018-04-19T00:00:00", "search_state": "Tharaka-Nithi", "species": "FAW", "Year": 2018, "Month_of_year": 4, "YearMonth": "2018-04", "Week_of_year": 16, "cluster": 2, "partition": 0 }, "geometry": { "type": "Point", "coordinates": [ 37.83991685, -0.381526441 ] } },
{ "type": "Feature", "properties": { "lat": -1.2380939, "lon": 36.6000688, "Date": "2018-04-18T00:00:00", "search_state": "Kiambu", "species": "FAW", "Year": 2018, "Month_of_year": 4, "YearMonth": "2018-04", "Week_of_year": 16, "cluster": 1, "partition": 4 }, "geometry": { "type": "Point", "coordinates": [ 36.6000688, -1.2380939 ] } },
{ "type": "Feature", "properties": { "lat": 1.0124943, "lon": 35.3209552, "Date": "2018-04-17T00:00:00", "search_state": "Trans-Nzoia County", "species": "FAW", "Year": 2018, "Month_of_year": 4, "YearMonth": "2018-04", "Week_of_year": 16, "cluster": 3, "partition": 0 }, "geometry": { "type": "Point", "coordinates": [ 35.3209552, 1.0124943 ] } },
{ "type": "Feature", "properties": { "lat": -0.51003, "lon": 37.52088, "Date": "2018-04-16T00:00:00", "search_state": "Embu", "species": "FAW", "Year": 2018, "Month_of_year": 4, "YearMonth": "2018-04", "Week_of_year": 16, "cluster": 2, "partition": 0 }, "geometry": { "type": "Point", "coordinates": [ 37.52088, -0.51003 ] } },
{ "type": "Feature", "properties": { "lat": -1.46785, "lon": 37.30344, "Date": "2018-04-11T00:00:00", "search_state": "Machakos County", "species": "FAW", "Year": 2018, "Month_of_year": 4, "YearMonth": "2018-04", "Week_of_year": 15, "cluster": 8, "partition": 1 }, "geometry": { "type": "Point", "coordinates": [ 37.30344, -1.46785 ] } },
{ "type": "Feature", "properties": { "lat": -1.8546139, "lon": 36.7825261, "Date": "2018-04-10T00:00:00", "search_state": "Kajiado County", "species": "FAW", "Year": 2018, "Month_of_year": 4, "YearMonth": "2018-04", "Week_of_year": 15, "cluster": 1, "partition": 1 }, "geometry": { "type": "Point", "coordinates": [ 36.7825261, -1.8546139 ] } },
{ "type": "Feature", "properties": { "lat": -0.4791417, "lon": 37.4696401, "Date": "2018-04-06T00:00:00", "search_state": "Embu", "species": "FAW", "Year": 2018, "Month_of_year": 4, "YearMonth": "2018-04", "Week_of_year": 14, "cluster": 2, "partition": 2 }, "geometry": { "type": "Point", "coordinates": [ 37.4696401, -0.4791417 ] } },
{ "type": "Feature", "properties": { "lat": -0.1547748, "lon": 34.8391333, "Date": "2018-04-05T00:00:00", "search_state": "Kisumu County", "species": "FAW", "Year": 2018, "Month_of_year": 4, "YearMonth": "2018-04", "Week_of_year": 14, "cluster": 0, "partition": 3 }, "geometry": { "type": "Point", "coordinates": [ 34.8391333, -0.1547748 ] } },
{ "type": "Feature", "properties": { "lat": -1.372557, "lon": 37.3474926, "Date": "2018-04-03T00:00:00", "search_state": "Machakos County", "species": "FAW", "Year": 2018, "Month_of_year": 4, "YearMonth": "2018-04", "Week_of_year": 14, "cluster": 8, "partition": 2 }, "geometry": { "type": "Point", "coordinates": [ 37.3474926, -1.372557 ] } },
{ "type": "Feature", "properties": { "lat": -0.41188, "lon": 37.68892, "Date": "2018-03-23T00:00:00", "search_state": "Tharaka-Nithi", "species": "FAW", "Year": 2018, "Month_of_year": 3, "YearMonth": "2018-03", "Week_of_year": 12, "cluster": 2, "partition": 2 }, "geometry": { "type": "Point", "coordinates": [ 37.68892, -0.41188 ] } },
{ "type": "Feature", "properties": { "lat": -0.3973193, "lon": 37.5915767, "Date": "2018-03-20T00:00:00", "search_state": "Embu", "species": "FAW", "Year": 2018, "Month_of_year": 3, "YearMonth": "2018-03", "Week_of_year": 12, "cluster": 2, "partition": 1 }, "geometry": { "type": "Point", "coordinates": [ 37.5915767, -0.3973193 ] } },
{ "type": "Feature", "properties": { "lat": -0.6430817, "lon": 37.2372161, "Date": "2018-03-19T00:00:00", "search_state": "Kirinyaga County", "species": "FAW", "Year": 2018, "Month_of_year": 3, "YearMonth": "2018-03", "Week_of_year": 12, "cluster": 2, "partition": 0 }, "geometry": { "type": "Point", "coordinates": [ 37.2372161, -0.6430817 ] } },
{ "type": "Feature", "properties": { "lat": -0.5599069, "lon": 37.235621, "Date": "2018-03-19T00:00:00", "search_state": "Kirinyaga County", "species": "FAW", "Year": 2018, "Month_of_year": 3, "YearMonth": "2018-03", "Week_of_year": 12, "cluster": 2, "partition": 0 }, "geometry": { "type": "Point", "coordinates": [ 37.235621, -0.5599069 ] } },
{ "type": "Feature", "properties": { "lat": -0.63085, "lon": 37.112393, "Date": "2018-02-22T00:00:00", "search_state": "Nyeri", "species": "FAW", "Year": 2018, "Month_of_year": 2, "YearMonth": "2018-02", "Week_of_year": 8, "cluster": 2, "partition": 1 }, "geometry": { "type": "Point", "coordinates": [ 37.112393, -0.63085 ] } },
{ "type": "Feature", "properties": { "lat": 1.0580648, "lon": 35.2106801, "Date": "2018-02-08T00:00:00", "search_state": "Trans-Nzoia County", "species": "FAW", "Year": 2018, "Month_of_year": 2, "YearMonth": "2018-02", "Week_of_year": 6, "cluster": 3, "partition": 0 }, "geometry": { "type": "Point", "coordinates": [ 35.2106801, 1.0580648 ] } },
{ "type": "Feature", "properties": { "lat": -2.8119982, "lon": 37.4958208, "Date": "2018-01-25T00:00:00", "search_state": "Kajiado County", "species": "FAW", "Year": 2018, "Month_of_year": 1, "YearMonth": "2018-01", "Week_of_year": 4, "cluster": 6, "partition": 4 }, "geometry": { "type": "Point", "coordinates": [ 37.4958208, -2.8119982 ] } },
{ "type": "Feature", "properties": { "lat": -0.928184, "lon": 35.86498, "Date": "2018-01-24T00:00:00", "search_state": "Narok", "species": "FAW", "Year": 2018, "Month_of_year": 1, "YearMonth": "2018-01", "Week_of_year": 4, "cluster": 9, "partition": 4 }, "geometry": { "type": "Point", "coordinates": [ 35.86498, -0.928184 ] } },
{ "type": "Feature", "properties": { "lat": -1.2916052, "lon": 36.6095289, "Date": "2018-01-22T00:00:00", "search_state": "Kiambu", "species": "FAW", "Year": 2018, "Month_of_year": 1, "YearMonth": "2018-01", "Week_of_year": 4, "cluster": 1, "partition": 0 }, "geometry": { "type": "Point", "coordinates": [ 36.6095289, -1.2916052 ] } },
{ "type": "Feature", "properties": { "lat": -0.4487697, "lon": 37.4149686, "Date": "2017-12-30T00:00:00", "search_state": "Kirinyaga County", "species": "FAW", "Year": 2017, "Month_of_year": 12, "YearMonth": "2017-12", "Week_of_year": 52, "cluster": 2, "partition": 4 }, "geometry": { "type": "Point", "coordinates": [ 37.4149686, -0.4487697 ] } },
{ "type": "Feature", "properties": { "lat": 0.8097101, "lon": 35.0534424, "Date": "2017-12-22T00:00:00", "search_state": "Kakamega County", "species": "FAW", "Year": 2017, "Month_of_year": 12, "YearMonth": "2017-12", "Week_of_year": 51, "cluster": 3, "partition": 0 }, "geometry": { "type": "Point", "coordinates": [ 35.0534424, 0.8097101 ] } },
{ "type": "Feature", "properties": { "lat": -0.5522856, "lon": 37.4052552, "Date": "2017-12-21T00:00:00", "search_state": "Kirinyaga County", "species": "FAW", "Year": 2017, "Month_of_year": 12, "YearMonth": "2017-12", "Week_of_year": 51, "cluster": 2, "partition": 2 }, "geometry": { "type": "Point", "coordinates": [ 37.4052552, -0.5522856 ] } },
{ "type": "Feature", "properties": { "lat": -1.37581284, "lon": 37.25048533, "Date": "2017-12-11T00:00:00", "search_state": "Machakos County", "species": "FAW", "Year": 2017, "Month_of_year": 12, "YearMonth": "2017-12", "Week_of_year": 50, "cluster": 8, "partition": 1 }, "geometry": { "type": "Point", "coordinates": [ 37.25048533, -1.37581284 ] } },
{ "type": "Feature", "properties": { "lat": -1.3992183, "lon": 36.6844302, "Date": "2017-12-05T00:00:00", "search_state": "Kajiado County", "species": "FAW", "Year": 2017, "Month_of_year": 12, "YearMonth": "2017-12", "Week_of_year": 49, "cluster": 1, "partition": 0 }, "geometry": { "type": "Point", "coordinates": [ 36.6844302, -1.3992183 ] } },
{ "type": "Feature", "properties": { "lat": -1.4184771, "lon": 37.3244413, "Date": "2017-12-01T00:00:00", "search_state": "Machakos County", "species": "FAW", "Year": 2017, "Month_of_year": 12, "YearMonth": "2017-12", "Week_of_year": 48, "cluster": 8, "partition": 4 }, "geometry": { "type": "Point", "coordinates": [ 37.3244413, -1.4184771 ] } },
{ "type": "Feature", "properties": { "lat": -1.408468098, "lon": 37.48089637, "Date": "2017-11-21T00:00:00", "search_state": "Machakos County", "species": "FAW", "Year": 2017, "Month_of_year": 11, "YearMonth": "2017-11", "Week_of_year": 47, "cluster": 8, "partition": 0 }, "geometry": { "type": "Point", "coordinates": [ 37.48089637, -1.408468098 ] } },
{ "type": "Feature", "properties": { "lat": -0.4699266, "lon": 37.552953, "Date": "2017-11-21T00:00:00", "search_state": "Embu", "species": "FAW", "Year": 2017, "Month_of_year": 11, "YearMonth": "2017-11", "Week_of_year": 47, "cluster": 2, "partition": 3 }, "geometry": { "type": "Point", "coordinates": [ 37.552953, -0.4699266 ] } },
{ "type": "Feature", "properties": { "lat": -0.6682778, "lon": 37.2900174, "Date": "2017-11-06T00:00:00", "search_state": "Kirinyaga County", "species": "FAW", "Year": 2017, "Month_of_year": 11, "YearMonth": "2017-11", "Week_of_year": 45, "cluster": 2, "partition": 3 }, "geometry": { "type": "Point", "coordinates": [ 37.2900174, -0.6682778 ] } },
{ "type": "Feature", "properties": { "lat": -0.34158, "lon": 37.62088, "Date": "2017-11-01T00:00:00", "search_state": "Tharaka-Nithi", "species": "FAW", "Year": 2017, "Month_of_year": 11, "YearMonth": "2017-11", "Week_of_year": 44, "cluster": 2, "partition": 1 }, "geometry": { "type": "Point", "coordinates": [ 37.62088, -0.34158 ] } },
{ "type": "Feature", "properties": { "lat": -0.6232172, "lon": 37.300714, "Date": "2017-10-30T00:00:00", "search_state": "Kirinyaga County", "species": "FAW", "Year": 2017, "Month_of_year": 10, "YearMonth": "2017-10", "Week_of_year": 44, "cluster": 2, "partition": 1 }, "geometry": { "type": "Point", "coordinates": [ 37.300714, -0.6232172 ] } },
{ "type": "Feature", "properties": { "lat": -1.0009869, "lon": 35.6131361, "Date": "2017-10-18T00:00:00", "search_state": "Narok", "species": "FAW", "Year": 2017, "Month_of_year": 10, "YearMonth": "2017-10", "Week_of_year": 42, "cluster": 9, "partition": 1 }, "geometry": { "type": "Point", "coordinates": [ 35.6131361, -1.0009869 ] } },
{ "type": "Feature", "properties": { "lat": -0.6328785, "lon": 37.3611863, "Date": "2017-10-17T00:00:00", "search_state": "Kirinyaga County", "species": "FAW", "Year": 2017, "Month_of_year": 10, "YearMonth": "2017-10", "Week_of_year": 42, "cluster": 2, "partition": 2 }, "geometry": { "type": "Point", "coordinates": [ 37.3611863, -0.6328785 ] } },
{ "type": "Feature", "properties": { "lat": -0.2445108, "lon": 36.1128348, "Date": "2017-10-03T00:00:00", "search_state": "Nakuru", "species": "FAW", "Year": 2017, "Month_of_year": 10, "YearMonth": "2017-10", "Week_of_year": 40, "cluster": 7, "partition": 3 }, "geometry": { "type": "Point", "coordinates": [ 36.1128348, -0.2445108 ] } },
{ "type": "Feature", "properties": { "lat": -0.6263643, "lon": 37.0298186, "Date": "2017-08-31T00:00:00", "search_state": "Murang'a County", "species": "FAW", "Year": 2017, "Month_of_year": 8, "YearMonth": "2017-08", "Week_of_year": 35, "cluster": 2, "partition": 1 }, "geometry": { "type": "Point", "coordinates": [ 37.0298186, -0.6263643 ] } },
{ "type": "Feature", "properties": { "lat": -0.115301, "lon": 36.2225, "Date": "2017-08-28T00:00:00", "search_state": "Nyandarua", "species": "FAW", "Year": 2017, "Month_of_year": 8, "YearMonth": "2017-08", "Week_of_year": 35, "cluster": 7, "partition": 4 }, "geometry": { "type": "Point", "coordinates": [ 36.2225, -0.115301 ] } },
{ "type": "Feature", "properties": { "lat": -0.07661, "lon": 36.16851, "Date": "2017-07-19T00:00:00", "search_state": "Nakuru", "species": "FAW", "Year": 2017, "Month_of_year": 7, "YearMonth": "2017-07", "Week_of_year": 29, "cluster": 7, "partition": 0 }, "geometry": { "type": "Point", "coordinates": [ 36.16851, -0.07661 ] } },
{ "type": "Feature", "properties": { "lat": 1.0145792, "lon": 35.1967382, "Date": "2017-07-14T00:00:00", "search_state": "Trans-Nzoia County", "species": "FAW", "Year": 2017, "Month_of_year": 7, "YearMonth": "2017-07", "Week_of_year": 28, "cluster": 3, "partition": 4 }, "geometry": { "type": "Point", "coordinates": [ 35.1967382, 1.0145792 ] } },
{ "type": "Feature", "properties": { "lat": 1.1317697, "lon": 35.1038775, "Date": "2017-06-21T00:00:00", "search_state": "Trans-Nzoia County", "species": "FAW", "Year": 2017, "Month_of_year": 6, "YearMonth": "2017-06", "Week_of_year": 25, "cluster": 3, "partition": 1 }, "geometry": { "type": "Point", "coordinates": [ 35.1038775, 1.1317697 ] } },
{ "type": "Feature", "properties": { "lat": -0.25462, "lon": 36.23458, "Date": "2017-06-07T00:00:00", "search_state": "Nakuru", "species": "FAW", "Year": 2017, "Month_of_year": 6, "YearMonth": "2017-06", "Week_of_year": 23, "cluster": 7, "partition": 3 }, "geometry": { "type": "Point", "coordinates": [ 36.23458, -0.25462 ] } },
{ "type": "Feature", "properties": { "lat": 0.0602005, "lon": 36.2184913, "Date": "2017-06-02T00:00:00", "search_state": "Nakuru", "species": "FAW", "Year": 2017, "Month_of_year": 6, "YearMonth": "2017-06", "Week_of_year": 22, "cluster": 7, "partition": 3 }, "geometry": { "type": "Point", "coordinates": [ 36.2184913, 0.0602005 ] } },
{ "type": "Feature", "properties": { "lat": 0.99319, "lon": 34.87029, "Date": "2017-05-31T00:00:00", "search_state": "Trans-Nzoia County", "species": "FAW", "Year": 2017, "Month_of_year": 5, "YearMonth": "2017-05", "Week_of_year": 22, "cluster": 3, "partition": 0 }, "geometry": { "type": "Point", "coordinates": [ 34.87029, 0.99319 ] } },
{ "type": "Feature", "properties": { "lat": 0.95475, "lon": 35.61245, "Date": "2017-05-18T00:00:00", "search_state": "Elgeyo-Marakwet County", "species": "FAW", "Year": 2017, "Month_of_year": 5, "YearMonth": "2017-05", "Week_of_year": 20, "cluster": 3, "partition": 1 }, "geometry": { "type": "Point", "coordinates": [ 35.61245, 0.95475 ] } },
{ "type": "Feature", "properties": { "lat": 1.20277813, "lon": 35.10882195, "Date": "2017-05-02T00:00:00", "search_state": "West Pokot", "species": "FAW", "Year": 2017, "Month_of_year": 5, "YearMonth": "2017-05", "Week_of_year": 18, "cluster": 3, "partition": 3 }, "geometry": { "type": "Point", "coordinates": [ 35.10882195, 1.20277813 ] } },
{ "type": "Feature", "properties": { "lat": 0.08633, "lon": 34.234243, "Date": "2017-04-21T00:00:00", "search_state": "Siaya County", "species": "FAW", "Year": 2017, "Month_of_year": 4, "YearMonth": "2017-04", "Week_of_year": 16, "cluster": 4, "partition": 4 }, "geometry": { "type": "Point", "coordinates": [ 34.234243, 0.08633 ] } },
{ "type": "Feature", "properties": { "lat": 0.79611, "lon": 34.665526, "Date": "2017-04-12T00:00:00", "search_state": "Bungoma County", "species": "FAW", "Year": 2017, "Month_of_year": 4, "YearMonth": "2017-04", "Week_of_year": 15, "cluster": 3, "partition": 3 }, "geometry": { "type": "Point", "coordinates": [ 34.665526, 0.79611 ] } },
{ "type": "Feature", "properties": { "lat": 0.73706324, "lon": 34.68771768, "Date": "2017-04-12T00:00:00", "search_state": "Bungoma County", "species": "FAW", "Year": 2017, "Month_of_year": 4, "YearMonth": "2017-04", "Week_of_year": 15, "cluster": 3, "partition": 3 }, "geometry": { "type": "Point", "coordinates": [ 34.68771768, 0.73706324 ] } },
{ "type": "Feature", "properties": { "lat": 0.7932692, "lon": 34.7163129, "Date": "2017-04-10T00:00:00", "search_state": "Bungoma County", "species": "FAW", "Year": 2017, "Month_of_year": 4, "YearMonth": "2017-04", "Week_of_year": 15, "cluster": 3, "partition": 1 }, "geometry": { "type": "Point", "coordinates": [ 34.7163129, 0.7932692 ] } },
{ "type": "Feature", "properties": { "lat": 0.81863313, "lon": 34.75862115, "Date": "2017-04-03T00:00:00", "search_state": "Bungoma County", "species": "FAW", "Year": 2017, "Month_of_year": 4, "YearMonth": "2017-04", "Week_of_year": 14, "cluster": 3, "partition": 0 }, "geometry": { "type": "Point", "coordinates": [ 34.75862115, 0.81863313 ] } }
]
}
