{
"type": "FeatureCollection",
"name": "early_thinned_9km_partition",
"crs": { "type": "name", "properties": { "name": "urn:ogc:def:crs:OGC:1.3:CRS84" } },
"features": [
{ "type": "Feature", "properties": { "lat": 0.487762, "lon": 34.23994, "Date": "2019-10-17T00:00:00", "search_state": "Busia County", "species": "FAW", "Year": 2019, "Month_of_year": 10, "YearMonth": "2019-10", "Week_of_year": 42, "cluster": 8, "partition": 3 }, "geometry": { "type": "Point", "coordinates": [ 34.23994, 0.487762 ] } },
{ "type": "Feature", "properties": { "lat": 0.645349, "lon": 34.28713, "Date": "2019-05-28T00:00:00", "search_state": "Busia County", "species": "FAW", "Year": 2019, "Month_of_year": 5, "YearMonth": "2019-05", "Week_of_year": 22, "cluster": 8, "partition": 2 }, "geometry": { "type": "Point", "coordinates": [ 34.28713, 0.645349 ] } },
{ "type": "Feature", "properties": { "lat": 0.277717, "lon": 36.379493, "Date": "2020-03-03T00:00:00", "search_state": "Laikipia County", "species": "FAW", "Year": 2020, "Month_of_year": 3, "YearMonth": "2020-03", "Week_of_year": 10, "cluster": 9, "partition": 2 }, "geometry": { "type": "Point", "coordinates": [ 36.379493, 0.277717 ] } },
{ "type": "Feature", "properties": { "lat": 1.563338, "lon": 35.383911, "Date": "2019-10-18T00:00:00", "search_state": "West Pokot", "species": "FAW", "Year": 2019, "Month_of_year": 10, "YearMonth": "2019-10", "Week_of_year": 42, "cluster": 3, "partition": 0 }, "geometry": { "type": "Point", "coordinates": [ 35.383911, 1.563338 ] } },
{ "type": "Feature", "properties": { "lat": 0.4831488, "lon": 37.6090933, "Date": "2019-05-08T00:00:00", "search_state": "Meru County", "species": "FAW", "Year": 2019, "Month_of_year": 5, "YearMonth": "2019-05", "Week_of_year": 19, "cluster": 5, "partition": 3 }, "geometry": { "type": "Point", "coordinates": [ 37.6090933, 0.4831488 ] } },
{ "type": "Feature", "properties": { "lat": 0.2846143, "lon": 34.7535775, "Date": "2018-04-05T00:00:00", "search_state": "Kakamega County", "species": "FAW", "Year": 2018, "Month_of_year": 4, "YearMonth": "2018-04", "Week_of_year": 14, "cluster": 8, "partition": 4 }, "geometry": { "type": "Point", "coordinates": [ 34.7535775, 0.2846143 ] } },
{ "type": "Feature", "properties": { "lat": 0.59965185, "lon": 34.62075094, "Date": "2019-03-26T00:00:00", "search_state": "Bungoma County", "species": "FAW", "Year": 2019, "Month_of_year": 3, "YearMonth": "2019-03", "Week_of_year": 13, "cluster": 8, "partition": 0 }, "geometry": { "type": "Point", "coordinates": [ 34.62075094, 0.59965185 ] } },
{ "type": "Feature", "properties": { "lat": 0.4488162, "lon": 34.8515518, "Date": "2018-04-17T00:00:00", "search_state": "Kakamega County", "species": "FAW", "Year": 2018, "Month_of_year": 4, "YearMonth": "2018-04", "Week_of_year": 16, "cluster": 8, "partition": 0 }, "geometry": { "type": "Point", "coordinates": [ 34.8515518, 0.4488162 ] } },
{ "type": "Feature", "properties": { "lat": 0.4708033, "lon": 35.9860467, "Date": "2019-02-15T00:00:00", "search_state": "Baringo", "species": "FAW", "Year": 2019, "Month_of_year": 2, "YearMonth": "2019-02", "Week_of_year": 7, "cluster": 9, "partition": 0 }, "geometry": { "type": "Point", "coordinates": [ 35.9860467, 0.4708033 ] } },
{ "type": "Feature", "properties": { "lat": -3.214996, "lon": 40.093899, "Date": "2020-07-14T00:00:00", "search_state": "Kilifi County", "species": "FAW", "Year": 2020, "Month_of_year": 7, "YearMonth": "2020-07", "Week_of_year": 29, "cluster": 6, "partition": 1 }, "geometry": { "type": "Point", "coordinates": [ 40.093899, -3.214996 ] } },
{ "type": "Feature", "properties": { "lat": 0.7, "lon": 35.7, "Date": "2018-07-03T00:00:00", "search_state": "Baringo", "species": "FAW", "Year": 2018, "Month_of_year": 7, "YearMonth": "2018-07", "Week_of_year": 27, "cluster": 3, "partition": 2 }, "geometry": { "type": "Point", "coordinates": [ 35.7, 0.7 ] } },
{ "type": "Feature", "properties": { "lat": -1.269808, "lon": 36.811119, "Date": "2019-09-05T00:00:00", "search_state": "Nairobi County", "species": "FAW", "Year": 2019, "Month_of_year": 9, "YearMonth": "2019-09", "Week_of_year": 36, "cluster": 7, "partition": 3 }, "geometry": { "type": "Point", "coordinates": [ 36.811119, -1.269808 ] } },
{ "type": "Feature", "properties": { "lat": 0.1491604, "lon": 36.2727669, "Date": "2018-06-18T00:00:00", "search_state": "Nakuru", "species": "FAW", "Year": 2018, "Month_of_year": 6, "YearMonth": "2018-06", "Week_of_year": 25, "cluster": 9, "partition": 1 }, "geometry": { "type": "Point", "coordinates": [ 36.2727669, 0.1491604 ] } },
{ "type": "Feature", "properties": { "lat": 0.403789, "lon": 34.188478, "Date": "2019-05-27T00:00:00", "search_state": "Busia County", "species": "FAW", "Year": 2019, "Month_of_year": 5, "YearMonth": "2019-05", "Week_of_year": 22, "cluster": 8, "partition": 3 }, "geometry": { "type": "Point", "coordinates": [ 34.188478, 0.403789 ] } },
{ "type": "Feature", "properties": { "lat": 0.8774009, "lon": 34.8586339, "Date": "2018-06-26T00:00:00", "search_state": "Trans-Nzoia County", "species": "FAW", "Year": 2018, "Month_of_year": 6, "YearMonth": "2018-06", "Week_of_year": 26, "cluster": 3, "partition": 3 }, "geometry": { "type": "Point", "coordinates": [ 34.8586339, 0.8774009 ] } },
{ "type": "Feature", "properties": { "lat": -0.8754993, "lon": 35.2838259, "Date": "2018-12-14T00:00:00", "search_state": "Bomet", "species": "FAW", "Year": 2018, "Month_of_year": 12, "YearMonth": "2018-12", "Week_of_year": 50, "cluster": 2, "partition": 2 }, "geometry": { "type": "Point", "coordinates": [ 35.2838259, -0.8754993 ] } },
{ "type": "Feature", "properties": { "lat": -0.0869941, "lon": 37.6630762, "Date": "2019-04-09T00:00:00", "search_state": "Meru County", "species": "FAW", "Year": 2019, "Month_of_year": 4, "YearMonth": "2019-04", "Week_of_year": 15, "cluster": 5, "partition": 2 }, "geometry": { "type": "Point", "coordinates": [ 37.6630762, -0.0869941 ] } },
{ "type": "Feature", "properties": { "lat": 0.709391, "lon": 34.381132, "Date": "2019-08-26T00:00:00", "search_state": "Busia County", "species": "FAW", "Year": 2019, "Month_of_year": 8, "YearMonth": "2019-08", "Week_of_year": 35, "cluster": 8, "partition": 2 }, "geometry": { "type": "Point", "coordinates": [ 34.381132, 0.709391 ] } },
{ "type": "Feature", "properties": { "lat": 0.208277, "lon": 34.122071, "Date": "2019-09-27T00:00:00", "search_state": "Siaya County", "species": "FAW", "Year": 2019, "Month_of_year": 9, "YearMonth": "2019-09", "Week_of_year": 39, "cluster": 8, "partition": 3 }, "geometry": { "type": "Point", "coordinates": [ 34.122071, 0.208277 ] } },
{ "type": "Feature", "properties": { "lat": 0.452256, "lon": 34.352027, "Date": "2019-05-16T00:00:00", "search_state": "Busia County", "species": "FAW", "Year": 2019, "Month_of_year": 5, "YearMonth": "2019-05", "Week_of_year": 20, "cluster": 8, "partition": 1 }, "geometry": { "type": "Point", "coordinates": [ 34.352027, 0.452256 ] } },
{ "type": "Feature", "properties": { "lat": 0.501564, "lon": 34.133764, "Date": "2019-11-09T00:00:00", "search_state": "Busia County", "species": "FAW", "Year": 2019, "Month_of_year": 11, "YearMonth": "2019-11", "Week_of_year": 45, "cluster": 8, "partition": 4 }, "geometry": { "type": "Point", "coordinates": [ 34.133764, 0.501564 ] } },
{ "type": "Feature", "properties": { "lat": 0.508951, "lon": 34.527066, "Date": "2020-06-15T00:00:00", "search_state": "Bungoma County", "species": "FAW", "Year": 2020, "Month_of_year": 6, "YearMonth": "2020-06", "Week_of_year": 25, "cluster": 8, "partition": 2 }, "geometry": { "type": "Point", "coordinates": [ 34.527066, 0.508951 ] } },
{ "type": "Feature", "properties": { "lat": 0.9661938, "lon": 35.0674217, "Date": "2018-07-07T00:00:00", "search_state": "Trans-Nzoia County", "species": "FAW", "Year": 2018, "Month_of_year": 7, "YearMonth": "2018-07", "Week_of_year": 27, "cluster": 3, "partition": 1 }, "geometry": { "type": "Point", "coordinates": [ 35.0674217, 0.9661938 ] } },
{ "type": "Feature", "properties": { "lat": 0.602451, "lon": 34.415491, "Date": "2019-12-04T00:00:00", "search_state": "Bungoma County", "species": "FAW", "Year": 2019, "Month_of_year": 12, "YearMonth": "2019-12", "Week_of_year": 49, "cluster": 8, "partition": 4 }, "geometry": { "type": "Point", "coordinates": [ 34.415491, 0.602451 ] } },
{ "type": "Feature", "properties": { "lat": 0.308899, "lon": 34.207244, "Date": "2019-11-12T00:00:00", "search_state": "Busia County", "species": "FAW", "Year": 2019, "Month_of_year": 11, "YearMonth": "2019-11", "Week_of_year": 46, "cluster": 8, "partition": 4 }, "geometry": { "type": "Point", "coordinates": [ 34.207244, 0.308899 ] } },
{ "type": "Feature", "properties": { "lat": -0.70953333333333335, "lon": 35.06756, "Date": "2018-06-10T00:00:00", "search_state": "Bomet", "species": "FAW", "Year": 2018, "Month_of_year": 6, "YearMonth": "2018-06", "Week_of_year": 23, "cluster": 0, "partition": 3 }, "geometry": { "type": "Point", "coordinates": [ 35.06756, -0.709533333333333 ] } },
{ "type": "Feature", "properties": { "lat": -0.384357, "lon": 38.569486, "Date": "2019-09-13T00:00:00", "search_state": "Kitui County", "species": "FAW", "Year": 2019, "Month_of_year": 9, "YearMonth": "2019-09", "Week_of_year": 37, "cluster": 5, "partition": 1 }, "geometry": { "type": "Point", "coordinates": [ 38.569486, -0.384357 ] } },
{ "type": "Feature", "properties": { "lat": 1.0972986, "lon": 34.779357, "Date": "2018-07-06T00:00:00", "search_state": "Trans-Nzoia County", "species": "FAW", "Year": 2018, "Month_of_year": 7, "YearMonth": "2018-07", "Week_of_year": 27, "cluster": 3, "partition": 2 }, "geometry": { "type": "Point", "coordinates": [ 34.779357, 1.0972986 ] } },
{ "type": "Feature", "properties": { "lat": -0.4473161, "lon": 36.9847058, "Date": "2018-04-26T00:00:00", "search_state": "Nyeri", "species": "FAW", "Year": 2018, "Month_of_year": 4, "YearMonth": "2018-04", "Week_of_year": 17, "cluster": 5, "partition": 1 }, "geometry": { "type": "Point", "coordinates": [ 36.9847058, -0.4473161 ] } },
{ "type": "Feature", "properties": { "lat": 0.8220324, "lon": 34.9225785, "Date": "2018-07-14T00:00:00", "search_state": "Bungoma County", "species": "FAW", "Year": 2018, "Month_of_year": 7, "YearMonth": "2018-07", "Week_of_year": 28, "cluster": 3, "partition": 1 }, "geometry": { "type": "Point", "coordinates": [ 34.9225785, 0.8220324 ] } },
{ "type": "Feature", "properties": { "lat": -1.5683764, "lon": 37.078103, "Date": "2019-04-03T00:00:00", "search_state": "Machakos County", "species": "FAW", "Year": 2019, "Month_of_year": 4, "YearMonth": "2019-04", "Week_of_year": 14, "cluster": 1, "partition": 0 }, "geometry": { "type": "Point", "coordinates": [ 37.078103, -1.5683764 ] } },
{ "type": "Feature", "properties": { "lat": 0.583091, "lon": 34.205855, "Date": "2020-06-17T00:00:00", "search_state": "Busia County", "species": "FAW", "Year": 2020, "Month_of_year": 6, "YearMonth": "2020-06", "Week_of_year": 25, "cluster": 8, "partition": 0 }, "geometry": { "type": "Point", "coordinates": [ 34.205855, 0.583091 ] } },
{ "type": "Feature", "properties": { "lat": -1.168545, "lon": 36.7850683, "Date": "2019-11-22T00:00:00", "search_state": "Kiambu", "species": "FAW", "Year": 2019, "Month_of_year": 11, "YearMonth": "2019-11", "Week_of_year": 47, "cluster": 7, "partition": 1 }, "geometry": { "type": "Point", "coordinates": [ 36.7850683, -1.168545 ] } },
{ "type": "Feature", "properties": { "lat": 0.552766, "lon": 34.335819, "Date": "2019-05-25T00:00:00", "search_state": "Busia County", "species": "FAW", "Year": 2019, "Month_of_year": 5, "YearMonth": "2019-05", "Week_of_year": 21, "cluster": 8, "partition": 3 }, "geometry": { "type": "Point", "coordinates": [ 34.335819, 0.552766 ] } },
{ "type": "Feature", "properties": { "lat": 1.942783, "lon": 35.044426, "Date": "2020-11-09T00:00:00", "search_state": "West Pokot", "species": "FAW", "Year": 2020, "Month_of_year": 11, "YearMonth": "2020-11", "Week_of_year": 46, "cluster": 3, "partition": 1 }, "geometry": { "type": "Point", "coordinates": [ 35.044426, 1.942783 ] } },
{ "type": "Feature", "properties": { "lat": -1.2927264, "lon": 36.8890826, "Date": "2019-07-12T00:00:00", "search_state": "Nairobi County", "species": "FAW", "Year": 2019, "Month_of_year": 7, "YearMonth": "2019-07", "Week_of_year": 28, "cluster": 7, "partition": 1 }, "geometry": { "type": "Point", "coordinates": [ 36.8890826, -1.2927264 ] } },
{ "type": "Feature", "properties": { "lat": 0.8912187, "lon": 34.9882528, "Date": "2018-06-30T00:00:00", "search_state": "Trans-Nzoia County", "species": "FAW", "Year": 2018, "Month_of_year": 6, "YearMonth": "2018-06", "Week_of_year": 26, "cluster": 3, "partition": 0 }, "geometry": { "type": "Point", "coordinates": [ 34.9882528, 0.8912187 ] } },
{ "type": "Feature", "properties": { "lat": -0.8039876, "lon": 35.4818511, "Date": "2018-10-06T00:00:00", "search_state": "Bomet", "species": "FAW", "Year": 2018, "Month_of_year": 10, "YearMonth": "2018-10", "Week_of_year": 40, "cluster": 2, "partition": 4 }, "geometry": { "type": "Point", "coordinates": [ 35.4818511, -0.8039876 ] } },
{ "type": "Feature", "properties": { "lat": -1.370085, "lon": 38.00522, "Date": "2020-05-15T00:00:00", "search_state": "Kitui County", "species": "FAW", "Year": 2020, "Month_of_year": 5, "YearMonth": "2020-05", "Week_of_year": 20, "cluster": 1, "partition": 3 }, "geometry": { "type": "Point", "coordinates": [ 38.00522, -1.370085 ] } },
{ "type": "Feature", "properties": { "lat": -0.4105983, "lon": 35.6917062, "Date": "2018-07-18T00:00:00", "search_state": "Nakuru", "species": "FAW", "Year": 2018, "Month_of_year": 7, "YearMonth": "2018-07", "Week_of_year": 29, "cluster": 2, "partition": 1 }, "geometry": { "type": "Point", "coordinates": [ 35.6917062, -0.4105983 ] } },
{ "type": "Feature", "properties": { "lat": -0.83427, "lon": 35.3539973, "Date": "2018-09-07T00:00:00", "search_state": "Bomet", "species": "FAW", "Year": 2018, "Month_of_year": 9, "YearMonth": "2018-09", "Week_of_year": 36, "cluster": 2, "partition": 1 }, "geometry": { "type": "Point", "coordinates": [ 35.3539973, -0.83427 ] } },
{ "type": "Feature", "properties": { "lat": 0.354647, "lon": 34.120941, "Date": "2019-03-18T00:00:00", "search_state": "Busia County", "species": "FAW", "Year": 2019, "Month_of_year": 3, "YearMonth": "2019-03", "Week_of_year": 12, "cluster": 8, "partition": 2 }, "geometry": { "type": "Point", "coordinates": [ 34.120941, 0.354647 ] } },
{ "type": "Feature", "properties": { "lat": 0.055943, "lon": 37.755668, "Date": "2019-09-13T00:00:00", "search_state": "Meru County", "species": "FAW", "Year": 2019, "Month_of_year": 9, "YearMonth": "2019-09", "Week_of_year": 37, "cluster": 5, "partition": 0 }, "geometry": { "type": "Point", "coordinates": [ 37.755668, 0.055943 ] } },
{ "type": "Feature", "properties": { "lat": 0.71728245, "lon": 34.71385447, "Date": "2019-09-16T00:00:00", "search_state": "Bungoma County", "species": "FAW", "Year": 2019, "Month_of_year": 9, "YearMonth": "2019-09", "Week_of_year": 38, "cluster": 8, "partition": 1 }, "geometry": { "type": "Point", "coordinates": [ 34.71385447, 0.71728245 ] } },
{ "type": "Feature", "properties": { "lat": -0.937231, "lon": 35.4209081, "Date": "2018-07-28T00:00:00", "search_state": "Bomet", "species": "FAW", "Year": 2018, "Month_of_year": 7, "YearMonth": "2018-07", "Week_of_year": 30, "cluster": 2, "partition": 3 }, "geometry": { "type": "Point", "coordinates": [ 35.4209081, -0.937231 ] } },
{ "type": "Feature", "properties": { "lat": -1.828845, "lon": 37.5972417, "Date": "2019-08-05T00:00:00", "search_state": "Makueni", "species": "FAW", "Year": 2019, "Month_of_year": 8, "YearMonth": "2019-08", "Week_of_year": 32, "cluster": 1, "partition": 1 }, "geometry": { "type": "Point", "coordinates": [ 37.5972417, -1.828845 ] } },
{ "type": "Feature", "properties": { "lat": -0.3880489, "lon": 34.64395, "Date": "2020-02-25T00:00:00", "search_state": "Homa Bay County", "species": "FAW", "Year": 2020, "Month_of_year": 2, "YearMonth": "2020-02", "Week_of_year": 9, "cluster": 0, "partition": 1 }, "geometry": { "type": "Point", "coordinates": [ 34.64395, -0.3880489 ] } },
{ "type": "Feature", "properties": { "lat": 0.1411326, "lon": 34.36188958, "Date": "2019-08-16T00:00:00", "search_state": "Siaya County", "species": "FAW", "Year": 2019, "Month_of_year": 8, "YearMonth": "2019-08", "Week_of_year": 33, "cluster": 8, "partition": 1 }, "geometry": { "type": "Point", "coordinates": [ 34.36188958, 0.1411326 ] } },
{ "type": "Feature", "properties": { "lat": -1.176886, "lon": 36.8757767, "Date": "2019-10-19T00:00:00", "search_state": "Kiambu", "species": "FAW", "Year": 2019, "Month_of_year": 10, "YearMonth": "2019-10", "Week_of_year": 42, "cluster": 7, "partition": 2 }, "geometry": { "type": "Point", "coordinates": [ 36.8757767, -1.176886 ] } },
{ "type": "Feature", "properties": { "lat": 0.07726249, "lon": 34.8147082, "Date": "2018-12-14T00:00:00", "search_state": "Vihiga County", "species": "FAW", "Year": 2018, "Month_of_year": 12, "YearMonth": "2018-12", "Week_of_year": 50, "cluster": 8, "partition": 0 }, "geometry": { "type": "Point", "coordinates": [ 34.8147082, 0.07726249 ] } },
{ "type": "Feature", "properties": { "lat": -1.8041, "lon": 37.747555, "Date": "2019-08-23T00:00:00", "search_state": "Makueni", "species": "FAW", "Year": 2019, "Month_of_year": 8, "YearMonth": "2019-08", "Week_of_year": 34, "cluster": 1, "partition": 2 }, "geometry": { "type": "Point", "coordinates": [ 37.747555, -1.8041 ] } },
{ "type": "Feature", "properties": { "lat": 1.0998433, "lon": 34.8623674, "Date": "2018-07-13T00:00:00", "search_state": "Trans-Nzoia County", "species": "FAW", "Year": 2018, "Month_of_year": 7, "YearMonth": "2018-07", "Week_of_year": 28, "cluster": 3, "partition": 4 }, "geometry": { "type": "Point", "coordinates": [ 34.8623674, 1.0998433 ] } },
{ "type": "Feature", "properties": { "lat": 1.176886, "lon": 36.8757767, "Date": "2019-11-09T00:00:00", "search_state": "Samburu", "species": "FAW", "Year": 2019, "Month_of_year": 11, "YearMonth": "2019-11", "Week_of_year": 45, "cluster": 9, "partition": 0 }, "geometry": { "type": "Point", "coordinates": [ 36.8757767, 1.176886 ] } },
{ "type": "Feature", "properties": { "lat": -0.2756865, "lon": 36.0337715, "Date": "2018-06-14T00:00:00", "search_state": "Nakuru", "species": "FAW", "Year": 2018, "Month_of_year": 6, "YearMonth": "2018-06", "Week_of_year": 24, "cluster": 9, "partition": 2 }, "geometry": { "type": "Point", "coordinates": [ 36.0337715, -0.2756865 ] } },
{ "type": "Feature", "properties": { "lat": 0.0888136, "lon": 36.204225, "Date": "2018-06-24T00:00:00", "search_state": "Nakuru", "species": "FAW", "Year": 2018, "Month_of_year": 6, "YearMonth": "2018-06", "Week_of_year": 25, "cluster": 9, "partition": 1 }, "geometry": { "type": "Point", "coordinates": [ 36.204225, 0.0888136 ] } },
{ "type": "Feature", "properties": { "lat": 0.78174415684628196, "lon": 34.841001379876197, "Date": "2018-11-02T00:00:00", "search_state": "Bungoma County", "species": "FAW", "Year": 2018, "Month_of_year": 11, "YearMonth": "2018-11", "Week_of_year": 44, "cluster": 3, "partition": 0 }, "geometry": { "type": "Point", "coordinates": [ 34.841001379876197, 0.781744156846282 ] } },
{ "type": "Feature", "properties": { "lat": 0.791689, "lon": 35.470147, "Date": "2018-09-29T00:00:00", "search_state": "Uasin Gishu County", "species": "FAW", "Year": 2018, "Month_of_year": 9, "YearMonth": "2018-09", "Week_of_year": 39, "cluster": 3, "partition": 3 }, "geometry": { "type": "Point", "coordinates": [ 35.470147, 0.791689 ] } },
{ "type": "Feature", "properties": { "lat": 0.7521147, "lon": 34.6322457, "Date": "2017-04-12T00:00:00", "search_state": "Bungoma County", "species": "FAW", "Year": 2017, "Month_of_year": 4, "YearMonth": "2017-04", "Week_of_year": 15, "cluster": 8, "partition": 1 }, "geometry": { "type": "Point", "coordinates": [ 34.6322457, 0.7521147 ] } },
{ "type": "Feature", "properties": { "lat": 0.190729, "lon": 34.295948, "Date": "2017-04-26T00:00:00", "search_state": "Siaya County", "species": "FAW", "Year": 2017, "Month_of_year": 4, "YearMonth": "2017-04", "Week_of_year": 17, "cluster": 8, "partition": 2 }, "geometry": { "type": "Point", "coordinates": [ 34.295948, 0.190729 ] } },
{ "type": "Feature", "properties": { "lat": 0.93371, "lon": 34.7689, "Date": "2017-05-04T00:00:00", "search_state": "Trans-Nzoia County", "species": "FAW", "Year": 2017, "Month_of_year": 5, "YearMonth": "2017-05", "Week_of_year": 18, "cluster": 3, "partition": 0 }, "geometry": { "type": "Point", "coordinates": [ 34.7689, 0.93371 ] } },
{ "type": "Feature", "properties": { "lat": -0.41337, "lon": 37.4569, "Date": "2017-05-16T00:00:00", "search_state": "Embu", "species": "FAW", "Year": 2017, "Month_of_year": 5, "YearMonth": "2017-05", "Week_of_year": 20, "cluster": 5, "partition": 1 }, "geometry": { "type": "Point", "coordinates": [ 37.4569, -0.41337 ] } },
{ "type": "Feature", "properties": { "lat": 1.209044, "lon": 35.13701, "Date": "2017-05-16T00:00:00", "search_state": "West Pokot", "species": "FAW", "Year": 2017, "Month_of_year": 5, "YearMonth": "2017-05", "Week_of_year": 20, "cluster": 3, "partition": 4 }, "geometry": { "type": "Point", "coordinates": [ 35.13701, 1.209044 ] } },
{ "type": "Feature", "properties": { "lat": -1.2003263, "lon": 36.6543959, "Date": "2017-06-13T00:00:00", "search_state": "Kiambu", "species": "FAW", "Year": 2017, "Month_of_year": 6, "YearMonth": "2017-06", "Week_of_year": 24, "cluster": 7, "partition": 0 }, "geometry": { "type": "Point", "coordinates": [ 36.6543959, -1.2003263 ] } },
{ "type": "Feature", "properties": { "lat": 1.1312688, "lon": 35.1028248, "Date": "2017-06-27T00:00:00", "search_state": "Trans-Nzoia County", "species": "FAW", "Year": 2017, "Month_of_year": 6, "YearMonth": "2017-06", "Week_of_year": 26, "cluster": 3, "partition": 3 }, "geometry": { "type": "Point", "coordinates": [ 35.1028248, 1.1312688 ] } },
{ "type": "Feature", "properties": { "lat": 1.2786379, "lon": 35.0912238, "Date": "2017-07-18T00:00:00", "search_state": "West Pokot", "species": "FAW", "Year": 2017, "Month_of_year": 7, "YearMonth": "2017-07", "Week_of_year": 29, "cluster": 3, "partition": 3 }, "geometry": { "type": "Point", "coordinates": [ 35.0912238, 1.2786379 ] } },
{ "type": "Feature", "properties": { "lat": -0.335613, "lon": 37.82998, "Date": "2017-11-06T00:00:00", "search_state": "Tharaka-Nithi", "species": "FAW", "Year": 2017, "Month_of_year": 11, "YearMonth": "2017-11", "Week_of_year": 45, "cluster": 5, "partition": 1 }, "geometry": { "type": "Point", "coordinates": [ 37.82998, -0.335613 ] } },
{ "type": "Feature", "properties": { "lat": -0.6511987, "lon": 37.1207202, "Date": "2017-11-16T00:00:00", "search_state": "Murang'a County", "species": "FAW", "Year": 2017, "Month_of_year": 11, "YearMonth": "2017-11", "Week_of_year": 46, "cluster": 5, "partition": 4 }, "geometry": { "type": "Point", "coordinates": [ 37.1207202, -0.6511987 ] } },
{ "type": "Feature", "properties": { "lat": -0.50537, "lon": 37.72824, "Date": "2017-11-22T00:00:00", "search_state": "Embu", "species": "FAW", "Year": 2017, "Month_of_year": 11, "YearMonth": "2017-11", "Week_of_year": 47, "cluster": 5, "partition": 4 }, "geometry": { "type": "Point", "coordinates": [ 37.72824, -0.50537 ] } },
{ "type": "Feature", "properties": { "lat": -1.5344537, "lon": 37.1616338, "Date": "2017-11-24T00:00:00", "search_state": "Machakos County", "species": "FAW", "Year": 2017, "Month_of_year": 11, "YearMonth": "2017-11", "Week_of_year": 47, "cluster": 1, "partition": 3 }, "geometry": { "type": "Point", "coordinates": [ 37.1616338, -1.5344537 ] } },
{ "type": "Feature", "properties": { "lat": -1.23515, "lon": 37.47248, "Date": "2017-12-06T00:00:00", "search_state": "Machakos County", "species": "FAW", "Year": 2017, "Month_of_year": 12, "YearMonth": "2017-12", "Week_of_year": 49, "cluster": 1, "partition": 0 }, "geometry": { "type": "Point", "coordinates": [ 37.47248, -1.23515 ] } },
{ "type": "Feature", "properties": { "lat": -1.58253, "lon": 37.24501, "Date": "2017-12-13T00:00:00", "search_state": "Machakos County", "species": "FAW", "Year": 2017, "Month_of_year": 12, "YearMonth": "2017-12", "Week_of_year": 50, "cluster": 1, "partition": 0 }, "geometry": { "type": "Point", "coordinates": [ 37.24501, -1.58253 ] } },
{ "type": "Feature", "properties": { "lat": -0.2015921, "lon": 34.8190985, "Date": "2018-02-15T00:00:00", "search_state": "Kisumu County", "species": "FAW", "Year": 2018, "Month_of_year": 2, "YearMonth": "2018-02", "Week_of_year": 7, "cluster": 0, "partition": 0 }, "geometry": { "type": "Point", "coordinates": [ 34.8190985, -0.2015921 ] } },
{ "type": "Feature", "properties": { "lat": -0.6837526, "lon": 37.3598504, "Date": "2018-02-22T00:00:00", "search_state": "Kirinyaga County", "species": "FAW", "Year": 2018, "Month_of_year": 2, "YearMonth": "2018-02", "Week_of_year": 8, "cluster": 5, "partition": 4 }, "geometry": { "type": "Point", "coordinates": [ 37.3598504, -0.6837526 ] } },
{ "type": "Feature", "properties": { "lat": -1.49538, "lon": 37.2663, "Date": "2018-03-07T00:00:00", "search_state": "Machakos County", "species": "FAW", "Year": 2018, "Month_of_year": 3, "YearMonth": "2018-03", "Week_of_year": 10, "cluster": 1, "partition": 4 }, "geometry": { "type": "Point", "coordinates": [ 37.2663, -1.49538 ] } },
{ "type": "Feature", "properties": { "lat": 0.1359984, "lon": 34.0804772, "Date": "2018-03-20T00:00:00", "search_state": "Busia County", "species": "FAW", "Year": 2018, "Month_of_year": 3, "YearMonth": "2018-03", "Week_of_year": 12, "cluster": 8, "partition": 4 }, "geometry": { "type": "Point", "coordinates": [ 34.0804772, 0.1359984 ] } },
{ "type": "Feature", "properties": { "lat": 0.81863313, "lon": 34.75862115, "Date": "2018-04-18T00:00:00", "search_state": "Bungoma County", "species": "FAW", "Year": 2018, "Month_of_year": 4, "YearMonth": "2018-04", "Week_of_year": 16, "cluster": 3, "partition": 4 }, "geometry": { "type": "Point", "coordinates": [ 34.75862115, 0.81863313 ] } },
{ "type": "Feature", "properties": { "lat": -0.115301, "lon": 36.2225, "Date": "2018-05-07T00:00:00", "search_state": "Nyandarua", "species": "FAW", "Year": 2018, "Month_of_year": 5, "YearMonth": "2018-05", "Week_of_year": 19, "cluster": 9, "partition": 0 }, "geometry": { "type": "Point", "coordinates": [ 36.2225, -0.115301 ] } },
{ "type": "Feature", "properties": { "lat": -0.4946665, "lon": 37.4401164, "Date": "2018-05-22T00:00:00", "search_state": "Embu", "species": "FAW", "Year": 2018, "Month_of_year": 5, "YearMonth": "2018-05", "Week_of_year": 21, "cluster": 5, "partition": 2 }, "geometry": { "type": "Point", "coordinates": [ 37.4401164, -0.4946665 ] } },
{ "type": "Feature", "properties": { "lat": -0.1563377, "lon": 36.1098091, "Date": "2018-05-22T00:00:00", "search_state": "Nakuru", "species": "FAW", "Year": 2018, "Month_of_year": 5, "YearMonth": "2018-05", "Week_of_year": 21, "cluster": 9, "partition": 3 }, "geometry": { "type": "Point", "coordinates": [ 36.1098091, -0.1563377 ] } },
{ "type": "Feature", "properties": { "lat": 0.3690245, "lon": 34.4907171, "Date": "2018-10-27T00:00:00", "search_state": "Kakamega County", "species": "FAW", "Year": 2018, "Month_of_year": 10, "YearMonth": "2018-10", "Week_of_year": 43, "cluster": 8, "partition": 3 }, "geometry": { "type": "Point", "coordinates": [ 34.4907171, 0.3690245 ] } },
{ "type": "Feature", "properties": { "lat": -1.3731049, "lon": 36.6716202, "Date": "2019-01-28T00:00:00", "search_state": "Kajiado County", "species": "FAW", "Year": 2019, "Month_of_year": 1, "YearMonth": "2019-01", "Week_of_year": 5, "cluster": 7, "partition": 2 }, "geometry": { "type": "Point", "coordinates": [ 36.6716202, -1.3731049 ] } },
{ "type": "Feature", "properties": { "lat": 0.0576734, "lon": 34.2881931, "Date": "2019-05-03T00:00:00", "search_state": "Siaya County", "species": "FAW", "Year": 2019, "Month_of_year": 5, "YearMonth": "2019-05", "Week_of_year": 18, "cluster": 8, "partition": 0 }, "geometry": { "type": "Point", "coordinates": [ 34.2881931, 0.0576734 ] } },
{ "type": "Feature", "properties": { "lat": -0.1169002, "lon": 34.9515237, "Date": "2019-05-15T00:00:00", "search_state": "Kisumu County", "species": "FAW", "Year": 2019, "Month_of_year": 5, "YearMonth": "2019-05", "Week_of_year": 20, "cluster": 0, "partition": 3 }, "geometry": { "type": "Point", "coordinates": [ 34.9515237, -0.1169002 ] } },
{ "type": "Feature", "properties": { "lat": -0.5692796, "lon": 36.9630065, "Date": "2019-06-03T00:00:00", "search_state": "Nyeri", "species": "FAW", "Year": 2019, "Month_of_year": 6, "YearMonth": "2019-06", "Week_of_year": 23, "cluster": 5, "partition": 4 }, "geometry": { "type": "Point", "coordinates": [ 36.9630065, -0.5692796 ] } },
{ "type": "Feature", "properties": { "lat": -1.460546, "lon": 36.6571219, "Date": "2019-06-24T00:00:00", "search_state": "Kajiado County", "species": "FAW", "Year": 2019, "Month_of_year": 6, "YearMonth": "2019-06", "Week_of_year": 26, "cluster": 7, "partition": 0 }, "geometry": { "type": "Point", "coordinates": [ 36.6571219, -1.460546 ] } },
{ "type": "Feature", "properties": { "lat": -0.2574188, "lon": 34.9659927, "Date": "2019-11-07T00:00:00", "search_state": "Kisumu County", "species": "FAW", "Year": 2019, "Month_of_year": 11, "YearMonth": "2019-11", "Week_of_year": 45, "cluster": 0, "partition": 2 }, "geometry": { "type": "Point", "coordinates": [ 34.9659927, -0.2574188 ] } },
{ "type": "Feature", "properties": { "lat": -0.9189462, "lon": 34.526702, "Date": "2019-10-24T00:00:00", "search_state": "Migori County", "species": "FAW", "Year": 2019, "Month_of_year": 10, "YearMonth": "2019-10", "Week_of_year": 43, "cluster": 0, "partition": 2 }, "geometry": { "type": "Point", "coordinates": [ 34.526702, -0.9189462 ] } },
{ "type": "Feature", "properties": { "lat": -1.0651551, "lon": 34.4525769, "Date": "2019-10-01T00:00:00", "search_state": "Migori County", "species": "FAW", "Year": 2019, "Month_of_year": 10, "YearMonth": "2019-10", "Week_of_year": 40, "cluster": 0, "partition": 4 }, "geometry": { "type": "Point", "coordinates": [ 34.4525769, -1.0651551 ] } },
{ "type": "Feature", "properties": { "lat": 1.02874, "lon": 35.12113, "Date": "2019-06-17T00:00:00", "search_state": "Trans-Nzoia County", "species": "FAW", "Year": 2019, "Month_of_year": 6, "YearMonth": "2019-06", "Week_of_year": 25, "cluster": 3, "partition": 3 }, "geometry": { "type": "Point", "coordinates": [ 35.12113, 1.02874 ] } },
{ "type": "Feature", "properties": { "lat": -1.1260291, "lon": 34.544012, "Date": "2019-06-04T00:00:00", "search_state": "Migori County", "species": "FAW", "Year": 2019, "Month_of_year": 6, "YearMonth": "2019-06", "Week_of_year": 23, "cluster": 0, "partition": 4 }, "geometry": { "type": "Point", "coordinates": [ 34.544012, -1.1260291 ] } },
{ "type": "Feature", "properties": { "lat": -1.1130074, "lon": 34.3280867, "Date": "2019-06-04T00:00:00", "search_state": "Migori County", "species": "FAW", "Year": 2019, "Month_of_year": 6, "YearMonth": "2019-06", "Week_of_year": 23, "cluster": 0, "partition": 0 }, "geometry": { "type": "Point", "coordinates": [ 34.3280867, -1.1130074 ] } },
{ "type": "Feature", "properties": { "lat": 0.6426725, "lon": 34.9473893, "Date": "2019-05-22T00:00:00", "search_state": "Kakamega County", "species": "FAW", "Year": 2019, "Month_of_year": 5, "YearMonth": "2019-05", "Week_of_year": 21, "cluster": 3, "partition": 0 }, "geometry": { "type": "Point", "coordinates": [ 34.9473893, 0.6426725 ] } },
{ "type": "Feature", "properties": { "lat": -0.0978012, "lon": 34.2749779, "Date": "2019-05-15T00:00:00", "search_state": "Siaya County", "species": "FAW", "Year": 2019, "Month_of_year": 5, "YearMonth": "2019-05", "Week_of_year": 20, "cluster": 8, "partition": 1 }, "geometry": { "type": "Point", "coordinates": [ 34.2749779, -0.0978012 ] } },
{ "type": "Feature", "properties": { "lat": -0.0671556, "lon": 34.8121986, "Date": "2019-01-11T00:00:00", "search_state": "Kisumu County", "species": "FAW", "Year": 2019, "Month_of_year": 1, "YearMonth": "2019-01", "Week_of_year": 2, "cluster": 0, "partition": 1 }, "geometry": { "type": "Point", "coordinates": [ 34.8121986, -0.0671556 ] } },
{ "type": "Feature", "properties": { "lat": -0.6801384, "lon": 37.6488487, "Date": "2018-12-31T00:00:00", "search_state": "Embu", "species": "FAW", "Year": 2018, "Month_of_year": 12, "YearMonth": "2018-12", "Week_of_year": 1, "cluster": 5, "partition": 2 }, "geometry": { "type": "Point", "coordinates": [ 37.6488487, -0.6801384 ] } },
{ "type": "Feature", "properties": { "lat": -0.6841866, "lon": 37.4943811, "Date": "2018-12-20T00:00:00", "search_state": "Embu", "species": "FAW", "Year": 2018, "Month_of_year": 12, "YearMonth": "2018-12", "Week_of_year": 51, "cluster": 5, "partition": 3 }, "geometry": { "type": "Point", "coordinates": [ 37.4943811, -0.6841866 ] } },
{ "type": "Feature", "properties": { "lat": -0.6061965, "lon": 37.4627258, "Date": "2018-11-15T00:00:00", "search_state": "Kirinyaga County", "species": "FAW", "Year": 2018, "Month_of_year": 11, "YearMonth": "2018-11", "Week_of_year": 46, "cluster": 5, "partition": 0 }, "geometry": { "type": "Point", "coordinates": [ 37.4627258, -0.6061965 ] } },
{ "type": "Feature", "properties": { "lat": -0.5690403, "lon": 37.3197166, "Date": "2018-10-15T00:00:00", "search_state": "Kirinyaga County", "species": "FAW", "Year": 2018, "Month_of_year": 10, "YearMonth": "2018-10", "Week_of_year": 42, "cluster": 5, "partition": 2 }, "geometry": { "type": "Point", "coordinates": [ 37.3197166, -0.5690403 ] } },
{ "type": "Feature", "properties": { "lat": 0.00295, "lon": 36.2274, "Date": "2018-07-10T00:00:00", "search_state": "Nakuru", "species": "FAW", "Year": 2018, "Month_of_year": 7, "YearMonth": "2018-07", "Week_of_year": 28, "cluster": 9, "partition": 3 }, "geometry": { "type": "Point", "coordinates": [ 36.2274, 0.00295 ] } },
{ "type": "Feature", "properties": { "lat": -1.32801, "lon": 37.44187, "Date": "2018-07-10T00:00:00", "search_state": "Machakos County", "species": "FAW", "Year": 2018, "Month_of_year": 7, "YearMonth": "2018-07", "Week_of_year": 28, "cluster": 1, "partition": 4 }, "geometry": { "type": "Point", "coordinates": [ 37.44187, -1.32801 ] } },
{ "type": "Feature", "properties": { "lat": -3.0536743, "lon": 37.7028323, "Date": "2018-07-05T00:00:00", "search_state": "Kajiado County", "species": "FAW", "Year": 2018, "Month_of_year": 7, "YearMonth": "2018-07", "Week_of_year": 27, "cluster": 4, "partition": 1 }, "geometry": { "type": "Point", "coordinates": [ 37.7028323, -3.0536743 ] } },
{ "type": "Feature", "properties": { "lat": -0.854850796, "lon": 35.66428712, "Date": "2018-06-27T00:00:00", "search_state": "Narok", "species": "FAW", "Year": 2018, "Month_of_year": 6, "YearMonth": "2018-06", "Week_of_year": 26, "cluster": 2, "partition": 0 }, "geometry": { "type": "Point", "coordinates": [ 35.66428712, -0.854850796 ] } },
{ "type": "Feature", "properties": { "lat": 1.0403029, "lon": 35.3212181, "Date": "2018-05-31T00:00:00", "search_state": "Elgeyo-Marakwet County", "species": "FAW", "Year": 2018, "Month_of_year": 5, "YearMonth": "2018-05", "Week_of_year": 22, "cluster": 3, "partition": 1 }, "geometry": { "type": "Point", "coordinates": [ 35.3212181, 1.0403029 ] } },
{ "type": "Feature", "properties": { "lat": -1.088047, "lon": 35.8670144, "Date": "2018-05-29T00:00:00", "search_state": "Narok", "species": "FAW", "Year": 2018, "Month_of_year": 5, "YearMonth": "2018-05", "Week_of_year": 22, "cluster": 2, "partition": 3 }, "geometry": { "type": "Point", "coordinates": [ 35.8670144, -1.088047 ] } },
{ "type": "Feature", "properties": { "lat": -2.71889, "lon": 37.46388, "Date": "2018-05-23T00:00:00", "search_state": "Kajiado County", "species": "FAW", "Year": 2018, "Month_of_year": 5, "YearMonth": "2018-05", "Week_of_year": 21, "cluster": 4, "partition": 0 }, "geometry": { "type": "Point", "coordinates": [ 37.46388, -2.71889 ] } },
{ "type": "Feature", "properties": { "lat": 0.9339255, "lon": 35.2699517, "Date": "2018-05-22T00:00:00", "search_state": "Uasin Gishu County", "species": "FAW", "Year": 2018, "Month_of_year": 5, "YearMonth": "2018-05", "Week_of_year": 21, "cluster": 3, "partition": 4 }, "geometry": { "type": "Point", "coordinates": [ 35.2699517, 0.9339255 ] } },
{ "type": "Feature", "properties": { "lat": 0.6306519, "lon": 35.0527542, "Date": "2018-05-15T00:00:00", "search_state": "Uasin Gishu County", "species": "FAW", "Year": 2018, "Month_of_year": 5, "YearMonth": "2018-05", "Week_of_year": 20, "cluster": 3, "partition": 4 }, "geometry": { "type": "Point", "coordinates": [ 35.0527542, 0.6306519 ] } },
{ "type": "Feature", "properties": { "lat": -0.2759394, "lon": 36.1536918, "Date": "2018-05-08T00:00:00", "search_state": "Nakuru", "species": "FAW", "Year": 2018, "Month_of_year": 5, "YearMonth": "2018-05", "Week_of_year": 19, "cluster": 9, "partition": 4 }, "geometry": { "type": "Point", "coordinates": [ 36.1536918, -0.2759394 ] } },
{ "type": "Feature", "properties": { "lat": -1.2912029, "lon": 36.6089476, "Date": "2018-05-07T00:00:00", "search_state": "Kiambu", "species": "FAW", "Year": 2018, "Month_of_year": 5, "YearMonth": "2018-05", "Week_of_year": 19, "cluster": 7, "partition": 4 }, "geometry": { "type": "Point", "coordinates": [ 36.6089476, -1.2912029 ] } },
{ "type": "Feature", "properties": { "lat": -0.25462, "lon": 36.23458, "Date": "2018-05-02T00:00:00", "search_state": "Nakuru", "species": "FAW", "Year": 2018, "Month_of_year": 5, "YearMonth": "2018-05", "Week_of_year": 18, "cluster": 9, "partition": 4 }, "geometry": { "type": "Point", "coordinates": [ 36.23458, -0.25462 ] } },
{ "type": "Feature", "properties": { "lat": 1.053395, "lon": 35.5888663, "Date": "2018-04-26T00:00:00", "search_state": "Elgeyo-Marakwet County", "species": "FAW", "Year": 2018, "Month_of_year": 4, "YearMonth": "2018-04", "Week_of_year": 17, "cluster": 3, "partition": 2 }, "geometry": { "type": "Point", "coordinates": [ 35.5888663, 1.053395 ] } },
{ "type": "Feature", "properties": { "lat": -4.3709909, "lon": 39.4011586, "Date": "2018-04-19T00:00:00", "search_state": "Kwale", "species": "FAW", "Year": 2018, "Month_of_year": 4, "YearMonth": "2018-04", "Week_of_year": 16, "cluster": 6, "partition": 0 }, "geometry": { "type": "Point", "coordinates": [ 39.4011586, -4.3709909 ] } },
{ "type": "Feature", "properties": { "lat": -1.3752691, "lon": 37.2478215, "Date": "2018-04-15T00:00:00", "search_state": "Machakos County", "species": "FAW", "Year": 2018, "Month_of_year": 4, "YearMonth": "2018-04", "Week_of_year": 15, "cluster": 1, "partition": 2 }, "geometry": { "type": "Point", "coordinates": [ 37.2478215, -1.3752691 ] } },
{ "type": "Feature", "properties": { "lat": -2.894053569, "lon": 37.5884336, "Date": "2018-04-12T00:00:00", "search_state": "Kajiado County", "species": "FAW", "Year": 2018, "Month_of_year": 4, "YearMonth": "2018-04", "Week_of_year": 15, "cluster": 4, "partition": 2 }, "geometry": { "type": "Point", "coordinates": [ 37.5884336, -2.894053569 ] } },
{ "type": "Feature", "properties": { "lat": -1.8546139, "lon": 36.7825261, "Date": "2018-04-10T00:00:00", "search_state": "Kajiado County", "species": "FAW", "Year": 2018, "Month_of_year": 4, "YearMonth": "2018-04", "Week_of_year": 15, "cluster": 7, "partition": 3 }, "geometry": { "type": "Point", "coordinates": [ 36.7825261, -1.8546139 ] } },
{ "type": "Feature", "properties": { "lat": -1.372557, "lon": 37.3474926, "Date": "2018-04-03T00:00:00", "search_state": "Machakos County", "species": "FAW", "Year": 2018, "Month_of_year": 4, "YearMonth": "2018-04", "Week_of_year": 14, "cluster": 1, "partition": 1 }, "geometry": { "type": "Point", "coordinates": [ 37.3474926, -1.372557 ] } },
{ "type": "Feature", "properties": { "lat": -0.41188, "lon": 37.68892, "Date": "2018-03-23T00:00:00", "search_state": "Tharaka-Nithi", "species": "FAW", "Year": 2018, "Month_of_year": 3, "YearMonth": "2018-03", "Week_of_year": 12, "cluster": 5, "partition": 2 }, "geometry": { "type": "Point", "coordinates": [ 37.68892, -0.41188 ] } },
{ "type": "Feature", "properties": { "lat": -0.6430817, "lon": 37.2372161, "Date": "2018-03-19T00:00:00", "search_state": "Kirinyaga County", "species": "FAW", "Year": 2018, "Month_of_year": 3, "YearMonth": "2018-03", "Week_of_year": 12, "cluster": 5, "partition": 0 }, "geometry": { "type": "Point", "coordinates": [ 37.2372161, -0.6430817 ] } },
{ "type": "Feature", "properties": { "lat": -0.5599069, "lon": 37.235621, "Date": "2018-03-19T00:00:00", "search_state": "Kirinyaga County", "species": "FAW", "Year": 2018, "Month_of_year": 3, "YearMonth": "2018-03", "Week_of_year": 12, "cluster": 5, "partition": 3 }, "geometry": { "type": "Point", "coordinates": [ 37.235621, -0.5599069 ] } },
{ "type": "Feature", "properties": { "lat": -0.318592, "lon": 37.65946, "Date": "2018-02-23T00:00:00", "search_state": "Tharaka-Nithi", "species": "FAW", "Year": 2018, "Month_of_year": 2, "YearMonth": "2018-02", "Week_of_year": 8, "cluster": 5, "partition": 0 }, "geometry": { "type": "Point", "coordinates": [ 37.65946, -0.318592 ] } },
{ "type": "Feature", "properties": { "lat": 1.0580648, "lon": 35.2106801, "Date": "2018-02-08T00:00:00", "search_state": "Trans-Nzoia County", "species": "FAW", "Year": 2018, "Month_of_year": 2, "YearMonth": "2018-02", "Week_of_year": 6, "cluster": 3, "partition": 0 }, "geometry": { "type": "Point", "coordinates": [ 35.2106801, 1.0580648 ] } },
{ "type": "Feature", "properties": { "lat": -2.8119982, "lon": 37.4958208, "Date": "2018-01-25T00:00:00", "search_state": "Kajiado County", "species": "FAW", "Year": 2018, "Month_of_year": 1, "YearMonth": "2018-01", "Week_of_year": 4, "cluster": 4, "partition": 0 }, "geometry": { "type": "Point", "coordinates": [ 37.4958208, -2.8119982 ] } },
{ "type": "Feature", "properties": { "lat": -0.928184, "lon": 35.86498, "Date": "2018-01-24T00:00:00", "search_state": "Narok", "species": "FAW", "Year": 2018, "Month_of_year": 1, "YearMonth": "2018-01", "Week_of_year": 4, "cluster": 2, "partition": 2 }, "geometry": { "type": "Point", "coordinates": [ 35.86498, -0.928184 ] } },
{ "type": "Feature", "properties": { "lat": 0.8097101, "lon": 35.0534424, "Date": "2017-12-22T00:00:00", "search_state": "Kakamega County", "species": "FAW", "Year": 2017, "Month_of_year": 12, "YearMonth": "2017-12", "Week_of_year": 51, "cluster": 3, "partition": 2 }, "geometry": { "type": "Point", "coordinates": [ 35.0534424, 0.8097101 ] } },
{ "type": "Feature", "properties": { "lat": -0.5258723, "lon": 37.077548, "Date": "2017-12-12T00:00:00", "search_state": "Nyeri", "species": "FAW", "Year": 2017, "Month_of_year": 12, "YearMonth": "2017-12", "Week_of_year": 50, "cluster": 5, "partition": 1 }, "geometry": { "type": "Point", "coordinates": [ 37.077548, -0.5258723 ] } },
{ "type": "Feature", "properties": { "lat": -0.9982082, "lon": 35.6008312, "Date": "2017-11-29T00:00:00", "search_state": "Narok", "species": "FAW", "Year": 2017, "Month_of_year": 11, "YearMonth": "2017-11", "Week_of_year": 48, "cluster": 2, "partition": 4 }, "geometry": { "type": "Point", "coordinates": [ 35.6008312, -0.9982082 ] } },
{ "type": "Feature", "properties": { "lat": -2.9304354, "lon": 37.5153078, "Date": "2017-11-29T00:00:00", "search_state": "Kajiado County", "species": "FAW", "Year": 2017, "Month_of_year": 11, "YearMonth": "2017-11", "Week_of_year": 48, "cluster": 4, "partition": 4 }, "geometry": { "type": "Point", "coordinates": [ 37.5153078, -2.9304354 ] } },
{ "type": "Feature", "properties": { "lat": -1.4004217, "lon": 36.7656218, "Date": "2017-11-29T00:00:00", "search_state": "Kajiado County", "species": "FAW", "Year": 2017, "Month_of_year": 11, "YearMonth": "2017-11", "Week_of_year": 48, "cluster": 7, "partition": 1 }, "geometry": { "type": "Point", "coordinates": [ 36.7656218, -1.4004217 ] } },
{ "type": "Feature", "properties": { "lat": -0.3977889, "lon": 37.5912438, "Date": "2017-11-23T00:00:00", "search_state": "Embu", "species": "FAW", "Year": 2017, "Month_of_year": 11, "YearMonth": "2017-11", "Week_of_year": 47, "cluster": 5, "partition": 3 }, "geometry": { "type": "Point", "coordinates": [ 37.5912438, -0.3977889 ] } },
{ "type": "Feature", "properties": { "lat": -0.4699266, "lon": 37.552953, "Date": "2017-11-21T00:00:00", "search_state": "Embu", "species": "FAW", "Year": 2017, "Month_of_year": 11, "YearMonth": "2017-11", "Week_of_year": 47, "cluster": 5, "partition": 0 }, "geometry": { "type": "Point", "coordinates": [ 37.552953, -0.4699266 ] } },
{ "type": "Feature", "properties": { "lat": -3.176272, "lon": 37.733, "Date": "2017-11-16T00:00:00", "search_state": "Kajiado County", "species": "FAW", "Year": 2017, "Month_of_year": 11, "YearMonth": "2017-11", "Week_of_year": 46, "cluster": 4, "partition": 3 }, "geometry": { "type": "Point", "coordinates": [ 37.733, -3.176272 ] } },
{ "type": "Feature", "properties": { "lat": -2.998274871, "lon": 37.62601476, "Date": "2017-09-14T00:00:00", "search_state": "Kajiado County", "species": "FAW", "Year": 2017, "Month_of_year": 9, "YearMonth": "2017-09", "Week_of_year": 37, "cluster": 4, "partition": 1 }, "geometry": { "type": "Point", "coordinates": [ 37.62601476, -2.998274871 ] } },
{ "type": "Feature", "properties": { "lat": -0.6263643, "lon": 37.0298186, "Date": "2017-08-31T00:00:00", "search_state": "Murang'a County", "species": "FAW", "Year": 2017, "Month_of_year": 8, "YearMonth": "2017-08", "Week_of_year": 35, "cluster": 5, "partition": 3 }, "geometry": { "type": "Point", "coordinates": [ 37.0298186, -0.6263643 ] } },
{ "type": "Feature", "properties": { "lat": -1.089464671, "lon": 35.95504539, "Date": "2017-07-24T00:00:00", "search_state": "Narok", "species": "FAW", "Year": 2017, "Month_of_year": 7, "YearMonth": "2017-07", "Week_of_year": 30, "cluster": 2, "partition": 0 }, "geometry": { "type": "Point", "coordinates": [ 35.95504539, -1.089464671 ] } },
{ "type": "Feature", "properties": { "lat": 0.9995849, "lon": 34.9721929, "Date": "2017-06-30T00:00:00", "search_state": "Trans-Nzoia County", "species": "FAW", "Year": 2017, "Month_of_year": 6, "YearMonth": "2017-06", "Week_of_year": 26, "cluster": 3, "partition": 1 }, "geometry": { "type": "Point", "coordinates": [ 34.9721929, 0.9995849 ] } },
{ "type": "Feature", "properties": { "lat": -1.28308, "lon": 36.7267, "Date": "2017-06-30T00:00:00", "search_state": "Nairobi County", "species": "FAW", "Year": 2017, "Month_of_year": 6, "YearMonth": "2017-06", "Week_of_year": 26, "cluster": 7, "partition": 4 }, "geometry": { "type": "Point", "coordinates": [ 36.7267, -1.28308 ] } },
{ "type": "Feature", "properties": { "lat": 0.99319, "lon": 34.87029, "Date": "2017-05-31T00:00:00", "search_state": "Trans-Nzoia County", "species": "FAW", "Year": 2017, "Month_of_year": 5, "YearMonth": "2017-05", "Week_of_year": 22, "cluster": 3, "partition": 2 }, "geometry": { "type": "Point", "coordinates": [ 34.87029, 0.99319 ] } },
{ "type": "Feature", "properties": { "lat": 0.95475, "lon": 35.61245, "Date": "2017-05-18T00:00:00", "search_state": "Elgeyo-Marakwet County", "species": "FAW", "Year": 2017, "Month_of_year": 5, "YearMonth": "2017-05", "Week_of_year": 20, "cluster": 3, "partition": 1 }, "geometry": { "type": "Point", "coordinates": [ 35.61245, 0.95475 ] } },
{ "type": "Feature", "properties": { "lat": -1.408468098, "lon": 37.48089637, "Date": "2017-05-12T00:00:00", "search_state": "Machakos County", "species": "FAW", "Year": 2017, "Month_of_year": 5, "YearMonth": "2017-05", "Week_of_year": 19, "cluster": 1, "partition": 1 }, "geometry": { "type": "Point", "coordinates": [ 37.48089637, -1.408468098 ] } },
{ "type": "Feature", "properties": { "lat": -1.79007, "lon": 36.0595, "Date": "2017-03-17T00:00:00", "search_state": "Kajiado County", "species": "FAW", "Year": 2017, "Month_of_year": 3, "YearMonth": "2017-03", "Week_of_year": 11, "cluster": 7, "partition": 0 }, "geometry": { "type": "Point", "coordinates": [ 36.0595, -1.79007 ] } }
]
}
